County,License_Number,Establishment_Type,Entity_Name,DBA_Name,Street_Number,Street_Name,City,State_Abbreviation,Zip_Code,Square_Footage,Latitude,Longitude
Erie,703857,JAC,142 GRANT ST LLC,SAVE A LOT,142,GRANT ST,BUFFALO,NY,14213,9000,-78.890665,42.917892
Erie,723731,JAC,BUTZER ALAN,CREEKSIDE MARKET,13971,RT 62,COLLINS,NY,14034,1500,-78.928744,42.498459
Madison,744205,A,OM HARI COMPANY INC,DK GROCERY,8,BROAD STREET,HAMILTON,NY,13346,0,-75.544146,42.826614
Monroe,746147,JAC,JGOTTI LLC,JGOTTI,908,PORTLAND AVE.,ROCHESTER,NY,14621,0,-77.586422,43.18244
Monroe,260638,A,RITE AID OF NEW YORK INC,RITE AID 3597,535,PORTLAND AVE,ROCHESTER,NY,14621,6000,-77.591066,43.175707
Monroe,261285,A,DOLGEN NEW YORK LLC,DOLLAR GENERAL 6386,50,MAIN ST,BROCKPORT,NY,14420,0,-77.938466,43.215609
Monroe,262070,JAC,SUPER104 INC,SUPER104,1375,HUDSON AVE,ROCHESTER,NY,14621,2000,-77.599869,43.191338
Monroe,729284,JAC,RIZ WAN ALI,BAY MINI MART,1055,BAY ST,ROCHESTER,NY,14609,0,-77.564883,43.171407
Montgomery,270112,A,ALDI INC,ALDI #37,4888,RT 30,AMSTERDAM,NY,12010,12000,-74.187106,42.968313
Oneida,720485,JAC,SPEEDWAY LLC,SPEEDWAY #07638,2639,GENESEE ST,UTICA,NY,13501,0,-75.279997,43.077195
Onondaga,743321,JAC,CUSE MART INC,CUSE MART,1718,GRANT BLVD,SYRACUSE,NY,13208,0,-76.139865,43.072232
Rockland,724524,JAC,JAY OM INC,JAY OM,41,ROUTE 59,NYACK,NY,10960,0,-73.934461,41.093969
Rockland,715524,JAC,SUPER SHIELD FOOD MART INC,SHELL,68,RT 59,SPRING VALLEY,NY,10977,0,-74.033564,41.105506
Suffolk,714372,JAC,JAK DELI CORP,JAK DELI,305,MONTAWK HWY,SPEONK,NY,11972,2000,-72.70564,40.819483
Suffolk,725395,A,EMINE-ANA CORP,THE TURKISH PISTACHIO,2026,MEDFORD AVE,MEDFORD,NY,11763,1700,-73.002551,40.808518
Ulster,510408,JACH,KRAUSES CHOCOLATES INC,KRAUSES CANDY,41,S PARTITION ST,SAUGERTIES,NY,12477,5700,-73.951291,42.072396
Westchester,556276,JAC,G&S CORP,DECICCO & SONS,43,5TH AVE,PELHAM,NY,10803,14500,-73.809332,40.911988
Westchester,714690,JAC,SUSHILOVER INC,SUSHILOVER @ SHOPRITE,8,JOYCE RD,NEW ROCHELLE,NY,10801,0,-73.776972,40.91885
Bronx,733263,JAC,SAZIA CORPORATION,ZK BAKERY,1567,SAINT PETERS AVE,BRONX,NY,10461,1000,-73.847724,40.840643
Bronx,750853,A,BUYK CORP,BUYK,190,W 231ST ST,BRONX,NY,10463,0,-73.904286,40.878728
Bronx,606498,JAC,LITTLE TWINS CORP,LITTLE TWINS,301,E 194TH ST,BRONX,NY,10458,1300,-73.891984,40.864544
Kings,746745,JAC,PETRICHOR LLC,HORSERADISH,839,BROADWAY,BROOKLYN,NY,11206,0,-73.938712,40.698918
Kings,749153,JAC,MJ CUT LLC,MJ CUT,807,AVENUE U,BROOKLYN,NY,11223,1200,-73.962716,40.598138
Kings,610044,JAC,MENDELSON FOOD INC,MEAL MART,14,LEE AVE,BROOKLYN,NY,11211,700,-73.961537,40.707161
Kings,619148,JAC,WY FOOD CORP,WY FOOD,270,5TH AVE,BROOKLYN,NY,11215,1500,-73.981847,40.674509
Kings,708825,A,POPULAR 99 CENTS & UP INC,POPULAR 99 CENTS,1508,FULTON ST,BROOKLYN,NY,11216,2000,-73.940565,40.679907
Kings,729960,A,MIRACLE STAR INC,MIRACLE STAR,4421,8TH AVE,BROOKLYN,NY,11220,1000,-74.000704,40.644034
Kings,714980,JAC,AJLJ EDIBLES INC,470 AVE P,470,AVE P,BROOKLYN,NY,11223,4000,-73.970096,40.609154
Kings,718179,JAC,S&S VEGETABLE INC,S&S VEGETABLE,92,LIVONIA AVE,BROOKLYN,NY,11212,1200,-73.914783,40.661687
Kings,724762,JAC,DA CAI INC,DA CAI,4814,8TH AVE,BROOKLYN,NY,11220,800,-74.002845,40.641957
New York,732590,JAC,LAMINE DELI CORP,LAMINE DELI,33,AVENUE D,NEW YORK,NY,10009,0,-73.977936,40.721081
New York,742163,JAC,LADERACH FIFTH AVE LLC,LADERACH CHOCOLATIER SU,537,FIFTH AVE,NEW YORK,NY,10017,2500,-73.979739,40.755042
New York,627356,JAC,SOHO GARDEN INC,SOHO GARDEN,40,PRINCE ST,NEW YORK,NY,10012,600,-73.995392,40.723233
New York,625364,JAC,NAMDOR INC,GRISTEDES 437,1343,LEXINGTON AVE,NEW YORK,NY,10128,14000,-73.954052,40.781563
New York,620267,JAC,471 6TH AVE FOOD CORP,H&H PRODUCE,471,6TH AVE,NEW YORK,NY,10011,2400,-73.998096,40.73563
Queens,734937,A,NINA SHOP INC,NINA SHOP,5548,MYRTLE AVENUE,RIDGEWOOD,NY,11385,1500,-73.906817,40.700053
Queens,749778,A,CITY DOLLAR INC,DOLLAR CITY,78-14,ROOSEVELT AVE,JACKSON HEIGHTS,NY,11372,0,,
Queens,745406,A,JAY BEBE SHOP INC,JAY BEBE SHOP,47-12,48TH AVE,WOODSIDE,NY,11377,800,-73.917993,40.739137
Queens,637931,JAC,JAMAN FOOD CORP,FINE FARE,199-11,HOLLIS AVE,HOLLIS,NY,11412,5000,,
Queens,716264,JAC,FLUSHING SUPERMARKET INC,WASSERMAN SUPERMARKET,72-51,MAIN ST,FLUSHING,NY,11367,6500,,
Richmond,737214,JAC,SBF FISHERY INC,SBF FISHERY,4045,AMBOY ROAD,STATEN ISLAND,NY,10308,400,-74.151325,40.549527
Richmond,641032,JAC,TARGET CORP,TARGET 2006,2900,VETERANS PKWY W,STATEN ISLAND,NY,10309,140000,,
Westchester,552008,JAC,ANDREAS FOOD MARKET INC,ANDREAS FOOD MARKET,41,LAKE ST,WHITE PLAINS,NY,10603,0,-73.75973,41.03802
Dutchess,704077,JAC,GURUSAI CORP,GARDEN STREET DELI,75,GARDEN ST.,POUGHKEEPSIE,NY,12601,1400,-73.925786,41.706587
Orange,330656,JABC,SHOP-RITE SUPERMARKETS INC,SHOPRITE #272  MIDDLETO,125,DOLSON AVE,MIDDLETOWN,NY,10940,35000,-74.424781,41.429777
Queens,740277,JAC,SAMMY GRILL & JUICE BAR CORP,SAMMY GRILL & JUICE BAR,159-02,HILLSIDE AVENUE,JAMAICA,NY,11432,0,-73.802432,40.707775
Broome,35567,JABC,CIDER MILL LLC THE,CIDER MILL THE,6-Feb,S NANTICOKE AVE,ENDICOTT,NY,13760,10000,-76.065519,42.098484
Westchester,743316,JAC,FRESH FOOD DELI & GRILL CORP,FRESH FOOD DELI & GRILL,97,YONKERS AVE,YONKERS,NY,10701,0,-73.885897,40.935331
Kings,726868,JAC,NOSTRAND FINEST DELI INC,NOSTRAND FINEST DELI,792,NOSTRAND AVE,BROOKLYN,NY,11216,1500,-73.950342,40.671518
New York,739043,JAC,245 EMPIRE GROCERY & DELI CORP,245 EMPIRE GROCERY & DE,245,9TH AVENUE,NEW YORK,NY,10001,0,-74.00042,40.747717
Bronx,604384,JAC,LONGWOOD ONE FISH CORP,LONGWOOD ONE FISH,838,WESTCHESTER AVE,BRONX,NY,10455,1000,-73.901735,40.819627
Kings,615869,JAC,KOLLEL FOOD INC,EMPIRE KOSHER SUPERMRKT,529,EMPIRE BLVD,BROOKLYN,NY,11225,3000,-73.944421,40.664153
Kings,737113,JAC,764 RAFI DELI GROCERY INC,764 RAFI DELI GROCERY,764,SNEDIKER AVENUE,BROOKLYN,NY,11207,600,-73.897541,40.655837
Bronx,603423,JAC,LEE UIDUK,STAR CITY FRUIT&VEG,676,ALLERTON AVE,BRONX,NY,10467,1200,-73.86819,40.865415
Cattaraugus,715176,JABC,PARKVIEW MARKETS LLC,SANDERS PARKVIEW,545,BROAD STREET,SALAMANCA,NY,14779,23000,-78.735338,42.158167
Albany,736545,JAC,LUCKY DICE MART INC,LUCKY DICE MART,32,N SWAN STREET,ALBANY,NY,12210,1500,-73.752808,42.65958
Suffolk,741445,JAC,NORTHPORT QUALITY MEATS INC,NORTHPORT QUALITY MEATS,829,FORT SALONGA ROAD,NORTHPORT,NY,11768,1200,-73.331751,40.898643
Queens,736880,A,WALGREEN EASTERN CO INC,WALGREENS #18246,193-01,NORTHERN BLVD,FLUSHING,NY,11358,3000,-73.787887,40.757951
Bronx,607283,JAC,TONY FRUITS & GROCERY CORP,TONY FRUITS & GROCERY,1004,E 174TH ST,BRONX,NY,10460,1100,-73.884168,40.836151
New York,627276,A,DUANE READE ETAL PTRS,DUANE READE 14185,100,DELANCEY ST,NEW YORK,NY,10002,8000,-73.988753,40.718818
Queens,748479,JAC,CATALPA CONVENIENCE DELI CORP,CATALPA CONVENIENCE DEL,68-47,FRESH POND RD,RIDGEWOOD,NY,11385,0,-73.895691,40.703965
New York,621033,A,KAMWO MERIDIAN HERB LLC,KAMWO MERIDIAN HERB,209-211,GRAND ST,NEW YORK,NY,10013,4000,-73.996136,40.718928
Bronx,736483,JAC,WAGGYS DELI & GROCERY CORP,WAGGYS DELI & GROCERY,950,ANDERSON AVENUE,BRONX,NY,10452,1200,-73.928115,40.830973
Montgomery,270086,A,DOLGEN NEW YORK LLC,DOLLAR GENERAL 9357,140,GUY PARK AVE,AMSTERDAM,NY,12010,10000,-74.198068,42.943951
Nassau,748526,JAC,7-ELEVEN INC,7-ELEVEN STORE #34086H,2950,MERRICK ROAD CNR RIVERSIDE A,BELLMORE,NY,11710,0,-73.517271,40.663405
Oneida,300505,JAC,MATTESON BRIDGET A&JAMES C,MATTESONS MARKET,12470,RT 28,WOODGATE,NY,13494,1800,-75.154228,43.535424
Nassau,743491,JAC,TRANSIST NEWS INC,TRANSIST NEWS,88,W COLUMBIA ST,HEMPSTEAD,NY,11550,400,-73.624741,40.711809
Kings,748670,JAC,SLOPE GROUP LLC THE,TAVOLA ITALIAN MARKET,274,COURT ST,BROOKLYN,NY,11231,1500,-73.99476,40.684723
Kings,618557,JAC,FLATLAND DELI GROCERY CORP,FLATLAND DELI GROCERY,911,E 107TH ST,BROOKLYN,NY,11236,1000,-73.893022,40.648201
Yates,570125,A,DOLGEN NEW YORK LLC,DOLLAR GENERAL #10301,16,SENECA ST,DUNDEE,NY,14837,8500,-76.975639,42.523436
St. Lawrence,713858,JAC,J PROULX INC,CANTON SAVE A LOT,5933,NYS ROUTE 11,CANTON,NY,13617,0,,
Suffolk,471688,JAC,KAM&RICK INC,BP FOOD SHOP,32400,MIDDLE RD RT 48,PECONIC,NY,11958,1000,,
New York,730690,JAC,LA ESQUINA DELI GROCERY INC,LA ESQUINA DELI GROCERY,2105,3RD AVE,NEW YORK,NY,10029,0,-73.940433,40.797387
Tioga,495096,JAC,UNITED REFINING CO OF PA INC,KWIK FILL A0050,450,NORTH AVE,OWEGO,NY,13827,1940,-76.269212,42.118457
Kings,719146,JABH,BAKERY BAKY INC,BAKU BAKERY,1903,AVENUE U,BROOKLYN,NY,11229,2000,-73.952386,40.599284
Kings,740147,A,EMANUEL DELI GROCERY CORP,EMANUEL DELI GROCERY,6402,BAY PKWY,BROOKLYN,NY,11204,800,-73.980926,40.614332
Dutchess,731638,JAC,CASTELLANOS LORENA,MUNDO LATINO GROCERY ST,7578,NORTH BROADWAY #1,RED HOOK,NY,12571,0,-73.87331,41.998709
Onondaga,709748,JAC,ALAMOS FOOD MARKET INC,ALAMOS FOOD MARKET,128,WALTON ST,SYRACUSE,NY,13202,1500,-76.154876,43.04797
Queens,733101,A,WALGREEN EASTERN CO INC,WALGREENS #19598,63-37,108TH STREET,FOREST HILLS,NY,11375,0,-73.850144,40.733984
Erie,141693,JAC,SALEH KASIM ALI ABDULLA,COMSTOCK DELI&GROCERY,262,COMSTOCK AVE,BUFFALO,NY,14215,1500,-78.817609,42.943863
Wayne,745694,JAC,THORNBEE FARMS LLC,THORNBEE FARMS,915,KUTTRUFF,WALWORTH,NY,14568,1000,-77.335363,43.152429
Orange,331241,A,DOLLAR TREE STORES INC,DOLLAR TREE #4386,174,N MAIN ST,FLORIDA,NY,10921,10500,-74.358751,41.337786
Nassau,744287,A,2805 GFG EXPRESS LLC,GFG EXPRESS,2805,N JERUSALEM RD,EAST MEADOW,NY,11554,300,-73.531221,40.706429
Kings,614539,JAC,KINGS VALLEY FRUIT INC,KINGS VALLEY FRUIT,1624-1626,KINGS HWY,BROOKLYN,NY,11229,1200,-73.956768,40.609418
Chenango,750709,A,SAAM JOSEPH G,HYMN & HAWE COUNTRY STO,43,GENESEE STREET,GREENE,NY,13778,0,-75.770888,42.329813
Queens,745469,JAC,IL FORNAIO DUE CORP,IL FORNAIO DUE,33-14,30TH AVENUE,ASTORIA,NY,11103,3000,-73.919247,40.765896
New York,703354,JAC,SOOMI PARK-SHIN,S. S. FISH MARKET,76,SHERMAN AVE,NEW YORK,NY,10040,1800,-73.926395,40.863455
Columbia,100358,JAC,SCOTT & THERESA LLC,BRYANT FARMS,5498,RT 9H & 23,HUDSON,NY,12534,2000,,
Bronx,745575,JAC,MR CHOPPED CHEESE & GROCERY CORP,MR CHOPPED CHEESE & GRO,53,W FORDHAM RD,BRONX,NY,10468,1000,-73.903486,40.862746
Kings,720553,JAC,GREEN GARDEN 1 DELI CORP,GREEN GARDEN 1 DELI,2801,NOSTRAND AVE,BROOKLYN,NY,11229,0,-73.944754,40.615724
Nassau,740828,JAC,EL BROTHER DELI CORP,EL BROTHER DELI,18,MOTT AVE,INWOOD,NY,11096,1000,-73.738108,40.618412
Nassau,734284,JAC,SAAD DELI CORP,SAAD DELI,8,JAMES LL BURRELL AVE,HEMPSTEAD,NY,11550,0,-73.614292,40.714453
Chautauqua,749488,JAC,RIVERA MATTHEW,PATRICK'S SMOKE SHOP,615,NORTH MAIN STREET,JAMESTOWN,NY,14701,1800,-79.241927,42.09952
Saratoga,744515,JAC,JUST MEATS OF MALTA,JUST MEATS OF MALTA,2858,ROUTE 9,BALLSTON SPA,NY,12020,3000,,
Erie,142446,A,MUSA ALI M,BETTER BUY MARKET,2005,GENESEE ST,BUFFALO,NY,14211,1000,-78.808258,42.914825
Oneida,305801,JAC,TOMS NATURAL FOODS LTD,TOMS NATURAL FOODS,16,COLLEGE ST,CLINTON,NY,13323,1200,-75.379523,43.048213
Bronx,711356,JACDH,FOODFEST DEPOT LLC,FOODFEST DEPOT,500,E 132ND ST,BRONX,NY,10454,80000,-73.922799,40.803987
Westchester,728341,A,THE MARKET AT UNION HALL LLC,THE MARKET AT UNION HAL,2,KEELER LANE,NORTH SALEM,NY,10560,450,-73.570865,41.334729
Kings,742854,JAC,WINN SYLWIA,PODLASIE-POLISH AMERICA,7607,NEW UTRECHT AVE,BROOKLYN,NY,11214,1500,-74.000307,40.614539
New York,629176,JAC,AVENUE A DELI & FOOD INC,AVENUE A DELI & FOOD,24,AVENUE A,NEW YORK,NY,10009,1100,-73.98566,40.723134
Saratoga,747225,JAC,CARDONAS SARATOGA LLC,CARDONAS,222,WASHINGTON ST,SARATOGA SPRINGS,NY,12866,0,-73.798132,43.080042
Otsego,725254,JAC,REINHARDT CORP,THE CENTER,9550,ST HWY 7,WORCESTER,NY,12197,10000,-74.730398,42.5958
Erie,740575,A,US MINI MART INC,US MINI MART,179,MILITARY RD,BUFFALO,NY,14207,1500,-78.891912,42.941638
Kings,720266,JAC,KOSHER DISCOUNT LLC,KOSHER DISCOUNT,4909,13TH AVE,BROOKLYN,NY,11219,4800,-73.992412,40.634744
Tompkins,500316,JABC,BJS WHOLESALE CLUB INC,BJS WHOLESALE CLUB 352,40,GRAHAM RD WEST,ITHACA,NY,14850,86000,-76.489124,42.485931
Bronx,745395,JAC,SWEET APPLE DELI GROCERY INC,SWEET APPLE DELI GROCER,395,E 151ST ST,BRONX,NY,10455,900,-73.917362,40.817571
New York,626461,JAC,DUANE READE ETAL PTRS,DUANE READE #14524,1627-1629,BROADWAY,NEW YORK,NY,10019,2000,-73.984155,40.761274
New York,731842,A,3635 SILVER SADDLE DELI GROCERY I,3635 SILVER SADDLE DELI,3635,BROADWAY,NEW YORK,NY,10031,0,-73.948413,40.829401
Nassau,282605,JAC,AGB DELI INC,AGB DELI,914,JERICHO TPKE,NEW HYDE PARK,NY,11040,3600,-73.685722,40.732422
Queens,637826,A,CVS ALBANY LLC,CVS/PHARMACY #1107,68-02,MYRTLE AVE,GLENDALE,NY,11385,10000,-73.884514,40.701643
Ulster,510779,JAC,KRS PETROL INC,CITGO MART,3139,RT 28,SHOKAN,NY,12481,1800,-74.206906,41.973721
Genesee,180213,JAC,BATAVIA FOODS INC,SAVE A LOT,45-47,ELLICOTT ST,BATAVIA,NY,14020,18000,-78.184794,42.996076
Suffolk,737507,A,SMOKE WORX INC,SMOKE WORX,500,OAK STREET,COPIAGUE,NY,11726,1000,-73.39933,40.679925
Jefferson,220152,A,DOLGEN NEW YORK LLC,DOLLAR GENERAL 8676,1222,ARSENAL ST,WATERTOWN,NY,13601,6000,-75.942538,43.976622
Bronx,736968,JAC,1150 JOSEPH DELI & GROCERY INC,1150 JOSEPH DELI & GROC,1150,GARRISON AVE,BRONX,NY,10474,400,-73.888711,40.820098
Kings,610798,JAC,HB&SON MEAT CORP,MARKETPLACE OF BUSHWICK,1781-1783,BROADWAY,BROOKLYN,NY,11207,15000,-73.909547,40.682372
Columbia,100232,A,FAMILY DOLLAR STORES OF NY INC,FAMILY DOLLAR #2358,15,DARDESS DR,CHATHAM,NY,12037,5000,-73.605025,42.350701
Queens,739415,JAC,HUA LIAN SUPERMARKET INC,HUA LIAN SUPERMARKET,25-03,PARSONS BLVD,FLUSHING,NY,11354,27000,-73.824434,40.77603
Orange,331250,A,ASAIDI MOHAMED A,A&S QUICK STOP,220,BROADWAY,NEWBURGH,NY,12550,1000,-74.017333,41.500435
Queens,638247,JAC,ASTORIA FISHERY CORP,OCEAN FISH,35-08,30TH AVE,ASTORIA,NY,11103,1500,-73.91788,40.765248
New York,623223,JABCD,MISONO FOOD LTD,BUONITALIA,75,9TH AVE,NEW YORK,NY,10011,11000,-74.004466,40.742227
Queens,639187,A,TOYS R US DELAWARE INC,TOYS R US #6322,61ST,AVE & DOUGLASTON PKWY,LITTLE NECK,NY,11363,0,,
Bronx,601536,JAC,EAST 233 FOOD CORP,FINE FARE SUPERMARKET,1199,E 233RD ST,BRONX,NY,10466,14000,-73.843364,40.888923
Clinton,709612,JACW,FORTIN MARY G & GILLES M,AMAZING GRACE VINEYARD,9839,RT 9,CHAZY,NY,12921,1500,-73.436335,44.901365
Kings,619459,JAC,STANKOWSKI ZBIGNIEW,STAR DELI&BAKERY,176,NASSAU AVE,BROOKLYN,NY,11222,1000,-73.946184,40.725291
Kings,746166,JAC,EL NUEVO TAMARINDO DELI GROCERY C,EL NUEVO TAMARINDO DELI,1729,86TH STREET,BROOKLYN,NY,11214,1500,-74.003786,40.607951
Jefferson,721374,JAC,BOTTLE CAPS BEVERAGE CTR INC,BOTTLE CAPS,952,ARSENAL ST,WATERTOWN,NY,13601,800,-75.933884,43.976733
Erie,749669,JAC,RAHMA FOODS LLC,RAHMA  SUPERMARKET,975,BROADWAY,BUFFALO,NY,14212,0,-78.838619,42.893137
Kings,709004,A,HEALTH MAX 5TH AVENUE INC,HEALTH MAX PHARMACY,5313,5TH AVE,BROOKLYN,NY,11220,10000,,
Kings,612927,JAC,SSS SUNFLOWER CORP,SUNFLOWER FOOD MARKET,2409,65TH ST,BROOKLYN,NY,11204,1500,-73.976674,40.610969
Oswego,350044,JAC,KTM SCRIBA OPERATIONS INC,KTM MINI MART,2203,CTY RT 1,OSWEGO,NY,13126,2400,,
Bronx,748352,A,MOEBUCKS FOOD CORP,MOEBUCKS FOOD,2444,E TREMONT AVE,BRONX,NY,10461,700,-73.851789,40.842649
Rensselaer,720186,A,DOLLAR TREE STORES INC,DOLLAR TREE #06702,21299,STATE RT 22,HOOSICK FALLS,NY,12090,0,-73.358019,42.880936
Cattaraugus,742267,JAC,A PLUS CONVENIENCE STORES INC,7 ELEVEN STORE #35095B,183,W MAIN ST,ALLEGANY,NY,14706,2500,-78.500017,42.094253
Oneida,300408,A,DOLGEN NEW YORK LLC,DOLLAR GENERAL #6469,131,ORISKANY BLVD SUITE 7,WHITESBORO,NY,13492,6800,-75.292991,43.118989
Queens,740179,JAC,7 STAR GOURMET DELI INC,7 STAR GOURMET DELI,122-23,GUY R BREWER BLVD,JAMAICA,NY,11434,1000,-73.779632,40.678553
New York,628645,JAC,PRAMUKH 16 INC,NATURAL HEALTH FOOD MAR,162,3RD AVE,NEW YORK,NY,10003,2000,-73.986302,40.734507
Bronx,609834,JAC,JSMD FOOD CORP,C TOWN 054,100,HUGH J GRANT CIRCLE,BRONX,NY,10472,8000,-73.860947,40.832672
Kings,750173,JAC,A&J DELI MARKET CORP,A&J DELI MARKET,5004,3RD AVENUE,BROOKLYN,NY,11220,500,-74.014879,40.647636
Bronx,608536,A,DOLLAR RESORT INC,DOLLAR RESORT,190,EAST 167 ST,BRONX,NY,10456,0,-73.917169,40.834221
Bronx,733520,A,5235 BROADWAY INC,BRADWAY DEALS,5237,BROADWAY,BRONX,NY,10463,0,-73.908844,40.875428
New York,625828,A,WILLIAMS SONOMA INC,WILLIAMS SONOMA,10,COLUMBUS CIRCLE,NEW YORK,NY,10019,8000,-73.9827,40.7674
Oswego,350173,A,BURT GOODNOUGHS MARINA EAST INC,BURT GOODNOUGHS MARINA,9245,ST RTE 3,SANDY CREEK,NY,13145,200,-76.171808,43.676849
New York,719807,A,THE TJX COMPANIES INC,TJ MAX 1185,407,E 59TH ST,NEW YORK,NY,10022,11000,-73.961354,40.759362
Kings,734849,JAC,CROWN STAR DELI INC,CROWN STAR DELI,240,UTICA AVE,BROOKLYN,NY,11213,1000,-73.930974,40.670349
Monroe,746843,JAC,ADEN MINI MART INC,ADEN MINI MART,1384,N CLINTON AVENUE,ROCHESTER,NY,14621,0,-77.613766,43.185103
Bronx,718974,JAC,A&G DELI GROCERY II CORP,A & G DELI GROCERY II,976,PROSPECT AVE,BRONX,NY,10459,0,-73.900093,40.823323
Onondaga,311153,JABC,TOPS PT LLC,TOPS 357,2265,DOWNER ST,BALDWINSVILLE,NY,13027,50000,,
Kings,735820,JAC,THREE STARS DELI 1 CORP,THREE STARS DELI 1,1221,FLATBUSH AVE,BROOKLYN,NY,11226,0,-73.955391,40.640256
Tompkins,500112,JABC,TOPS MARKETS LLC,TOPS 525,710,SOUTH MEADOW ST,ITHACA,NY,14850,0,-76.508019,42.432122
New York,731076,A,MILLENNIUM CONVENIENCE & GROCERY,MILLENNIUM CONVENIENCE,1737,YORK AVE,NEW YORK,NY,10128,1500,-73.945051,40.778778
Madison,255166,JAC,UNITED REFINING CO OF PA INC,RED APPLE FD MRT M0361,129,N MAIN ST  (RT 46),ONEIDA,NY,13421,1200,-75.653321,43.097207
Queens,751075,JAC,120 FRESH MARKET INC,HAPPY FARM,120-01,LIBERTY AVE,SOUTH RICHMOND HIL,NY,11419,0,-73.822998,40.686694
Kings,612528,A,WALGREEN EASTERN CO INC,WALGREENS 2650,5716,AVENUE U,BROOKLYN,NY,11234,10000,-73.917183,40.613298
Greene,727075,JAC,TAMANNA INC,TAMANNA,441,MAIN ST PO BOX 845,CAIRO,NY,12413,800,-73.994395,42.295963
Queens,747760,JAC,ROCKAWAY GOURMET DELI INC,ROCKAWAY GOURMET DELI,131-02,ROCKAWAY BLVD,SOUTH OZONE PARK,NY,11420,0,-73.807217,40.674884
Dutchess,736374,A,FIVE BELOW INC (8020),FIVE BELOW,2001,SOUTH RD STE A113,POUGHKEEPSIE,NY,12601,4000,-73.917119,41.626711
Bronx,726039,JAC,CHOI HAE S,165 STREET MARKET,245,EAST 165TH STREET,BRONX,NY,10456,2200,-73.917284,40.829654
Montgomery,732158,A,DOLGEN NEW YORK LLC,DOLLAR GENERAL #18503,201,E MAIN ST,AMSTERDAM,NY,12010,9160,-74.18552,42.93391
Queens,745703,JAC,BOLLA OPERATING CORP,BOLLA 100-03 COHANCY C-,100-03,N CONDUIT AVE,OZONE PARK,NY,11417,3000,-73.834436,40.667071
Suffolk,472567,JAC,2010 LOS CERCADILLOS GROCERY CORP,LOS CERCADILLOS GRCY,184,DEPOT RD,HUNTINGTON STATION,NY,11746,2000,-73.405796,40.843997
Chenango,85182,JAC,VERONA OIL CO INC,COUNTRY STORE 13,30,MAPLE ST,AFTON,NY,13730,2400,-75.521874,42.226047
Westchester,727192,JAC,LA PLACITA MEAT & PRODUCE INC,LA PLACITA MEAT & PRODU,1,PARK AVENUE,MOUNT VERNON,NY,10550,7000,-73.833989,40.912814
Seneca,716217,JAC,CST NEW YORK LLC,CIRCLE K 4707632,193,FALL ST,SENECA FALLS,NY,13148,0,-76.804998,42.910539
Ulster,730794,JAC,SWIFT PETROL INC,MOBIL 44/55,560,ROUTE 44/55,HIGHLAND,NY,12528,1400,-74.009681,41.692752
Cortland,110105,JAC,CORTLAND BEER COMPANY LLC,CORTLAND BEER,16,COURT ST,CORTLAND,NY,13045,1120,-76.179553,42.599334
Queens,636420,A,WALGREEN EASTERN CO INC,WALGREENS 1180,33-55-67,CRESCENT ST,LONG ISLAND CITY,NY,11106,2000,,
Kings,737391,JAC,CANAAN DELI CORP,CANAAN DELI,191,YORK STREET,BROOKLYN,NY,11201,0,-73.983199,40.701378
New York,739662,JAC,WESTSIDE FRUITS & VEGETABLES INC,WESTSIDE FRUITS & VEGET,900,AMSTERDAM AVENUE,NEW YORK,NY,10025,1000,-73.966597,40.79924
Westchester,745339,JAC,916 LATIN DELI GROCERY CORP,916 LATIN DELI GROCERY,916,MAIN ST #920,PEEKSKILL,NY,10566,1600,-73.921624,41.291519
New York,719008,A,HUDSON GROUP (HG) RETAIL LLC,HUDSON #1111,625,8TH AVE,NEW YORK,NY,10018,0,-73.990466,40.7563
Bronx,705939,JAC,LA BODEGUITA DE ROSAURA INC,LA BODEGUITA DE ROSAURA,160,E 174TH ST,BRONX,NY,10457,0,-73.908397,40.845213
Dutchess,130805,JAC,LAXMI BUILDING INC,BEACON NATURAL MARKET,348,MAIN ST,BEACON,NY,12508,5500,-73.968483,41.504214
Nassau,707209,JACK,CENTERPORT PACKING CO INC,RIVERHEAD BEAN CO,485-17,S BROADWAY,HICKSVILLE,NY,11801,5000,-73.509924,40.756293
Nassau,737571,JAC,MAHANT 179 INC,HARRYS MARKET,179,ATLANTIC AVE,FREEPORT,NY,11520,4000,-73.583842,40.645779
Ulster,720653,JAC,SPEEDWAY LLC,SPEEDWAY #07722,399,RT 212,SAUGERTIES,NY,12477,2500,-73.977722,42.083189
New York,624461,JAC,FARE FARM FOOD CORP,FINE FARE SUPERMARKET,4776,BROADWAY,NEW YORK,NY,10034,15000,-73.926534,40.865794
Putnam,370103,JAC,123 JACKPOT INC,CARMEL EXTRA FUEL,89,GLENEIDA AVE,CARMEL,NY,10512,300,-73.679608,41.42972
Kings,751151,A,FRIDGE NO MORE INC,FRIDGE NO MORE,3344,NOSTRAND AVE,BROOKLYN,NY,11229,0,-73.942264,40.602404
New York,626701,A,DUANE READE ETAL PTRS,DUANE READE 14356,325,NORTH END AVE,NEW YORK,NY,10281,2000,-74.014749,40.716845
Greene,704475,JAC,TOPS MARKETS LLC,TOPS #720,11573,STATE ROUTE 32,GREENVILLE,NY,12083,50000,-74.017151,42.428622
New York,712840,JAC,IN & OUT TOBACCO DELI CORP,IN & OUT TOBACCO DELI,1020,6TH AVE,NEW YORK,NY,10018,1200,-73.985849,40.752428
Clinton,747763,JAC,PROVOST KEITH,ADIRONDACK JUICE WORKS,90,SHARRON AVENUE,PLATTSBURGH,NY,12901,300,-73.453056,44.678234
Westchester,710912,JAC,GENJI LLC,GENJI,575,BOSTON POST RD,PORT CHESTER,NY,10573,15,-73.675998,40.993122
Oneida,712966,JAC,UTICA DELI & GROCERY MKT. INC,UTICA DELI & GROCERY,625,ALBANY STREET,UTICA,NY,13501,800,-75.215931,43.095697
Queens,748327,JAC,MINI GROCERY NATIONAL CORP,MINI GROCERY NATIONAL C,42-22,NATIONAL ST,CORONA,NY,11368,0,-73.863709,40.746897
Kings,728407,JAC,JOHANSEL DELI FOOD CORP,JOHANSEL DELI FOOD,383,NOSTRAND AVE,BROOKLYN,NY,11216,1400,-73.950407,40.684589
Steuben,750803,A,WAYLAND EXPRESS 1 LLC,WAYLAND EXPRESS 1,2341,STREET NY-63,WAYLAND,NY,14572,0,-77.601986,42.563704
Bronx,736638,JAC,FRIENDS AND FAMILY DELI CORP,FRIENDS AND FAMILY DELI,59,W 170TH STREET,BRONX,NY,10452,0,-73.920812,40.840403
Queens,736802,JAC,BIG APPLE DELI INC THE,BIG APPLE DELI THE,42-16,30TH AVENUE,ASTORIA,NY,11103,3000,-73.912811,40.762866
Montgomery,270101,JAC,FIVE CORNERS MOBILE INC,FIVE CORNERS MOBILE,165,CHURCH ST,AMSTERDAM,NY,12010,2400,-74.178615,42.937177
Nassau,281020,A,OCEANSIDE CARDS INC,50% OFF CARDS,35-56,LONG BEACH RD,OCEANSIDE,NY,11572,2000,-73.640185,40.642599
Broome,30330,A,FAMILY DOLLAR STORES OF NY INC,FAMILY DOLLAR #3819,1173,VESTAL AVE,BINGHAMTON,NY,13903,7200,-75.914848,42.088818
New York,714991,JAC,181 PARK DELI CORP,GRILL & HEIGHT DELI,508,W 181ST ST,NEW YORK,NY,10033,1500,-73.931587,40.848403
Kings,612165,JAC,F&G SUPERMARKET CORP,F&G SUPERMARKET,2807,86TH ST,BROOKLYN,NY,11223,0,-73.978812,40.592859
Westchester,744372,JAC,PAULIES GRAB & GO LLC,PAULIES GRAB & GO,24,WOODSBRIDGE RD,KATONAH,NY,10536,900,-73.685664,41.261692
Kings,727440,JAC,GREENE MARKET INC,GREENE MARKET,137,STUYVESANT AVE,BROOKLYN,NY,11221,1200,-73.933606,40.690746
Queens,639429,JAC,AAN DELI&GROCERY INC,AAN DELI&GROCERY,35-14,28TH AVE,ASTORIA,NY,11103,1000,-73.916354,40.766726
Ontario,733039,JAC,MALCHOS MANCHESTER MART INC,MALCHOS MANCHESTER MART,70,N MAIN ST,MANCHESTER,NY,14504,3500,-77.228301,42.974766
Queens,748930,JAC,MOUNT EVEREST MARKET & DELI INC,MOUNT EVEREST MARKET &,56-09,MYRTLE AVE,RIDGEWOOD,NY,11385,0,-73.905861,40.700164
New York,629109,JAC,ADNADER INC,ADNADER INC,218,ST NICHOLAS AVE,NEW YORK,NY,10027,1600,-73.952906,40.80755
Greene,748640,A,LASH SIERRA,EARTHWORM,7829,ROUTE 81,OAK HILL,NY,12460,0,-74.152658,42.410615
Kings,748130,JAC,SPECIAL FOOD MARKET CORP,SPECIAL FOOD MARKET,661,EVERGREEN AVE,BROOKLYN,NY,11207,0,-73.910069,40.687191
Queens,746738,JAC,SMILE N DELIGHT INC,SMILE N DELIGHT,66-18,99TH STREET,REGO PARK,NY,11374,0,-73.854757,40.728045
Kings,737618,JAC,1767 HEALTHY DELI & GRILL INC,1767 HEALTHY DELI & GRI,1245,HALSEY ST,BROOKLYN,NY,11237,800,-73.907153,40.693942
Kings,747135,JAC,BLUE MOON DELI AND MORE CORP,BLUE MOON DELI AND MORE,4901,4TH AVE,BROOKLYN,NY,11220,1000,-74.011927,40.647001
Queens,742721,JAC,BHAKTI 118 INC,MINI MART,118-19,QUEENS BLVD,FOREST HILLS,NY,11375,0,-73.831548,40.714856
Monroe,709789,JAC,AJS BEER WAREHOUSE LLC,AJS BEER WAREHOUSE,175,CLAY RD,ROCHESTER,NY,14623,11000,-77.615865,43.089708
Schenectady,704759,JAC,LUCKY ELSHIEKH INC,LUCKY MARKET,752,ALBANY ST  1ST FL,SCHENECTADY,NY,12307,0,-73.937314,42.807844
Nassau,282642,JAC,WOODFIELD MINI MARKET INC,WOODFIELD GROCERY,1017,WOODFIELD RD,WEST HEMPSTEAD,NY,11552,2000,-73.652904,40.676629
Kings,740916,A,AVENUE B GROCERY CORP,AVENUE B GROCERY,9010,AVENUE B,BROOKLYN,NY,11236,1500,-73.916009,40.64973
Washington,530035,JABC,GARDEN BARN LLC THE,GARDEN BARN,351,EAST RD,FORT EDWARD,NY,12828,900,-73.539418,43.282243
Bronx,600493,A,GENERAL NUTRITION CORP,GENERAL NUTRITION 3057,5625,BROADWAY&232ND ST,BRONX,NY,10463,2000,,
Rensselaer,720645,JAC,SPEEDWAY LLC,SPEEDWAY #07709,800,BURDEN AVE,TROY,NY,12180,1800,-73.696473,42.703655
St. Lawrence,400268,JAC,STEFFENHAGEN AMANDA R,MAIN STREET MARKET,3744,CTY RT 14,MADRID,NY,13660,4800,,
Nassau,733071,A,WALGREEN EASTERN CO INC,WALGREENS #18373,392-410,PLANDOME ROAD,MANHASSET,NY,11030,0,-73.699915,40.798172
Kings,748278,JAC,TEYITO MEXICAN DELI & GROCERY COR,TEYITO MEXICAN DELI & G,1420,NOSTRAND AVE,BROOKLYN,NY,11226,0,-73.949685,40.651917
New York,742923,JAC,LENOX FIVE STAR DELI GROCERY INC,LENOX FIVE STAR DELI GR,685,LENOX AVENUE,NEW YORK,NY,10037,1800,-73.936646,40.819999
Niagara,290193,A,RITE AID OF NEW YORK INC,RITE AID 1597,125,S TRANSIT ST,LOCKPORT,NY,14094,15000,-78.696861,43.164186
New York,629324,JAC,MID WESTSIDE CONVENIENCE INC,MID WESTSIDE CONV STORE,653,AMSTERDAM AVE,NEW YORK,NY,10025,750,-73.97247,40.79118
Kings,619572,JAC,2000 GOR-MET CORP,2000 GOR-MET,17,LINCOLN RD,BROOKLYN,NY,11225,2500,-73.962367,40.660616
Kings,613853,A,MATI&A CORP,GETTY MART,10,MALCOLM X BLVD,BROOKLYN,NY,11221,500,-73.931268,40.693956
Bronx,716299,JAC,BRYANT DELI AND GROCERY CORP,BRYANT DELI AND GROCERY,1950,BRYANT AVE,BRONX,NY,10460,1000,-73.881705,40.840478
Erie,740064,JAC,BLUE TABLE CHOCOLATES LLC,BLUE TABLE CHOCOLATES,44,BRAYTON ST,BUFFALO,NY,14213,560,-78.885302,42.910959
Westchester,551921,JAC,MAMARONECK FOOD CORP,STOP 1,712,OLD WHITE PLAINS RD,MAMARONECK,NY,10543,2500,-73.740117,40.95483
Kings,738751,JAC,ADENIYI ANITA,LANITA AFRICAN & CARRIB,999,RUTLAND ROAD,BROOKLYN,NY,11212,0,-73.926438,40.662636
Bronx,730349,JAC,SOSUA FOOD CENTER CORP,SOSUA FOOD CENTER,2634,3RD AVENUE,BRONX,NY,10454,0,-73.924236,40.812625
Jefferson,736768,JAC,CORNELL COOPERATIVE EXTENSION OF,NORTH COUNTRY TASTE NEW,43350,COLLINS LANDING ROAD,ALEXANDRIA BAY,NY,13607,0,-75.975911,44.294149
Nassau,280482,A,GENOVESE DRUG STORES INC,RITE AID 10611,1140,WILLIS AVE,ALBERTSON,NY,11507,3000,-73.650066,40.775355
Queens,748016,JAC,DELI COUNTER & GRILL CORP,YORK DELI & GRILL,108-02,GUY R BREWER BLVD,JAMAICA,NY,11433,1000,-73.791166,40.696469
Chautauqua,732680,JAC,ROBO IN FALCONER LLC,ROBO IN FALCONER,34,E MAIN ST,FALCONER,NY,14733,500,-79.196987,42.119912
Nassau,281297,JABC,VERO&BERE DELI INC,VERO&BERE DELI,2,SAVOY AVE,ELMONT,NY,11003,2000,-73.715224,40.70767
Ulster,748535,JAC,ANSSHSAHEJ LLC,MY MARKET,140,N CHESTNUT ST,NEW PALTZ,NY,12561,2500,-74.082142,41.758291
Clinton,90156,JAC,STEWARTS SHOPS CORP,STEWARTS SHOP 225,4717,RT 9,PLATTSBURGH,NY,12901,1500,-73.446174,44.670648
Kings,702325,JAC,OASIS MEGA MARKET INC,OASIS MEGA MARKET,2828,CONEY ISLAND AVE.,BROOKLYN,NY,11235,5000,-73.960419,40.587501
Ulster,739165,A,DOLGEN NEW YORK LLC,DOLLAR GENERAL STORE #2,1162,BROADWAY,ESOPUS,NY,12429,0,-73.966731,41.828047
Oneida,300321,A,DOLGEN NEW YORK LLC,DOLLAR GENERAL 8559,801,BLACK RIVER BLVD N,ROME,NY,13440,7989,-75.446513,43.220551
New York,627813,JAC,NEUHAUS INC,NEUHAUS,460,GRAND CENTRAL TERMINAL,NEW YORK,NY,10017,100,,
Orange,746431,A,FREEDOM HILL FARMS LLC,THE FARM STORE,115,GRANGE ROAD,OTISVILLE,NY,10963,1000,-74.535813,41.45148
Kings,619647,JAC,BRENMANS MEAT MARKET INC,BRENMANS MEAT MARKET,2496,GERRITSEN AVE,BROOKLYN,NY,11229,1800,-73.92964,40.596788
Queens,744174,A,49 ROSE GROCERY INC,49 ROSE GROCERY,4919,108TH ST,CORONA,NY,11368,0,-73.85567,40.744722
Bronx,718972,JAC,245 BROADWAY MARKET CORP,245 BROADWAY MARKET,6029,BROADWAY,BRONX,NY,10471,1200,-73.897454,40.891536
Suffolk,473119,JABC,STOP&SHOP SUPERMARKET CO LLC THE,STOP&SHOP SUPERMKT 544,449,PORTION RD,LAKE RONKONKOMA,NY,11779,52000,-73.095638,40.829296
Kings,706599,JACD,MAMA O'S PREMIUM KIMCHI INC,MAMA O'S PREMIUM KIMCHI,630,FLUSHING AVE STE 810 BOX #96,BROOKLYN,NY,11206,750,,
Kings,612779,A,RIDGE BLVD GROCERY&DELI INC,RIDGE BLVD GROCERY&DELI,6905,RIDGE BLVD,BROOKLYN,NY,11209,1000,-74.028741,40.636342
Albany,720955,A,DOLLAR TREE STORES INC,DOLLAR TREE #06253,484,ALBANY SHAKER RD,ALBANY,NY,12211,10265,-73.777164,42.706609
New York,729450,JAC,79 GOURMET DELI INC,YORK DELI,1492,YORK AVENUE STORE 7,NEW YORK,NY,10075,0,-73.950557,40.771232
Monroe,261460,JAC,640 PITTSFORD VICTOR LLC,HESS - STEAMERS BASIN T,640,PITTSFORD VICTOR RD,PITTSFORD,NY,14534,1100,-77.477822,43.061924
Rensselaer,736192,JAC,4 CORNER CONVENIENCE INC,4 CORNER CONVENIENCE,2901,6TH AVE,TROY,NY,12180,1500,-73.682069,42.745945
Saratoga,730214,JAC,GTB FUEL CORP,GTB FUEL,601,PLANK RD,CLIFTON PARK,NY,12065,0,-73.77851,42.862944
Erie,141347,JAC,MITRI CORP,PALACE OF SWEETS THE,9400,MAIN ST,CLARENCE,NY,14031,500,-78.639901,42.971378
Chenango,729734,A,FROG POND FARMS LLC,FROG POND FARMS,2001,STATE HWY 7,BAINBRIDGE,NY,13733,12000,-75.480862,42.277054
Suffolk,712601,JABC,328 FOODS INC,GIUNTAS MEAT FARMS,328,UNION AVE,HOLBROOK,NY,11741,20000,-73.0809,40.811998
Monroe,267725,JAC,MALCHOS 390 CULVER RD LLC,MALCHOS 390 CULVER RD,390,CULVER RD,ROCHESTER,NY,14607,1000,-77.57078,43.15127
Kings,707481,JAC,ALJANOUB NATURAL DELI CORP,ALJANOUB NATURAL DELI,740,BROADWAY,BROOKLYN,NY,11206,1400,-73.942215,40.700889
Albany,10915,JAC,FRESH MARKET INC THE,FRESH MARKET OF NY THE,664,NEW LOUDON RD,LATHAM,NY,12110,23000,-73.762267,42.736131
Queens,748922,JAC,CESAR 187 DELI CORP,187 DELI & GRILL,187-54,JAMAICA AVE,HOLLIS,NY,11423,800,-73.770761,40.710677
Sullivan,742491,JAC,LA SALUMINA LLC,LA SALUMINA,210,MAIN ST,HURLEYVILLE,NY,12747,1100,-74.67415,41.736038
Nassau,718394,JAC,PLAZA GROCERY & DELI INC,PLAZA GROCERY & DELI,475,MAPLE AVE,WESTBURY,NY,11590,0,-73.581731,40.756539
Kings,723800,JAC,JAY DELI CORP,ORQUIDEA DELI,1614,AVENUE H,BROOKLYN,NY,11230,2000,-73.960837,40.630116
Suffolk,713067,A,JMI SERVICE INC,USA PETROLEUM MART,25,NEW YORK AVE,HUNTINGTON,NY,11743,750,-73.420043,40.882073
Nassau,280954,JACHK,LUDLAM AVE SEAFOOD INC,BAYVILLE SEAFOOD,18-20,LUDLAM AVE,BAYVILLE,NY,11709,1000,-73.549533,40.90657
Bronx,732046,JAC,LO TIGER GROCERY CORP,LO TIGER GROCERY,230,E 174TH STREET,BRONX,NY,10457,1000,-73.907292,40.844724
New York,628137,JAC,WESTERLY HEALTH FOODS INC,WESTERLY HEALTH FOODS,911-913,8TH AVE,NEW YORK,NY,10019,5000,-73.984128,40.765023
Suffolk,474182,JAC,J&G FRUITS LLC,EDIBLE ARRANGEMENTS,231,COMMACK RD,COMMACK,NY,11725,1000,-73.294678,40.837105
Erie,146699,JAD,DERIGO SALES INC,DERIGO SALES,3771-3790,HARLEM RD,CHEEKTOWAGA,NY,14215,25000,-78.784061,42.946661
Suffolk,728275,A,DIVINE PETRO INC,EXPRESS GAS,1034,ISLIP AVENUE,BRENTWOOD,NY,11717,1000,-73.210687,40.766164
Westchester,743722,JAC,CHESTNUT MARTS INC,CHESTNUT MARTS,154,BROADWAY,HAWTHORNE,NY,10532,700,-73.802988,41.107514
Delaware,120087,JAC,VERONA OIL CO INC,ROXBURY COUNTRY STR 29,53639,MAIN ST,ROXBURY,NY,12474,1300,,
Chemung,735574,JAC,SPEEDWAY LLC,EXPRESS MART #353/ SPEE,606,S MAIN ST,HORSEHEADS,NY,14845,0,-76.817912,42.162992
Schenectady,738397,JAC,MMM FARMS LLC,FOR THE LOVE OF BACON,834,DUANESBURG ROAD,SCHENECTADY,NY,12306,800,-74.020027,42.783521
Schenectady,425012,JAC,CUMBERLAND FARMS INC,CUMBERLAND FARMS 1540,1269,HIGHBRIDGE RD,SCHENECTADY,NY,12303,2500,-73.914532,42.769346
Suffolk,470322,JABC,GEMELLI FINE FOODS INC,GEMELLI PORK STORE,115,E MAIN ST,BABYLON,NY,11702,3300,-73.321082,40.696961
Chautauqua,729608,JAC,LANCASTER FOODS LLC,KEEPING TRADITIONS PIER,12,HOWARD ST,SILVER CREEK,NY,14136,1000,-79.167476,42.544843
Erie,742976,JAC,RUSHIKANA E&S,ALL IN ONE GLOBAL STORE,83,GRANT STREET,BUFFALO,NY,14213,900,-78.890508,42.916248
Erie,739325,JAC,SPEEDWAY LLC,SPEEDWAY #9869,155,BAILEY AVE,BUFFALO,NY,14220,2800,-78.8256,42.859902
Onondaga,310823,A,"KPH HEALTHCARE SERVICES, INC.",KINNEY DRUGS #79,437,ELECTRONICS PKWY,LIVERPOOL,NY,13088,10000,-76.188089,43.101043
Monroe,747095,JAC,FAST STOP MART INC,FAST STOP MART,917,NORTH STREET,ROCHESTER,NY,14605,0,-77.595278,43.175036
Erie,142692,A,CITY CENTER GROCERY INC,CITY CENTER GROCERY,1531,E DELAVAN AVE,BUFFALO,NY,14215,1500,-78.800007,42.922778
Jefferson,733824,JAC,1000 ISLAND RIVER RAT CHEESE INC,RIVER RAT CHEESE,242,JAMES STREET,CLAYTON,NY,13624,2000,-76.088626,44.240979
Bronx,729940,A,VALENTINE MINI MART 99C CORP,VALENTINE MINI MART 99C,2130,VALENTINE AVE,BRONX,NY,10457,1000,-73.899375,40.853964
Madison,300590,JABC,CERIO ARNOLD O&CERIO DANIEL J,ARNIES PRODUCE CENTER,485,W SENECA ST,ONEIDA,NY,13421,5000,-75.610009,43.077229
Wayne,709786,JAC,PALMYRA MART INC,PALMYRA MART,513,E MAIN ST,PALMYRA,NY,14522,1200,-77.225511,43.06355
Kings,725293,JAC,INLET MARKET CORP,INLET MARKET,416,MONROE STREET,BROOKLYN,NY,11221,2000,-73.941792,40.686473
Bronx,725869,JAC,GREENVILLAGE MEAT CORP,GREENVILLAGE MEAT,3758,WHITE PLAINS ROAD,BRONX,NY,10467,1500,-73.863022,40.883234
Bronx,751043,JAC,150 J&J DELI GROCERY CORP,150 J&J DELI GROCERY,150,EAST 174TH STREET,BRONX,NY,10468,0,-73.908504,40.845218
Queens,748120,JAC,REGO PARK SUPERMARKET INC,REGO PARK SUPERMARKET,66-08,99TH ST,REGO PARK,NY,11374,2500,-73.854805,40.728136
Erie,719145,JAC,SNEAKERTOWN SYRACUSE CORP,WOORI MART,850,NIAGARA FALLS BOULEVARD,BUFFALO,NY,14223,0,-78.823158,42.977216
Rockland,395430,JAC,CAZZOLLA JOSEPH,LANE DELI,79,WASHBURNS LN,STONY POINT,NY,10980,1000,-73.992381,41.224027
New York,750573,A,GETIR US INC,GETIR,2565,BROADWAY,NEW YORK,NY,10025,0,-73.971774,40.79483
Westchester,551907,JAC,CRYSTAL GROCERY LTD,UNION FOOD MARKET,14,E POST RD,WHITE PLAINS,NY,10601,1500,-73.770522,41.025808
Broome,712957,JAC,MIRABITO HOLDINGS INC,MIRABITO STORE #83,2965,ROUTE 26,GLEN AUBREY,NY,13777,2450,-76.036464,42.214073
Herkimer,749051,JAC,MILLER JACOB & BARBARA,JACOB & BARBARA MILLER,591,N WIINFIELD RD,WEST WINFIELD,NY,13491,600,-75.191888,42.902281
Nassau,739490,JACDK,OK4 LLC,OK4,45,SOUTH SERVICE RD UNIT 325,PLAINVIEW,NY,11803,7000,-73.451164,40.786577
Madison,716999,JAC,AMYE INC,J & J MINI MART,991,FYLER RD,KIRKVILLE,NY,13082,3000,-75.927521,43.095546
Bronx,608343,JAC,TARGET CORP,TARGET STORE T2475,700,EXTERIOR ST,BRONX,NY,10451,4000,-73.930978,40.823133
Kings,740540,JAC,SEAFOOD BASKET OF BROOKLYN CORP,SEAFOOD BASKET OF BROOK,1871,ROCKAWAY PARKWAY,BROOKLYN,NY,11236,1000,-73.892718,40.63652
St. Lawrence,405210,JAC,STEWARTS SHOPS CORP,STEWARTS SHOP 435,703,FORD ST,OGDENSBURG,NY,13669,3600,-75.487345,44.699944
Bronx,737053,A,SUNG SHIK CHOI,ALLERTON FRUIT STORE,743,ALLERTON AVE,BRONX,NY,10469,600,-73.865625,40.865462
Suffolk,740612,JAC,STAR PORTION SERVICE INC,MOBILE MART,271,PORTION RD,RONKONKOMA,NY,11779,800,-73.101963,40.827437
Erie,749941,JAC,JOES KWIK MARTS LLC,JOES KWIK MARTS #490,3085,DELAWARE AVE,BUFFALO,NY,14217,1200,-78.87068,42.96813
Steuben,733014,JAC,PEMM LLC,QUICKLEES 016,336,WEST WASHINGTON ST,BATH,NY,14810,1300,-77.331117,42.337776
Kings,732930,JAC,EL SINAI DELI MEAT MARKET CORP,EL SINAI DELI MEAT MARK,853,4TH AVENUE,BROOKLYN,NY,11232,1200,-74.00162,40.656904
Albany,740324,JAC,ALL STAR PIZZA & DELI INC,ALL STAR PIZZA & DELI,224,QUAIL STREET,ALBANY,NY,12203,2000,-73.778472,42.660705
Erie,732596,JAC,T & F 1345 INC,T & F 1345,1345,E DELAVAN AVE,BUFFALO,NY,14215,2500,-78.807296,42.92272
Otsego,360032,JAC,STEWARTS SHOPS CORP,STEWARTS SHOP 232,2,RIVER ST,ONEONTA,NY,13820,2400,-75.064336,42.448704
Erie,140572,A,WALGREEN EASTERN CO INC,WALGREENS 03267,2043,KENSINGTON AVE,AMHERST,NY,14226,12000,-78.783494,42.950244
Queens,748752,JAC,TWO FRIENDS M&A DELI CORP,TWO FRIENDS M&A DELI,130-02,ATLANTIC AVE,SOUTH RICHMOND HIL,NY,11419,900,-73.818702,40.695838
Dutchess,135240,A,PAWLING BEER&SODA CORP,PAWLING BEER&SODA,175,RT 22,PAWLING,NY,12564,5875,-73.584689,41.537609
Monroe,261718,A,WALGREEN EASTERN CO INC,WALGREENS 10511,2665,E HENRIETTA RD,HENRIETTA,NY,14467,12000,-77.608087,43.067629
New York,627880,JAC,EL GALLO MEAT MARKET INC,COMPARE FOODS,538,W 138TH ST,NEW YORK,NY,10031,15000,-73.953305,40.821865
Queens,739628,JAC,D&H DELI GROCERY CORP,D&H DELI GROCERY,112-32,ROCKAWAY BEACH BLVD,ROCKAWAY PARK,NY,11694,0,-73.834565,40.58055
Suffolk,474692,A,TRADER JOES EAST INC,TRADER JOES #556,2085,SMITH HAVEN PLAZA,LAKE GROVE,NY,11755,12000,,
Nassau,735303,A,MNA DELI INC,MNA DELI,139,NORTH MAIN STREET,FREEPORT,NY,11520,1500,-73.58569,40.66152
Queens,736171,JAC,LA PARADITA CORP,LA PARADITA,127-60,WILLETS POINT BLVD,CORONA,NY,11368,200,-73.841071,40.76001
Kings,612650,JABC,MANDATO FRUITS&GROCERY CORP,MANDATO FRUITS&GROCERY,7220,3RD AVE 1ST FL,BROOKLYN,NY,11209,1600,-74.027168,40.632985
New York,737593,JAC,QMART GROCERY INC,QMART GROCERY,4311,BROADWAY,NEW YORK,NY,10033,0,-73.934823,40.851964
Kings,734644,JAC,JMZ BROADWAY DELI INC,JMZ BROADWAY DELI,296,BROADWAY,BROOKLYN,NY,11211,700,-73.958194,40.708509
Bronx,719651,A,CHEN JIAN DONG,DC DISCOUNT STORE INC,559,EAST TREMONT AVENUE,BRONX,NY,10457,1300,-73.894864,40.846479
Dutchess,130506,JAC,HYDE PARK FOOD MART INC,HYDE PARK FOOD MART,1110,VIOLET AVE,HYDE PARK,NY,12538,1200,-73.914453,41.788445
New York,724896,JAC,JUICE PRESS LLC THE,JUICE PRESS 15,239,COLUMBUS AVE,NEW YORK,NY,10023,500,-73.979405,40.776564
Clinton,90024,JAC,ARNOLD III GEORGE&SUSAN,ARNOLDS GROCERY,182,PLEASANT ST,KEESEVILLE,NY,12944,1000,-73.492148,44.501107
Kings,612992,JAC,GASTON FOOD CENTER CORP,GASTON FOOD CENTER,16,MOTHER GASTON BLVD,BROOKLYN,NY,11233,1500,-73.908804,40.681796
Onondaga,310265,JAC,MARTINEZ JAIME A,ARIELS MINI MART,300,BRADLEY ST,SYRACUSE,NY,13204,1000,-76.172394,43.034655
New York,722978,JAC,HEALTHY CHOICE GOURMET INC,HEALTHY CHOICE GOURMET,1776,MADISON AVE,NEW YORK,NY,10035,1400,-73.944382,40.800605
Wayne,540080,JABC,TOPS MARKETS LLC,TOPS 413,6272,FURNACE RD,ONTARIO,NY,14519,45000,-77.282113,43.227148
Monroe,268235,A,UNITED REFINING CO OF PA INC,KWIK FILL A0058,1862,HUDSON AVE,ROCHESTER,NY,14617,1200,-77.600455,43.201423
Dutchess,130369,JAC,TWO BAYS SERVICE INC,BAYS MOBIL,2480,RT 44,SALT POINT,NY,12578,1500,-73.759838,41.781551
Monroe,725870,JAC,PRINCE PIZZERIA AND GROCERY LLC,PRINCE PIZZERIA AND GRO,1256,N GOODMAN STREET,ROCHESTER,NY,14609,0,-77.5757,43.177547
Queens,634606,JAC,RYAN FOOD CORP,KEYFOOD,105-35,64TH RD,FOREST HILLS,NY,11375,15000,-73.850138,40.732008
Queens,748314,JAC,VERMILLION MANAGEMENT CORP,C & J PRIME MEATS,59-07,ROOSEVELT AVENUE,WOODSIDE,NY,11377,0,-73.905491,40.745396
Onondaga,726396,A,NORTH SALINA CIGAR LTD,NORTH SALINA CIGAR,851,N SALINA ST,SYRACUSE,NY,13208,1500,-76.154973,43.062848
Kings,736851,A,WALGREEN EASTERN CO INC,WALGREENS #17814,6101,18TH AVE,BROOKLYN,NY,11204,3500,-73.98802,40.621265
Sullivan,750295,JAC,CENTER FOR DISCOVERY INC,THE CENTER FOR DISCOVER,102,MITTEER RD,HURLEYVILLE,NY,12747,0,-74.679139,41.746537
Queens,745262,JAC,BHAKTI 42 INC,BHAKTI 42,42-39,MAIN STREET,FLUSHING,NY,11355,0,,
Bronx,738120,JAC,D & F MEAT MARKET CORP,D & F MEAT MARKET,83,EAST 184TH STREET,BRONX,NY,10468,1200,-73.900868,40.860004
Saratoga,725845,JAC,STEWARTS SHOPS CORP,STEWARTS SHOP #162,15,ROUND LAKE RD,BALLSTON LAKE,NY,12019,4000,-73.808039,42.935726
Kings,671404,JAC,SCHWARTZ OF L INC,SCHWARTZ OF L,3008,AVENUE L,BROOKLYN,NY,11210,3000,-73.945648,40.62203
Onondaga,720593,JAC,LOCAL CONVENIENCE INC,LOCAL CONVENIENCE,303,SOUTH AVE,SYRACUSE,NY,13204,2500,-76.158936,43.036049
Kings,739483,JAC,ORGANIC FOOD STOP CORP,ORGANIC FOOD STOP,585,VANDERBILT AVE.,BROOKLYN,NY,11238,8000,-73.967992,40.680042
Nassau,283607,JAC,HICKSVILLE GAS CORP,BP SHOP,325,JERUSALEM AVE,HICKSVILLE,NY,11801,2000,-73.520621,40.754751
Suffolk,747172,JAC,KRAJANA INC,KRAJANA,515,OAK STREET,COPIAGUE,NY,11726,0,-73.398492,40.680096
Bronx,609438,JAC,BRONX M&E DELI GROCERY CORP,BRONX M&E DELI,732,E 187TH ST,BRONX,NY,10458,1100,-73.883086,40.853753
Onondaga,737435,JAC,CUSE DELI MART INC,CUSE DELI  MART,1219,MILTON AVE,SYRACUSE,NY,13204,1000,-76.198452,43.059294
Nassau,282090,JAC,NORTHSHORE MARKETPLACE LTD,NORTH SHORE FARMS,770,PORT WASHINGTON BLVD,PORT WASHINGTON,NY,11050,10000,-73.683283,40.827145
Columbia,727755,JAC,BLUE EARTH SEAFOOD TECHNOLOGY INC,HUDSON VALLEY FISHERIES,4269,ROUTE 9,HUDSON,NY,12534,0,,
Nassau,282639,JAC,ELMONT DELI PLUS INC,ELMONT DELI PLUS,237-01,LINDEN BLVD,ELMONT,NY,11003,1200,-73.72512,40.690428
Queens,745250,JAC,SAINT ALBANS DELI CORP,SAINT ALBANS DELI,188-12,LIBERTY AVE,SAINT ALBANS,NY,11412,1600,-73.768659,40.703832
Erie,141756,JAC,BJJ CHOCOLATES INC,WATSONS CHOCOLATES,3227,SOUTHWESTERN BLVD,ORCHARD PARK,NY,14127,1500,-78.750133,42.797151
Ulster,722539,JAC,NEW VALLEY ENTERPRISE INC,COBLESKILL QUICK MART,3601,ROUTE 52,WALKER VALLEY,NY,12588,4000,-73.731224,41.534196
Bronx,749048,JAC,LARA MINI MARKET CORP,LARA MINI MARKET,1382,CROTONA AVE,BRONX,NY,10456,0,-73.898046,40.833183
Ontario,706791,A,CVS ALBANY LLC,CVS PHARMACY #1925,1259,ROUTE 332,FARMINGTON,NY,14425,13000,-77.355647,42.974733
Bronx,749145,JAC,LOS BRAVOS FRUIT MARKET LLC,LOS BRAVOS FRUIT MARKET,14,BEDFORD PARK BLVD E,BRONX,NY,10468,1300,-73.888665,40.872799
Westchester,743666,JAC,JAY SUSHI INC,JAY SUSHI @ NORTH SHORE,805,MAMARONECK AVE,MAMARONECK,NY,10543,50,-73.738154,40.95693
Onondaga,750681,JAC,JOES KWIK MARTS LLC,JOES KWIK MART #NY0136,4031,NY 31,LIVERPOOL,NY,13090,0,-76.23466,43.185501
Suffolk,746888,JAC,SUGARED UP INC,SUGARED UP!,522,MAIN STREET,ISLIP,NY,11751,1200,-73.213575,40.729183
Bronx,713538,JAC,MI MEXICO MINI MARKET & GROCERY I,MI MEXICO MINI MARKET &,1528,1528A/1526A WESTCHESTER AVE,BRONX,NY,10472,2500,-73.878579,40.828626
Dutchess,130457,JAC,JYOTI INC,CITGO FOOD MART,26,MANCHESTER RD,POUGHKEEPSIE,NY,12603,2400,-73.894001,41.694367
Monroe,731443,JAC,A FISHERMANS LIFE FOR ME LLC,A FISHERMANS LIFE FOR M,1775,N CLINTON AVE,ROCHESTER,NY,14621,0,-77.612489,43.193201
Westchester,730846,JAC,JUST FRESH DELI & GROCERY CORP,JUST FRESH DELI & GROCE,18,LAWRENCE STREET,YONKERS,NY,10705,1500,-73.895509,40.915881
Lewis,235122,JAC,SWARTZ KIMBERLY,NEW BREMEN GENERAL STOR,8259,NY RT 812,LOWVILLE,NY,13367,1800,-75.43894,43.8366
New York,736797,JAC,322 EAST 34 INC,NY GRILL & DELI,322,EAST 34TH STREET,NEW YORK,NY,10016,2500,-73.974732,40.744298
Kings,672021,JAC,OCEAN BAY MARKET INC,OCEAN BAY MARKET,2424,CONEY ISLAND AVENUE,BROOKLYN,NY,11223,5000,-73.961201,40.597573
New York,623191,A,CVS ALBANY LLC,CVS PHARMACY 00601,272,8TH AVE,NEW YORK,NY,10011,13000,-73.998106,40.745795
Suffolk,749498,JAC,AE MENHADEN LLC,MENHADEN HOTEL,207,FRONT STREET,GREENPORT,NY,11944,0,-72.362648,41.101735
Bronx,733293,JAC,263 DELI INC,263 DELI,263,W KINGSBRIDGE RD,BRONX,NY,10463,0,-73.905332,40.873008
Kings,737058,JAC,MANNYS GOURMET DELI AND GROCERY C,MANNYS GOURMET DELI AND,146,GRAHAM AVE,BROOKLYN,NY,11206,2000,-73.94306,40.706482
Westchester,720156,JAC,FISH ISLAND LLC,FJORD FISH MARKET,134,CHATSWORTH AVE,LARCHMONT,NY,10538,0,-73.759392,40.933098
Monroe,724042,JAC,WAL-MART STORES INC,WALMART STORE #1744,1990,BRANDT POINT DR,WEBSTER,NY,14580,0,-77.496321,43.191902
Orange,716798,A,DOLGEN NEW YORK LLC,DOLLAR GENERAL #15087,1170,ST RT 17K,MONTGOMERY,NY,12549,0,-74.217149,41.525737
Onondaga,725841,JAC,NEXT GENERATION MEAT MARKET LLC T,M ASCIOTI MEATBALLS & M,3249,MILTON AVE,SYRACUSE,NY,13219,2000,-76.234591,43.054587
Rockland,395102,JAC,G&D FISHERIES OF ROCKLAND INC,JR LOBSTER & SEAFOOD,251,RT 59,SUFFERN,NY,10901,2000,-74.10769,41.111712
Niagara,295722,JAC,UNITED REFINING CO OF PA INC,KWIK FILL A0039,263,S TRANSIT RD,LOCKPORT,NY,14094,2500,,
Franklin,743938,JAC,PRAIRIE DANIEL & BRANDYN,PRAIRIE'S ORCHARD,111,COUNTY ROUTE 24,MALONE,NY,12953,0,-74.248121,44.859126
Bronx,720317,JAC,N&S DELI GROCERY CORP,N&S DELI GROCERY,502,E180 ST,BRONX,NY,10457,1200,-73.894565,40.850964
Suffolk,471787,JAC,WISLA DELICACY&DELI CORP,WISLA DELICACY&DELI,125,W MAIN ST,RIVERHEAD,NY,11901,0,-72.66431,40.917099
Oneida,715424,JAC,MORAN FOODS LLC,SAVE-A-LOT #892-4639,801,BLACK RIVER BLVD,ROME,NY,13440,8000,-75.446513,43.220551
New York,738629,JAC,3M GOURMET DELI CORP,3 M DELI GOURMET DELI,316,SAINT NICHOLAS AVE,NEW YORK,NY,10027,1000,-73.952334,40.811139
Queens,636696,A,CVS ALBANY LLC,CVS PHARMACY 02062,85,29 126TH ST,KEW GARDENS,NY,11415,10000,,
Kings,618949,JAC,METRO DELI GROCERY CORP I,METRO DELI GROCERY,1113,RUTLAND RD,BROOKLYN,NY,11212,1000,-73.92302,40.664864
Kings,737446,JAB,CHAIMS KOSHER BAKERY INC,CHAIMS KOSHER BAKERY,101,STEUBEN STREET,BROOKLYN,NY,11205,3000,-73.963253,40.694348
Suffolk,734983,JAC,1684 SOUTH EXPRESSWAY DRIVE REALT,7 ELEVEN STORE #39778A,1684,EXPRESSWAY DR SO,HAUPPAUGE,NY,11788,3500,-73.233016,40.806404
Kings,742823,JAC,FAST STOP DELI & MINI MART CORP,FAST STOP DELI & MINI M,1667,FLATBUSH AVE,BROOKLYN,NY,11210,0,-73.94431,40.629657
Kings,721561,JAC,ALIBABA HALAL MEAT INC,ALIBABA HALAL MEAT,407,DITMAS AVE,BROOKLYN,NY,11218,450,-73.974749,40.635909
Herkimer,716685,JAC,JULIANO FARMS LLC,JULIANO FARMS,2365,ST RT 5,UTICA,NY,13502,2000,-75.146411,43.096079
Delaware,740623,JAC,WEAVER HOLLOW FARMHOUSE ALES LLC,WEAVER HOLLOW BREWERY,294,DEPOT ST,ANDES,NY,13731,0,-74.78992,42.186629
Erie,718491,JAC,REID STORES INC,CROSBYS 40051,950,MAPLE ST,ELMA,NY,14059,3200,-78.621574,42.794178
Dutchess,130617,A,CVS ALBANY LLC,CVS PHARMACY 05357,413,ROUTE 376 STE 1,HOPEWELL JUNCTION,NY,12533,8000,-73.808133,41.578651
Kings,744634,JAC,BANANA SUPERMARKET INC,BANANA SUPERMARKET,145,RIDGEWOOD AVE,BROOKLYN,NY,11208,1400,-73.883307,40.683025
Kings,730980,JAC,SUNRISE DELI & GRILL CORP,SUNRUSE DELI & GRILL,214,CENTRAL AVENUE,BROOKLYN,NY,11221,2600,-73.924998,40.698002
Kings,710163,A,DOLLARS GIANT MARKET NY INC,DOLLARS GIANT MARKET NY,373,KNICKERBOCKER AVE,BROOKLYN,NY,11237,4000,-73.921226,40.700437
Schenectady,724692,A,"CVS ALBANY, LLC",CVS/PHARMACY #4610,2801,GUILDERLAND AVE,SCHENECTADY,NY,12306,14000,-73.971022,42.786525
Dutchess,714331,JAC,HARDEMAN ORCHARDS LLC,HARDEMAN ORCHARDS,194,W MARKET ST,RED HOOK,NY,12571,7000,-73.89221,41.998481
Suffolk,730428,JAC,LEMPA RIVER DELI INC,LEMPA RIVER DELI,485,WAVERLY AVE,PATCHOGUE,NY,11772,1400,-73.03575,40.78134
Nassau,720490,JAC,SPEEDWAY LLC,SPEEDWAY #07643,16,PINE HOLLOW RD,OYSTER BAY,NY,11771,0,-73.532681,40.865176
Wyoming,560087,JABC,LR BRASS INC,ARCADE MARKET PLACE,590,W MAIN ST PO BOX 98,ARCADE,NY,14009,29000,-79.354232,42.426564
Suffolk,472703,A,VANESS CORP,HAMPTON BAYS SHELL,172,MONTAUK HWY,HAMPTON BAYS,NY,11946,750,-72.515128,40.880541
New York,715911,A,LMC 49TH INC,LMC 49TH,10,"COLUMBUS CIRCLE, SPACE K2A",NEW YORK,NY,10019,50,-73.982344,40.768189
Kings,611678,A,PING ON CO INC,PING ON CO,5501,8TH AVE,BROOKLYN,NY,11220,1000,-74.006708,40.638225
Greene,190121,A,DOLGEN NEW YORK LLC,DOLLAR GENERAL 6540,11776,RT 9W,COXSACKIE,NY,12051,9000,-73.836706,42.356713
Bronx,608131,A,STAR TREK PHARMACY INC,STAR DRUG,57,EAST KINGSBRIDGE RD,BRONX,NY,10468,2500,-73.896019,40.866894
Jefferson,220121,A,ALDI INC,ALDI 27,14,N BROAD ST,WEST CARTHAGE,NY,13619,15150,-75.624614,43.968339
Allegany,25261,JAC,MAKS MEAT&CHEESE LLC,MAKS MEAT&CHEESE,2B,CENTER ST,CUBA,NY,14727,1200,-78.27832,42.221923
Kings,705379,A,WALGREEN EASTERN CO INC,WALGREENS  #15352,1281,FULTON ST,BROOKLYN,NY,11216,4000,-73.950178,40.680427
Monroe,261904,A,WALGREEN EASTERN CO INC,WALGREENS #10382,4366,BUFFALO RD,NORTH CHILI,NY,14514,14820,-77.804632,43.120136
Fulton,719409,JAC,NORTHVILLE 5 & 10 INC,NORTHVILLE 5 & 10,122,S MAIN ST,NORTHVILLE,NY,12134,4000,-74.171898,43.225865
Suffolk,729976,JAC,IMAAN FOOD AND GROCERY INC,NOOR FOOD GYRO,1056,E JERICHO TURNPIKE,HUNTINGTON,NY,11743,0,-73.369886,40.835237
Columbia,736244,JABC,RANDOM HARVEST LLC,RANDOM HARVEST,1785,STATE ROUTE 23,CRARYVILLE,NY,12521,4700,-73.582012,42.175017
Nassau,283726,A,PARK AVENUE SMOKE&CONVENIENCE INC,PARK AVE SMOKE SHOP,171,E PARK AVE,LONG BEACH,NY,11561,900,-73.658795,40.588694
Bronx,608755,JAC,3035 WHITE PLAINS FOOD CORP,PIONEER SUPERMARKET,3035,WHITE PLAINS RD,BRONX,NY,10467,17000,-73.86724,40.870273
Chautauqua,60212,A,DOLGENCORP OF NEW YORK INC,DOLLAR GENERAL 8294,1170,CENTRAL AVE,DUNKIRK,NY,14048,6000,-79.3339,42.457798
Queens,743125,A,FRIENDLY FAMILY INC,NY CITY 99 DISCOUNT MAR,117-20,JAMAICA AVE,RICHMOND HILL,NY,11418,0,-73.831969,40.699722
Bronx,746252,JAC,TR DELI GROCERY CORP,TR DELI GROCERY,942,E GUN HILL RD,BRONX,NY,10469,0,-73.85954,40.87519
Seneca,450134,A,FINGER LAKES DAIRY SERVICES INC,SENECA FARM AND HOME,175,OVID ST,SENECA FALLS,NY,13148,2800,-76.798537,42.897554
Kings,748680,JAC,MARNOCK LLC,FOODSAVER NY,402,EAST 83RD STREET,BROOKLYN,NY,11236,0,-73.917792,40.642999
Queens,750380,JAC,HILLSIDE DELI INCORPORATED,HILLSIDE DELI,263-14,HILLSIDE AVE,GLEN OAKS,NY,11004,0,-73.705033,40.738044
Bronx,713298,A,UNIVERSAL CANDY & GROCERY CORP,UNIVERSAL CANDY & GROCE,1521,WESTCHESTER AVE,BRONX,NY,10472,1000,-73.878985,40.828592
Schenectady,747635,JAC,BADOWIE AHSSAN,TG DELI,104,MOHAWK AVE,SCHENECTADY,NY,12302,1000,-73.961745,42.82522
Wayne,735604,JAC,SPEEDWAY LLC,EXPRESS MART #363/SPEED,123,E MAIN ST,MACEDON,NY,14502,0,-77.050361,42.658
New York,623299,A,FULL XING TRADING INC,FULL XING TRADING,122,MADISON ST,NEW YORK,NY,10002,1000,-73.994539,40.712298
Suffolk,723498,A,BAYSHORE 99C & UP INC,BAYSHORE 99C & UP,1851,SUNRISE HWY,BAY SHORE,NY,11706,10000,-73.236079,40.738454
Kings,717947,JAC,HIPSTER DELI GROCERY 1 CORP,HIPSTER DELI GROCERY 1,168,7TH AVE,BROOKLYN,NY,11215,2000,-73.977425,40.671863
Bronx,744572,JAC,1269 DELI GROCERY CORP,1269 DELI GROCERY,1269,GRAND CONCOURSE,BRONX,NY,10452,1000,-73.916456,40.836073
Kings,729001,JAC,3901 FOODMART CORP,3901 FOODMART,3901,FT HAMILTON PKWY,BROOKLYN,NY,11218,1500,-73.990593,40.643099
Bronx,739679,JAC,ESTRELLA MEATS FRUITS & GROCERY C,ESTRELLA MEATS FRUITS &,276,E 198TH ST.,BRONX,NY,10458,0,-73.888724,40.868825
Albany,724993,A,MARRA'S PHARMACY INC,MARRA'S PHARMACY,217,REMSEN ST,COHOES,NY,12047,45000,-73.700562,42.771043
Franklin,735728,JAC,GONZALEZ & SONS OF TUP LAKE LLC,WAWBEEK QUICK STOP,36,WAWBEEK AVE,TUPPER LAKE,NY,12986,1200,-74.466364,44.222074
Monroe,739281,A,ALDI INC,ALDI STORE #67,175,WINTON RD,ROCHESTER,NY,14610,0,-77.554018,43.147779
Kings,730713,JAC,FOUR TECH SERVICE STATION INC,FOUR TECH SERVICE STATI,6401,4TH AVENUE,BROOKLYN,NY,11220,300,-74.020912,40.638362
Herkimer,210053,JAC,MELROSE SUPERMARKET LLC,MELROSE SUPERMARKETS,208,E MAIN ST,FRANKFORT,NY,13340,9000,-75.068699,43.037221
Queens,737538,A,SKYVIEW DELI & GROCERY INC,SKYVIEW DELI & GROCERY,32-61,FRANCIS LEWIS BLVD,FLUSHING,NY,11358,1250,-73.790625,40.767565
Tompkins,747925,JAC,SUNTRAP LLC,SUNTRAP,112,W.GREEN ST,ITHACA,NY,14850,500,-76.499476,42.438616
Kings,750660,JAC,SKF DELI & GRILL CORP,SKF DELI & GRILL,4421,NEW UTRECHT AVE,BROOKLYN,NY,11219,0,-73.994326,40.640016
Kings,719290,A,SHUN LI GROCERY INC,SHUN LI STORE,308,KNICKERBOCKER AVE,BROOKLYN,NY,11237,1200,-73.923336,40.701633
Rockland,743391,JAC,7 ELEVEN INC,7 ELEVEN STORE #38731H,1302,PALISADES CENTER DRIVE,WEST NYACK,NY,10994,1500,-73.955799,41.099542
Putnam,370175,JAC,NIESE GLENN,NIESES MAPLE FARM,136,WICCOPEE RD,PUTNAM VALLEY,NY,10579,700,-73.808028,41.415278
Schenectady,730903,JAC,SEENANAN BUDRAJ P,LEVIS GROCERY CON STR,1339,STATE ST,SCHENECTADY,NY,12304,1000,-73.921353,42.795757
Westchester,707779,A,RIVERSIDE GAS INC,RIVERSIDE GAS,380,S RIVERSIDE AVE,CROTON ON HUDSON,NY,10520,200,-73.881357,41.194863
Suffolk,720756,JAC,SPEEDWAY LLC,SPEEDWAY #07888,525,WILLIAM FLOYD PKWY,SHIRLEY,NY,11967,1500,-72.865364,40.7957
Kings,611400,JACH,TUV TAAM FISH MARKET INC,TUV TAAM FISH MARKET,4801,NEW UTRECHT AVE,BROOKLYN,NY,11219,1500,-73.994705,40.636864
Suffolk,471254,JAC,MONTAUK FOODS INC,7-ELEVEN FD STR 21162E,197,MONTAUK HWY,EAST ISLIP,NY,11730,3000,-73.181893,40.733029
Suffolk,474274,JAC,ARIOLA FOODS CORP,ARIOLA FOODS,60,ALLEN BLVD,FARMINGDALE,NY,11735,15000,-73.422101,40.715642
Bronx,605533,JAC,CEVERINO VERONICA,VC DELI GROCERY,640,E 180TH STREET,BRONX,NY,10457,800,-73.890242,40.848829
Cortland,710085,A,FAMILY DOLLAR STORES,FAMILY DOLLAR  STORE #3,5743,TELEPHONE RD EXT,CINCINNATUS,NY,13040,7500,-75.896702,42.542129
Queens,745852,JAC,ASIANA MANAGEMENT GROUP INC,ACE SUSHI@FOOD BAZAAR,58-01,JUNCTION BLVD,JACKSON HEIGHTS,NY,11372,0,,
Bronx,740493,JAC,GOOD TIMES DELI CORP,GOOD TIMES DELI,131,ALEXANDER AVE,BRONX,NY,10454,0,-73.927297,40.807111
Wyoming,560010,JAC,HOGAN MICHAEL E,HOGANS FOOD MARKET & DE,,MAIN RD RT 78 PO BOX 95,JAVA VILLAGE,NY,14083,3000,-78.43039,42.676812
Nassau,281932,A,RITE AID OF NEW YORK INC,RITE AID PHARMACY 01203,178,NEW HYDE PARK RD,FRANKLIN SQUARE,NY,11010,5000,-73.676754,40.712178
Bronx,713702,A,CABRAL LEDWIN DIAZ,GRAND CONCOURSE DELI GR,2853,GRAND CONCOURSE STORE #2,BRONX,NY,10468,400,-73.891075,40.870297
Suffolk,471103,JABC,KING KULLEN GROCERY CO INC,KING KULLEN 59,29,MONTAUK HWY,BLUE POINT,NY,11715,26000,-73.039923,40.752361
Nassau,722911,JAC,GURU TEG HOLDING INC,MAHARAJA FARMERS MARKET,265,SOUTH BROADWAY,HICKSVILLE,NY,11801,0,-73.517529,40.762642
Queens,746294,JAC,ORGANIC BERRY FARM CORP,ORGANIC BERRY FARM,64-19,108TH STREET,FOREST HILLS,NY,11375,0,-73.84937,40.732477
Wyoming,745464,JAC,GAINESVILLE STORE LLC THE,GAINESVILLE STORE THE,15,N MAIN ST,GAINESVILLE,NY,14066,2400,-78.134148,42.642358
Schoharie,430115,JAC,SAP BUSH HOLLOW FARM LLC,SAP BUSH HOLLOW FARM,1314,W FULTON RD,WARNERVILLE,NY,12187,1000,-74.46877,42.596021
Erie,713034,JAC,MAYER BROS APPLE PRODUCTS INC,MAYER BROS APPLE PRODUC,1540,SENECA CREEK RD,BUFFALO,NY,14224,1000,-78.699126,42.854863
Westchester,550432,A,TRADER JOES EAST INC,TRADER JOES 531,727,WHITE PLAINS RD,SCARSDALE,NY,10583,17600,-73.80469,40.972145
New York,718091,JAC,LA MARKETA LATINA CORP,LA MARKETA LATINA,1560,ST NICHOLAS AVE,NEW YORK,NY,10040,1800,-73.930535,40.853682
Kings,747204,JAC,TOMPKINS FINEST DELI CORP,TOMPKINS FINEST DELI,131,TOMPKINS AVENUE,BROOKLYN,NY,11206,0,-73.946253,40.695064
New York,713489,JAC,ELIS BREAD ELIZABAR INC,ELIS BREAD ELIZABAR,426-432,E 91 ST,NEW YORK,NY,10128,0,-73.945723,40.779498
Erie,142574,A,WALGREEN EASTERN CO INC,WALGREENS #11334,9050,ERIE RD,ANGOLA,NY,14006,15000,-79.048019,42.638669
Bronx,718839,JAC,323 GUN HILL DELI & GROCERY CORP,323 GUN HILL DELI,323,E GUN HILL ROAD,BRONX,NY,10467,1200,-73.873845,40.878947
New York,628809,JAC,207 INC I,207,4930A,BROADWAY,NEW YORK,NY,10034,375,-73.921469,40.867611
Onondaga,310417,A,UNITED REFINING CO OF PA INC,KWIK FILL A67,6652,MANLIUS CENTER RD,EAST SYRACUSE,NY,13057,700,-76.058681,43.063432
Westchester,734273,JAC,AKE FOOD LLC,SHOP FAIR,113-117,NEW MAIN STREET,YONKERS,NY,10701,20000,-73.897335,40.933371
Kings,738545,JAC,NEW FRIENDS FOOD MARKET CORP,NEW FRIENDS FOOD MARKET,244,RIDGEWOOD AVENUE,BROOKLYN,NY,11208,1500,-73.879502,40.68372
Saratoga,724259,JAC,ELLMS FAMILY FARM LLC,ELLMS FAMILY FARM,448,CHARLTON RD,BALLSTON SPA,NY,12020,1000,-73.923327,42.945952
Onondaga,722315,A,SULESHWARI GROCERY INC,INDIA BAZAAR,4471,E GENESEE ST,SYRACUSE,NY,13214,1500,-76.066105,43.034954
Orange,330765,A,HATZLUCAH MEAT MARKET INC,HATZLUCAH MEAT MARKET,2,GARFIELD   #102,MONROE,NY,10950,600,,
Rockland,390787,A,TSA STORES INC,SPORTS AUTHORITY,2272,PALISADE CENTER DR,WEST NYACK,NY,10994,4000,-73.952658,41.098111
Kings,614000,JAC,1420 FOOD LLC,FOODTOWN #602,1420,FULTON ST,BROOKLYN,NY,11216,30000,-73.944274,40.680107
Kings,716069,JAC,MV QUICK FOOD CORP,MV QUICK FOOD CORP,2875,W 8TH ST,BROOKLYN,NY,11224,1200,-73.976313,40.577981
New York,734089,JAC,MACOON INC,BROOKLYN RAMEN,370,LEXINGTON AVE,NEW YORK,NY,10017,20,-73.976733,40.750536
Queens,738001,JAC,STAR FARMERS GROCERY INC,STAR FARMERS GROCERY,11443,FARMERS BLVD,SAINT ALBANS,NY,11412,1000,-73.761802,40.696802
Erie,734314,A,HUSSEIN ALDUBAISHI,UP TO YOU DELI,2189,NIAGARA ST,BUFFALO,NY,14207,2000,-78.906982,42.943701
New York,709413,JAC,1769 CENTRAL FOODS LLC,KEY FOOD,1769,2ND AVE,NEW YORK,NY,10128,8000,-73.94878,40.781941
Oswego,350143,JABC,WAL-MART STORES EAST LP,WAL-MART SUPER CTR 2911,3018,EAST AVE,CENTRAL SQUARE,NY,13036,153000,-76.127475,43.29137
Erie,141807,JAC,LGGC INC,EDIBLE ARRANGEMENTS,194,PLAZA DR,WILLIAMSVILLE,NY,14221,1200,-78.741348,43.000598
Kings,616968,JAC,XU YUYI,A&B GROCERY STORE,353,AVENUE S,BROOKLYN,NY,11223,1000,-73.972108,40.601849
Kings,670115,JAC,EXPRESS DELI CORP,EXPRESS DELI,283,RALPH AVE,BROOKLYN,NY,11233,2000,-73.922079,40.679615
Westchester,551802,JAC,TARGET CORP,TARGET 1954,195A,N BEDFORD RD,MOUNT KISCO,NY,10549,117000,-73.719979,41.215215
Chemung,70213,A,CICCI FRANK JR,QUICK STOP BEV & GROCRY,1331,COLLEGE AVE,ELMIRA,NY,14901,3000,-76.820623,42.111675
Bronx,731053,JAC,MHC SUPERMARKET LLC,MHC SUPERMARKET,616,MELROSE AVENUE,BRONX,NY,10455,0,-73.917035,40.817724
Onondaga,732465,A,WALGREEN EASTERN CO INC,WALGREENS #19402,6430,KIRKVILLE ROAD STE 5,EAST SYRACUSE,NY,13057,0,-76.07572,43.075436
Bronx,741363,JAC,RSJ DELI GROCERY CORP,RSJ DELI GROCERY,109,EAST TREMONT AVENUE,BRONX,NY,10453,0,-73.907127,40.850534
Kings,612043,JABC,STOP&SHOP SUPERMARKET CO LLC THE,STOP&SHOP 506,1009,FLATBUSH AVE,BROOKLYN,NY,11226,60000,-73.958116,40.646559
Cattaraugus,40211,JAC,KRUPPNER LINDA,NATURE'S REMEDY 2,120,W MAIN ST,ALLEGANY,NY,14706,2200,-78.495383,42.090689
Kings,707081,JAC,NEW SABA DELI & GROCERY INC,NEW SABA DELI & GROCERY,382,MYRTLE AVE,BROOKLYN,NY,11205,800,-73.970634,40.693163
Suffolk,743873,JAC,MAC BBQ & CATERING INC,MAC BBQ & CATERING,50,TRACTION BLVD,PATCHOGUE,NY,11772,2000,-73.022177,40.785683
Suffolk,471560,A,CVS ALBANY LLC,CVS PHARMACY 02225,232,SMITHTOWN BLVD,NESCONSET,NY,11767,10000,-73.148636,40.833811
Kings,610281,JAC,DOMINGUEZ DELI GROCERY CORP,DOMINGO GROCERY,1004,FLUSHING AVE,BROOKLYN,NY,11237,1500,-73.930846,40.703899
Kings,707622,JAC,QC'S DELI GROCERY INC,QC'S DELI GROCERY,6123,FT HAMILTON PKWY,BROOKLYN,NY,11219,700,-74.006873,40.63221
New York,741175,A,CVS ALBANY LLC,CVS PHARMACY #11226,387,PARK AVENUE SOUTH,NEW YORK,NY,10016,0,-73.984309,40.742895
St. Lawrence,733234,A,DOLGEN NEW YORK LLC,DOLLAR GENERAL #18388,52,S MAIN ST,HAMMOND,NY,13646,0,-75.696109,44.445542
Kings,619272,JAC,PEAS&PICKLES FARM CORP,PEAS&PICKLES FARM,45-55,WASHINGTON ST,BROOKLYN,NY,11201,5700,-73.989591,40.702923
Monroe,262239,JAC,EASTWEST ENERGY CORP,GET GO EXPRESS,2575,CULVER RD,IRONDEQUOIT,NY,14609,0,-77.561342,43.194218
Nassau,287696,A,NATURAL CHOICE HEALTH MKT INC,NATURAL CHOICE HLT,287,MERRICK RD,ROCKVILLE CENTRE,NY,11570,600,-73.644729,40.656096
Jefferson,220161,A,DOLLAR TREE STORES INC,DOLLAR TREE 1406,1283,ARSENAL ST,WATERTOWN,NY,13601,10000,-75.947516,43.975905
Suffolk,749853,JAC,WYN1 INC,7-ELEVEN STORE #22644C,1050,OLD COUNTRY RD,RIVERHEAD,NY,11901,1300,-72.674535,40.932958
Cayuga,748428,JAC,ROSENKRANS LOCAL MARKET LLC,ROSENKRANS LOCAL MARKET,35,COLUMBUS STREET,AUBURN,NY,13021,400,-76.584961,42.928384
Erie,140586,JAC,ALS CORNER STORE INC,ALS CORNER STORE,2894,ELMWOOD AVE,KENMORE,NY,14217,3000,-78.87869,42.976165
Rockland,742073,JAC,EVERGREEN KOSHER MEAT LLC,EVERGREEN KOSHER MEAT,59,ROUTE 59,MONSEY,NY,10952,1500,-74.111516,41.112032
Queens,635446,JAC,S&H FISH CORP,KINGS FISH MARKET,89-01,165TH ST,JAMAICA,NY,11432,1500,-73.796176,40.707479
New York,628578,JAC,535 8TH AVENUE CORP,7-ELEVEN STORE 39308A,535,8TH AVE,NEW YORK,NY,10018,10000,-73.992243,40.753883
New York,745230,JAC,419 E 70TH CAFE INC,YORK GRILL & JUICE BAR,419,E 70TH ST,NEW YORK,NY,10021,1200,-73.955679,40.765949
Queens,741634,JAC,EW MINI FOOD COURT INC,TOKYO MARKET,111-06,QUEENS BLVD,FOREST HILLS,NY,11375,0,-73.837255,40.718234
Tompkins,723943,JAC,MIRABITO HOLDINGS INC,MIRABITO STORE #115,32,PERUVILLE RD,LANSING,NY,14882,0,-76.491854,42.538462
New York,735055,JAC,ORGANIC MARKET & JUICE CORP,HEALTH SOS  7/20/18,483,10TH AVENUE,NEW YORK,NY,10018,0,-73.997763,40.756495
Bronx,720594,JAC,BEST & TASTY DELI GROCERY CORP,BEST & TASTY DELI GROCE,260,E 143RD ST,BRONX,NY,10451,2400,-73.924339,40.815155
Lewis,721796,JAC,PARAGON STEPHEN,THE GREIG STORE,5529,GREIG RD,GLENFIELD,NY,13343,2000,-75.358189,43.689044
Orange,744876,JAC,DOLSON AVE PETRO CORP,DOLSON AVE PETRO,220,DOLSON AVE,MIDDLETOWN,NY,10940,2500,-74.428716,41.424893
Steuben,702572,JAC,EBERSOL MARY B,RIVER RD VARIETY STORE,11501,CR 119,ADDISON,NY,14801,2000,,
Erie,721534,JAC,AL SHEIKH JAMIL T,PROGRESS FOOD MARKET,289,HAMBURG ST,BUFFALO,NY,14204,1900,-78.858036,42.871763
Bronx,745975,A,SOBRO PHARMACY INC,SOBRO PHARMACY,2550,3RD AVE,BRONX,NY,10454,0,-73.926588,40.811367
Kings,743493,JAC,EVERGREEN MOE INC,EVERGREEN MOE,1291,BROADWAY,BROOKLYN,NY,11221,0,-73.923972,40.690583
Franklin,160033,JAC,LARKIN ENTERPRISES OF TL INC,LARKINS  DELI&BAKERY,58,MAIN ST,TUPPER LAKE,NY,12986,1000,-74.478662,44.239901
Seneca,450137,JAC,D&M GROCERY INC,D&M GROCERY,14,SWIFT ST,WATERLOO,NY,13165,1200,-76.855055,42.904744
New York,733522,A,NICHOLAS DISCOUNT INC,NICHOLAS DISCOUNT,1238-46,ST NICHOLAS AVE,NEW YORK,NY,10032,0,-73.937829,40.843712
Kings,710298,JAC,BB 3008 FOOD CORP,BRAVO SUPERMARKET,3008,FULTON ST,BROOKLYN,NY,11208,8400,-73.883515,40.680309
Bronx,605984,JAC,JIN SUN PRODUCE CORP,JIN SUN PRODUCE,5590,BROADWAY,BRONX,NY,10463,2000,-73.904415,40.879259
Kings,610031,JAC,OH JIN CHUL,DENNIS GROCERY,2302,BATH AVE,BROOKLYN,NY,11214,2000,-73.995085,40.596988
Westchester,551256,JAC,WALGREEN EASTERN CO INC,WALGREEN #02122,1230,NEPPERHAN AVE,YONKERS,NY,10703,36000,-73.872421,40.96526
Albany,727920,JAC,S AND A TRADING USA INC,S AND A TRADING USA,109,WEST ST,ALBANY,NY,12206,3000,-73.774272,42.664542
Broome,30381,JAC,SAINI ASSOCIATES INC,QUICK N EASY MART,976,CONKLIN RD,CONKLIN,NY,13748,3200,-75.828486,42.083645
Hamilton,200021,JABC,TS CONVENIENCE STORE LLC,T'S EZMART,256,RT 28,INLET,NY,13360,2000,,
Chautauqua,735711,JAC,ROBO IN FALCONER LLC,ROBO ON 430,3018,ROUTE 430,BEMUS POINT,NY,14712,3000,-79.307719,42.123328
Albany,10166,JAC,ALSEIDI DAHAN ALI&HASEN ALSHEGA M,MONTANA FOOD MARKET,17,WATERVLIET AVE,ALBANY,NY,12206,1500,-73.7831,42.675587
Suffolk,743273,JAC,BOLLA OPERATING LI CORP,BOLLA 3239 SUNRISE C-ST,3239,SUNRISE HWY,ISLIP TERRACE,NY,11752,1800,-73.175204,40.746753
Kings,719594,A,ST YASSINE CORP,ST YASSINE,941,ATLANTIC AVE,BROOKLYN,NY,11238,500,-73.961736,40.680622
Onondaga,732544,A,WALGREEN EASTERN CO INC,WALGREENS #19349,602,NOTTINGHAM ROAD,SYRACUSE,NY,13224,6767,-76.110006,43.022296
Queens,743815,JAC,WASIM DELI GROCERY CORP,WASIM DELI GROCERY,2122,36TH AVE,ASTORIA,NY,11106,0,-73.936128,40.759575
Kings,736985,A,705 BRIGHTON BEACH CORP,BRIGHTON BEST 99 CENTS,705,BRIGHTON BEACH AVE,BROOKLYN,NY,11235,1500,-73.960301,40.577852
Niagara,714516,A,IT'SUGAR LLC,IT'SUGAR #1069,1803,FASHION OUTLET BLVD SUITE 57,NIAGARA FALLS,NY,14304,2000,-78.983282,43.097242
New York,626894,A,TRADER JOES EAST INC,TRADER JOES #540,142,E 14TH ST,NEW YORK,NY,10003,10000,-73.988186,40.733716
Bronx,711355,A,TREMONT SUPERDISCOUNT INC,TREMONT SUPERDISCOUNT,2738,E TREMONT AVE,BRONX,NY,10461,5000,-73.844611,40.842167
Kings,613213,JAC,A SCICCHITANO ITAL PK ST AVEX INC,A&S PORK STORE,361,AVENUE X,BROOKLYN,NY,11223,2000,-73.969652,40.590606
Bronx,608814,JAC,152 VM GROCERY CORP,152 VM GROCERY,152,E 171ST ST,BRONX,NY,10452,1200,-73.914032,40.840159
Montgomery,275132,JAC,STEWARTS SHOPS CORP,STEWARTS SHOP 266,185,E MAIN ST,AMSTERDAM,NY,12010,2200,-74.186228,42.934258
Nassau,287538,A,CVS ALBANY LLC,CVS PHARMACY 02052,3491,MERRICK RD PARK PLAZA,WANTAGH,NY,11793,5000,,
Schoharie,430014,JABC,WAL-MART STORES EAST LP,WAL-MART 2135,139,MERCHANT PLACE,COBLESKILL,NY,12043,42000,,
Ontario,712543,JAC,BOSTROM FARMS LLC,BOSTROM FARMS LIVESTOCK,2200,ST RTE 5 & 20,STANLEY,NY,14561,0,,
Erie,738944,JAC,B&S SALES INC,SENECA DELI,1199,SENECA ST,BUFFALO,NY,14210,2000,-78.834165,42.870474
Onondaga,310627,A,REAL DEALS OF AUBURN INC,REAL DEALS,2265,DOWNER ST  RIVER MALL,BALDWINSVILLE,NY,13027,10000,,
Erie,714534,JAC,BAINS OF DEPEW INC,BAINS OF DEPEW,5761,TRANSIT RD,DEPEW,NY,14043,2000,-78.696893,42.912116
Orange,330706,JABHK,ROCKLAND BAKERY INC,ROCKLAND BAKERY,354,BROADWAY,NEWBURGH,NY,12550,12000,-74.024084,41.500896
Kings,614439,JACK,183 WYCKOFF MEAT CORP,CARNICERIA LA ESPANOLA,183,WYCKOFF AVE,BROOKLYN,NY,11237,2000,-73.916921,40.702865
Kings,730611,JAC,JRM DELI GROCERY CORP,JRM DELI GROCERY,98,MARCUS GARVEY BLVD,BROOKLYN,NY,11206,1500,-73.940548,40.695487
Saratoga,410255,A,DOLLAR TREE STORES INC,DOLLAR TREE 2505,110,MAIN ST,SOUTH GLENS FALLS,NY,12803,5000,-73.635621,43.299558
Kings,736141,JAC,GARCONNET PRIMATE,FLATBUSH CATON MARKET,2184,CLARENDON ROAD,BROOKLYN,NY,11226,20,-73.956713,40.642755
Westchester,737486,JAC,C&A FIVE WINGS INC,THE FOOD EMPORIUM,134,SOUTH LEXINGTON AVE,WHITE PLAINS,NY,10601,8500,-73.771526,41.027327
Sullivan,480247,JAC,HITESH CORP,SWAN LAKE COUNTRY STORE,1658,BRISCOE RD,SWAN LAKE,NY,12783,1500,-74.782535,41.753073
Kings,749598,JAC,DELI POINT CORP,DELI POINT,145,FRANKLIN STREET,BROOKLYN,NY,11222,0,-73.957856,40.731412
Kings,746361,JAC,15TH AVE FOOD CORP,15TH AVE FOOD,1245,61ST ST,BROOKLYN,NY,11219,400,-73.999418,40.628426
Bronx,740111,JAC,912 JAIRO DELI GROCERY CORP,912 JAIRO DELI GROCERY,912,SOUNDVIEW AVENUE,BRONX,NY,10473,0,-73.868131,40.823297
Dutchess,748973,A,ROSYS QUINCENERAS INC,ROSYS QUINCENERAS,759,MAIN ST,POUGHKEEPSIE,NY,12601,1500,-73.903632,41.696476
Kings,613539,JAC,GARCIA CELIA,RAFI DELI GROCERY,854,E NEW YORK AVE,BROOKLYN,NY,11203,1400,-73.934067,40.662603
Bronx,603809,JAC,GROCERY DELI KINGSBRIDGE AVE INC,GRCY DELI KINGSBRIDGE,245,W 230TH ST,BRONX,NY,10463,1500,-73.907822,40.878131
Rockland,710786,JAC,OH NUTS OF MONSEY INC,OH NUTS,69,ROUTE 59,MONSEY,NY,10952,3000,-74.066261,41.10761
Cattaraugus,729525,A,DOLGEN NEW YORK LLC,DOLLAR GENERAL #17674,3545,RT 16,HINSDALE,NY,14743,9200,-78.398225,42.152124
Bronx,746119,A,CROSS BRONX SERVICE STATION CORP,CROSS BRONX SERVICE STA,1730,CROSS BRONX EXPRESSWAY,BRONX,NY,10472,1900,-73.870361,40.835688
Kings,716654,A,GRIFFITH JOHN WESLEY,LITTLE GUYANA WEST INDI,595,NEW LOTS AVE,BROOKLYN,NY,11207,200,-73.886923,40.664556
Delaware,709320,JAC,KIMCHEE HARVEST LLC,KIMCHEE HARVEST,52234,ST HWY 30,ROXBURY,NY,12474,200,-74.579991,42.267497
Bronx,729581,JAC,120 CIRCLE DELI GROCERY INC,120 CIRCLE DELI GROCERY,120,HUGH GRANT CIRCLE,BRONX,NY,10472,1000,-73.861145,40.832689
Bronx,603460,A,SHARHAN ABDO,SALAH CANDY&GROCERY,16,B E GUN HILL RD,BRONX,NY,10467,800,-73.880837,40.882462
Bronx,607759,JAC,SS ENTERPRISES NY INC,7 ELEVEN 39084A,577,GRAND CONCOURSE AVE,BRONX,NY,10451,2000,-73.927001,40.819396
Suffolk,472414,JAC,I&M PARTNERS INC,7-ELEVEN FD STR 16539C,450,PECONIC ST,RONKONKOMA,NY,11779,3000,-73.136435,40.798375
Essex,150111,JABC,GUNNISON LAKESHORE ORCHARDS INC,GUNNISON ORCHRDS BKY&GF,3208,RT 9N&22,CROWN POINT,NY,12928,1350,-73.44297,43.975348
Nassau,717677,A,DOLLAR TREE STORES INC,DOLLAR TREE  #03090,646,STEWART AVE,GARDEN CITY,NY,11530,0,-73.609537,40.732165
Kings,729017,JAC,UTICA DELI & SMOKE SHOP CORP,UTICA DELI & SMOKE SHOP,321,UTICA AVE,BROOKLYN,NY,11213,800,-73.931312,40.666848
Kings,613827,JAC,RAMSAY GLEN,GLEN DELI & GROCERY,55,HEGEMAN AVE,BROOKLYN,NY,11212,1800,-73.909843,40.655897
Westchester,552297,A,EXPRESS DRUGS INC,WHITE PLAINS PHARMACY,276,MAIN ST,WHITE PLAINS,NY,10601,400,-73.763714,41.033707
Westchester,731663,JAC,DAIRYMART LLC,DAIRYMART,322,WHITE PLAINS RD,EASTCHESTER,NY,10709,0,-73.816902,40.951104
Westchester,742526,A,YONKERS CANDY VIP CORP,YONKERS CANDY VIP,1045,YONKERS AVE,YONKERS,NY,10704,800,-73.858589,40.914169
New York,736677,A,CVS ALBANY LLC,CVS/PHARMACY #10764,292,MADISON AVE,NEW YORK,NY,10017,3000,-73.979942,40.751903
Monroe,266645,JAC,BERNICE MARKETS INC,MCCALL MINI MART,90,MCCALL RD,ROCHESTER,NY,14615,2000,-77.64112,43.210959
Niagara,715025,A,JJ MINI MART INC,STOP N GAS,4004,LAKE AVE,LOCKPORT,NY,14094,400,-78.676885,43.218656
Kings,744972,JAC,LI KING OF KINGS FISHMARKET INC,L.I KING OF KINGS FISH,5123,CHURCH AVE,BROOKLYN,NY,11203,1000,-73.928555,40.652155
Kings,612211,JAC,FEI LONG MARKET INC,FEI LONG MARKET,6301,8TH AVE,BROOKLYN,NY,11220,22000,-74.01161,40.633511
Chenango,745159,A,DOLGEN NEW YORK LLC,DOLLAR GENERAL #21789 (,6286,STATE HWY 23,SOUTH NEW BERLIN,NY,13843,0,-75.390076,42.531446
Genesee,719896,A,DOLGEN NEW YORK LLC,DOLLAR GENERAL #16178,7067,BIG TREE RD,PAVILION,NY,14525,6000,-78.013663,42.869354
Bronx,716246,JAC,MB HALAL MARKET CORP,MB HALAL MARKET,440,E 161ST ST #2,BRONX,NY,10451,1200,-73.912595,40.82381
Orange,331281,JAC,A&P BEVERAGE CORP,BEER KING THE,509,RT 17M,MIDDLETOWN,NY,10940,4500,-74.414224,41.467102
New York,625311,A,DUANE READE ET AL PTRS,DUANE READE 14265,125-133,3RD AVE,NEW YORK,NY,10003,4000,-73.987064,40.733444
Rockland,395789,JABCO,ORCHARDS OF CONCKLIN LLC,ORCHARDS OF CONCKLIN,2,S MOUNTAIN RD&RT 45,POMONA,NY,10970,7700,-74.032152,41.179026
Suffolk,745589,JAC,SHREE HARI 223 CORPORATION,7-ELEVEN STORE #11157E,223,LAUREL RD,EAST NORTHPORT,NY,11731,0,-73.33124,40.887625
Kings,612615,JABCH,TOGATI BENEDETTO,18TH AVENUE BAKERY,6016,18TH AVE,BROOKLYN,NY,11204,2500,-73.987614,40.621665
Steuben,460301,A,DOLLAR TREE STORES INC,DOLLAR TREE #453,1000,STATE ROUTE 36,HORNELL,NY,14843,0,-77.691232,42.381135
Kings,617379,JAC,GOURMET BOUTIQUE OF NY LLC,GOURMET BOUTIQUE OF NY,3688,NOSTRAND AVE,BROOKLYN,NY,11229,6400,-73.940685,40.594111
Kings,723836,A,ELJAHMI MAJID,STOP ONE AT 39TH,3913,9TH AVE,BROOKLYN,NY,11232,600,-73.995448,40.645611
Suffolk,474725,JAC,PETRO PLUS CORP,OK PETRO,2117,MIDDLE COUNTRY RD,CENTEREACH,NY,11720,800,-73.08658,40.858292
Ulster,728978,JAC,BQ FARMS INC,BJORNQORN,10,QUEENS HWY,KERHONKSON,NY,12446,4500,-74.263428,41.790359
New York,729179,JAC,STARBUCKS CORPORATION,TEAVANA #28382,1290,LEXINGTON AVE,NEW YORK,NY,10028,0,-73.955273,40.779888
Sullivan,739845,A,CALLICOON PANTRY LLC THE,THE CALLICOON PANTRY,43,LOWER MAIN STREET,CALLICOON,NY,12723,450,-75.058458,41.766575
Genesee,180147,A,DOLGEN NEW YORK LLC,DOLLAR GENERAL #10405,11281,ALEXANDER RD,ATTICA,NY,14011,8000,-78.282807,42.870829
Nassau,709760,A,DAIRY FARM STORES INC,DAIRY FARM STORES,909,N. BROADWAY,MASSAPEQUA,NY,11758,1000,-73.462392,40.701098
Bronx,737199,JAC,DOMINIC DELI CORP,DOMINIC DELI,1803,MANSION ST.,BRONX,NY,10460,0,-73.867443,40.838029
Erie,141534,JABC,TOPS MARKETS LLC,TOPS MARKETS 250,1275,JEFFERSON AVE,BUFFALO,NY,14208,29000,-78.853986,42.909763
Suffolk,479208,JAC,CHAPMAN BLVD & 111 INC,7-ELEVEN FD STR 25150C,450,COUNTY RD 111,MANORVILLE,NY,11949,2500,-72.743556,40.849803
Nassau,748906,JAC,LADERACH ROOSEVELT FIELD NY LLC,LADERACH,630,OLD COUNTRY RD,GARDEN CITY,NY,11530,2000,-73.613,40.7385
New York,737283,JAC,7-ELEVEN INC,7 ELEVEN STORE #35630J,302,8TH AVENUE,NEW YORK,NY,10001,1800,-73.997438,40.746712
Nassau,733982,A,BOLLA OPERATING LI CORP,KINGS FARMINGDALE C STO,630,MAIN ST,FARMINGDALE,NY,11735,800,-73.443109,40.725429
Erie,744087,JAC,KNL FOOD MARKET LLC,KNL FOOD MARKET,706,TERRACE BLVD,DEPEW,NY,14043,1500,-78.687637,42.903842
Nassau,280964,JAC,THREE MS OF GLEN COVE INC,FRANKS BEVERAGES,59,CEDAR SWAMP RD,GLEN COVE,NY,11542,8000,-73.619543,40.854484
Westchester,551858,JAC,CARIBBEAN MART CORP,CARIBBEAN MART,223,W 1ST ST,MOUNT VERNON,NY,10550,4000,-73.84674,40.908969
Allegany,715331,JAC,REID STORES INC,CROSBYS 40052,500,S MAIN ST,BOLIVAR,NY,14715,0,-78.168903,42.062997
Onondaga,719600,JAC,SINGH PETROLEUM SEVEN LLC,SINGH PETROLEUM SEVEN,500,OLD LIVERPOOL RD,LIVERPOOL,NY,13088,0,-76.187776,43.087892
Queens,736346,JAC,104 GOURMET DELI CORP,104 GOURMET DELI,95-01,104TH STREET,OZONE PARK,NY,11416,800,-73.840411,40.688993
Delaware,730307,JAC,ROXBURY GENERAL LLC,ROXBURY GENERAL,53587,STATE HWY 30,ROXBURY,NY,12474,750,-74.56453,42.284819
Erie,750339,JAC,BUSY BEAVER LAWN & GARDEN INC,BUSY BEAVER LAWN & GARD,4415,SOUTHWESTERN BLVD,HAMBURG,NY,14075,0,-78.822009,42.76482
New York,721346,JAC,EZ OXFORD DELI & GROCERY INC,EZ OXFORD DELI & GROCER,2035,1ST AVE,NEW YORK,NY,10029,0,-73.940496,40.78903
Nassau,723439,JACD,NEW T & L BEER & SODA INC,NEW T & L BEER & SODA,521,ATLANTIC AVE,FREEPORT,NY,11520,15000,-73.598755,40.642688
Erie,749751,JAC,SHUABI HUSAM A,PIKES PEAK MARKET,1318,FILLMORE AVE,BUFFALO,NY,14211,1500,-78.839069,42.9096
New York,743083,JAC,1741 GOURMET DELI INC,1741 GOURMET DELI,1741,1ST AVE,NEW YORK,NY,10128,0,-73.947399,40.779556
Erie,745050,JAC,TOPOLSKI JAY,GOLDEN HAM MEATS,12,MICHAEL RD,BUFFALO,NY,14224,800,-78.754619,42.803919
Kings,615388,JAC,KOSHER CORNER SUPERMARKET INC,KOSHER CORNER SUPERMKT,2055,MCDONALD AVE,BROOKLYN,NY,11223,3000,-73.972481,40.602364
Bronx,742515,JAC,ALIANS DELI CORP,ALIANS DELI GROCERY,217,BROOK AVENUE,BRONX,NY,10454,1200,-73.919579,40.807073
Greene,724072,JAC,BOEHM FARM LLC,BOEHM FARM,233A,COUNTY ROUTE 26,CLIMAX,NY,12042,0,-73.858958,42.370697
Suffolk,750755,JAC,ISLAND PARK GAS INC,ISLAND PARK GAS,200,ROUTE 112,PORT JEFFERSON STA,NY,11776,1800,-73.053668,40.933304
Kings,617199,JAC,668 SEAFOOD MARKET LLC,668 SEAFOOD MARKET,5722,8TH AVE,BROOKLYN,NY,11220,2000,-74.008233,40.636762
Onondaga,716184,JABC,CST NEW YORK LLC,CIRCKE K 4707619,6406,STATE ROUTE 31,CICERO,NY,13039,4500,-76.078301,43.177271
Westchester,552046,JAC,MIKE SUSHI INC,MIKE SUSHI @ DECICCOS,21,CENTER ST,ARDSLEY,NY,10502,75,-73.845514,41.012256
New York,716973,A,HUDSON GROUP (HG) RETAIL LLC,HUDSON #1112,625,8TH AVE  PORT AUTHORITY B,NEW YORK,NY,10018,1357,,
Suffolk,475014,JAC,SUNNY GAS STOP INC,CITGO,1310,5TH AVE,BAY SHORE,NY,11706,1200,-73.262139,40.734291
Bronx,721868,JAC,PONGO FOOD CORP,C-TOWN,3690,THIRD AVENUE,BRONX,NY,10456,6000,-73.903565,40.834956
New York,725440,JAC,2258 FOOD CORP,2258 FOOD,2258,3RD AVENUE,NEW YORK,NY,10035,2000,-73.936875,40.802244
Otsego,360034,A,RITE AID OF NEW YORK INC,RITE AID PHARMACY 00652,400,CHESTNUT ST,ONEONTA,NY,13820,4000,-75.092445,42.454579
Kings,671524,JAC,RENTAS FELICITA,LA PAZ GROCERY,2424,PITKIN AVE,BROOKLYN,NY,11208,800,-73.882919,40.673815
Orleans,345053,JAC,MURRAY SUPERETTE INC,MURRAY SUPERETTE,16573,RIDGE RD,HOLLEY,NY,14470,9000,-78.046272,43.274239
New York,626596,A,DUANE READE ETAL PTRS,DUANE READE 14138,333,7TH AVE,NEW YORK,NY,10001,26000,-73.993198,40.747486
Kings,736761,JAC,KONBIT KREYOL MEAT AND FISH LLC,KONBIT KREYOL MEAT AND,1444,FLATBUSH AVE,BROOKLYN,NY,11210,1600,-73.950558,40.635561
Queens,634144,JAC,BATISTA FAUSTO,BATISTA MINI GROCERY,210-12,MURDOCK AVE,JAMAICA,NY,11411,0,-73.744556,40.702642
Chautauqua,65548,JAC,PETERSON ALLEN,PETERSON FARM,3260,FLUVANNA AVENUE EXT,JAMESTOWN,NY,14701,5000,-79.303753,42.122622
New York,746625,JAC,EASTSIDE PRODUCE MARKET INC,EASTSIDE PRODUCE,1878,3RD AVE,NEW YORK,NY,10029,2000,-73.945813,40.790021
Suffolk,722797,JAC,COPPER BEECH LLC,COPPER BEECH,133,SOUTH COUNTRY ROAD,BELLPORT,NY,11713,2000,-72.939059,40.757561
Cayuga,50032,JAC,COSENTINO CARMEN S,COSENTINO FLORIST,141,DUNNING AVE,AUBURN,NY,13021,300,-76.584184,42.91828
New York,625757,JAC,BROADWAY SPECIALTY FOODS INC,GARDEN OF EDEN,2780,BROADWAY,NEW YORK,NY,10025,4300,-73.967659,40.802269
Dutchess,748212,JAC,JSM QUICK SHOP INC,JSM QUICK SHOP INC,1144,ROUTE 55,LAGRANGEVILLE,NY,12540,0,-73.797727,41.671409
Allegany,745203,A,DOLGEN NEW YORK LLC,DOLLAR GENERAL #21722,135,E MAIN ST,ANGELICA,NY,14709,0,-78.009092,42.304195
Kings,617764,JAC,RODRIGUEZ LIGIA,LIGIA GROCERY STORE,4023,CHURCH AVE,BROOKLYN,NY,11203,0,-73.939217,40.651319
Ontario,320187,A,DOLGEN NEW YORK LLC,DOLLAR GENERAL STR 8308,74,WEST AVE,CANANDAIGUA,NY,14424,4000,-77.284402,42.886752
Erie,738305,A,FAMILY DOLLAR STORES OF NEW YORK,FAMILY DOLLAR #32274,1756,GENESEE ST,BUFFALO,NY,14211,8600,-78.815984,42.911727
Kings,617589,JAC,NAMDOR INC,GRISTEDES 544,101,CLARK ST,BROOKLYN,NY,11201,8000,-73.992142,40.697231
Monroe,722308,JAC,SPEEDWAY LLC,SPEEDWAY #07595,771,MONROE AVE,ROCHESTER,NY,14607,0,-77.587821,43.143178
Nassau,283636,JABC,KING KULLEN GROCERY CO INC,KING KULLEN 7,1340,WANTAGH AVE,WANTAGH,NY,11793,20000,-73.508615,40.689924
New York,746576,JAC,M&Z DELI CORP,M&Z DELI,185,AVENUE C,NEW YORK,NY,10009,0,-73.976849,40.726804
Erie,706919,A,OS SALESCO INC,OMAHA STEAKS,8244,TRANSIT RD,BUFFALO,NY,14221,1645,-78.69693,42.992865
Tioga,490171,JAC,HOLLENBECK FOOD INC,SHUR SAVE FOOD SHOP,17,N MAIN ST,NEWARK VALLEY,NY,13811,12000,-76.18304,42.224881
Nassau,280486,JABC,WHOLE FOODS MARKET GROUP INC,WHOLE FOODS MARKET,2101,NORTHERN BLVD,MUNSEY PARK,NY,11030,26000,-73.670537,40.796855
Herkimer,210070,A,DOLGEN NEW YORK LLC,DOLLAR GENERAL 8373,522,ALBANY ST,LITTLE FALLS,NY,13365,6000,-74.859029,43.04265
Kings,741808,JAC,FRESH GOURMET DELI INC,FRESH GOURMET DELI,447,DEKALB AVE,BROOKLYN,NY,11205,600,-73.959548,40.690422
New York,622112,JABC,WILLIAM POLL INC,WILLIAM POLL,1051,LEXINGTON AVE,NEW YORK,NY,10021,1600,-73.960915,40.772196
Kings,617866,JAC,602 PRODUCE & MEAT CORP,FINE FARE,602,LIVONIA AVE,BROOKLYN,NY,11207,5800,-73.894733,40.664652
Saratoga,415603,JABC,BOWMAN DAVID,MALTA RIDGE ORCHARDS,107,VAN AERNEM RD,BALLSTON SPA,NY,12020,2450,-73.802946,43.013771
Steuben,715446,A,LEVI HERSHBERGER,COUNTRY VARIETY STORE,2257,SADDLE TREE RD,WOODHULL,NY,14898,1000,-77.476704,42.112381
Nassau,280435,JABC,STOP&SHOP SUPERMARKET CO LLC THE,STOP&SHOP 559,530,W OLD COUNTRY RD,HICKSVILLE,NY,11801,55000,-73.546123,40.757324
Nassau,730795,JAC,GOURMET GLATT LAWRENCE LLC,KOLSAVE MARKET,11,LAWRENCE LANE,LAWRENCE,NY,11559,12000,-73.738655,40.62494
Albany,10450,A,CVS ALBANY LLC,CVS PHARMACY 02743,485,COLUMBIA ST,COHOES,NY,12047,7000,-73.727919,42.771984
Bronx,607890,JAC,AB INTERNATIONAL MARKET INC,AB INTERNATIONAL MARKET,2233-35,JEROME AVE,BRONX,NY,10453,2800,-73.904387,40.857542
Queens,638037,A,CVS ALBANY LLC,CVS PHARMACY #1482,172-21,46TH AVE,FLUSHING,NY,11358,7000,-73.793285,40.753312
Kings,748777,JAC,400 ORGANIC AND NATURAL INC,400 ORGANIC AND NATURAL,113,6TH STREET,BROOKLYN,NY,11249,0,-73.992779,40.674409
Kings,672272,JAC,GLENWOOD DELI INC,GLENWOOD DELI,2816,GLENWOOD RD,BROOKLYN,NY,11210,0,-73.949786,40.634298
Erie,735214,JAC,7-ELEVEN INC,A PLUS #40239H,3942,S PARK & MILESTRIP,BUFFALO,NY,14219,1000,,
Ulster,515570,A,VAN LOANS BEVERAGE CORP,VAN LOANS DISCOUNT BVG,327,BROADWAY,PORT EWEN,NY,12466,7500,-73.973845,41.895523
Nassau,721558,JAC,THE MEAT MARKET INC,BURNSIDE MEAT MARKET,271,BURNSIDE AVE,LAWRENCE,NY,11559,1500,-73.736757,40.623751
Nassau,281829,A,GURCHARAN BROTHERS OIL CO INC,SHELL FOOD MART,100,W MERRICK RD,VALLEY STREAM,NY,11580,1400,-73.701619,40.665729
Suffolk,724206,A,ALDI INC (NEW YORK),ALDI 4,614,MIDDLE COUNTRY RD,SELDEN,NY,11784,0,-73.033393,40.866831
Kings,748662,JAC,WOODBINE NATURAL DELI INC,WOODBINE NATURAL DELI,279,WOODBINE ST,BROOKLYN,NY,11221,1500,-73.913475,40.695854
Kings,721770,JAC,GREEN BASKET & MORE INC,GREEN BASKET & MORE,852,WYCKOFF AVENUE,BROOKLYN,NY,11237,600,-73.90792,40.697756
Kings,612948,JAC,METRO DELI OF NORTHSIDE CORP,METRO DELI,78,HAVEMEYER ST,BROOKLYN,NY,11211,1000,-73.955209,40.714131
Kings,735279,JAC,THREEFOLD HOLDINGS LLC,THREES BREWING,333,DOUGLAS STREET,BROOKLYN,NY,11217,8000,-73.982308,40.679527
New York,626893,JAC,57 MARKET INC,57 MARKET,363,W 57TH ST,NEW YORK,NY,10019,2000,-73.9855,40.767837
Bronx,727273,JAC,PRICE RIGHT DELI CORP,PRICE RIGHT DELI,1512,BOONE AVE,BRONX,NY,10460,1000,-73.885664,40.832088
Suffolk,473188,A,DEER RUN FARMS LLC,DEER RUN FARMS,282,SOUTH COUNTRY RD,BROOKHAVEN,NY,11719,500,-72.922503,40.77019
Kings,734157,JAC,FRESH TO GO DELI CORP,FRESH TO GO DELI,957,FULTON STREET,BROOKLYN,NY,11238,1000,-73.964697,40.683027
Bronx,747748,JAC,ABU YEMEN MEAT MARKET CORP,ABU YEMEN MEAT MARKET,1202,WHITE PLAINS ROAD,BRONX,NY,10472,0,-73.861638,40.830537
Nassau,750179,JAC,APPLE KHAN INC,APPLE HALAL SUPERMARKET,1782,NEW HYDE PARK RD,NEW HYDE PARK,NY,11040,0,-73.685475,40.748497
New York,620147,JAC,BURGOS JUAN R,129 POST GROCERY STORE,129,POST AVE,NEW YORK,NY,10034,1500,-73.919736,40.864675
Cayuga,55262,JAC,MARSHALL BROTHERS INC,PIT STOP 9,15057,ROUTE 104,N VICTORY,NY,13111,2000,-76.642036,43.257293
Nassau,724731,JAC,KILS SUSHI INC,KILS SUSHI,1050,WILLIS AVENUE,ALBERTSON,NY,11507,200,-73.64894,40.771662
Kings,617969,JABCHK,TOV MEOD INC,ISAACS BAKE SHOP,1419,AVENUE J,BROOKLYN,NY,11230,4000,-73.961606,40.625159
New York,626544,JAC,NAMDOR INC,GRISTEDES 533,748,2ND AVE,NEW YORK,NY,10017,7500,-73.97301,40.748739
Schenectady,420198,A,CVS ALBANY LLC,CVS PHARMACY 05035,1204,EASTERN AVE,SCHENECTADY,NY,12305,1000,-73.914752,42.807627
Kings,749398,JAC,PARK DELI 11 CORP,PARK DELI,135,PARK AVE,BROOKLYN,NY,11205,1000,-73.9742,40.696264
Rockland,390188,JAC,WESLEY KOSHER INC,WESLEY KOSHER,455,RT 306,MONSEY,NY,10952,12000,-74.070294,41.155823
Albany,738635,JAC,CENTRAL DELI & GROCERY INC,CENTRAL DELI & GROCERY,20,CENTRAL AVE,ALBANY,NY,12210,1000,-73.764242,42.657551
Bronx,605079,A,CVS ALBANY LLC,CVS PHARMACY 02430,224,E 161ST ST,BRONX,NY,10451,5000,-73.920368,40.826147
Queens,750636,JAC,BUMARK ISLAND BUKA LLC,BUMARK ISLAND BUKA,168-29,LIBERTY AVE,JAMAICA,NY,11433,1250,-73.789571,40.70311
Suffolk,473985,JAC,THREE WS INC,PIONEER MARKET,19-21,BROADWAY,FAIR HARBOR,NY,11706,5000,-73.185918,40.640247
Greene,190143,A,FAMILY DOLLAR STORES OF NY INC,FAMILY DOLLAR #1840,11824,STATE RT 9W SUITE 6,WEST COXSACKIE,NY,12192,5000,-73.832263,42.362438
Kings,715869,JAC,B-QUICK CORP I,B-QUICK,9202,AVENUE M,BROOKLYN,NY,11236,1500,-73.896742,40.634942
Kings,612219,JABC,632 VANDERBILT FOOD CORP,FOODTOWN,632,VANDERBILT AVE,BROOKLYN,NY,11238,4200,-73.969072,40.6771
St. Lawrence,400140,A,"KPH HEALTHCARE SERVICES, INC.",KINNEY DRUGS 34,371,E MAIN ST,GOUVERNEUR,NY,13642,0,-75.455316,44.339756
Kings,612530,A,WAYIN CORP,ALHAMDULLIAH 99C OR LES,8022,5TH AVE,BROOKLYN,NY,11209,2000,-74.024336,40.625311
Kings,611626,A,SUPER 99C AND DISCOUNT CORP,SUPER 99C AND DISCOUNT,121,CHURCH AVE,BROOKLYN,NY,11218,1200,-73.978635,40.643139
Nassau,731240,JAC,LOTUS ELMONT GAS CORP,GREEN GAS,653,HEMPSTEAD TPIKE,ELMONT,NY,11003,800,-73.702757,40.707365
Westchester,722354,JAC,ROYAL INDIA BAZAR INC,INDIAN  GROCERY,1717,CENTRALM PARK AVE,YONKERS,NY,10710,1500,-73.84184,40.958175
Queens,744997,A,AJS GROCERY INC,AJS GROCERY,133-49,37TH AVE,FLUSHING,NY,11354,400,-73.833372,40.760684
Kings,610966,A,GENERAL NUTRITION CORP,GENERAL NUTRITION 2545,2155A,RALPH AVE,BROOKLYN,NY,11234,1500,-73.917861,40.625762
Niagara,290123,JACH,SMITH BRENDAN,SMITHS ORCHARD CIDER MI,4960,MAPLETON RD,PENDLETON,NY,14094,2500,-78.771929,43.123605
Niagara,290279,A,DOLGEN NEW YORK LLC,DOLLAR GENERAL 8183,5921,S TRANSIT RD,LOCKPORT,NY,14094,3000,-78.696885,43.137697
Ulster,725728,JAC,IMMUNE SCHEIN LLC,IMMUNE SCHEIN,43,BASIN RD,WEST HURLEY,NY,12491,5800,-74.088874,41.99156
Westchester,719105,JAC,CQM OF CROTON LLC,FRESHTOWN,2005,ALBANY POST RD,CROTON ON HUDSON,NY,10520,0,-73.908951,41.228314
Orange,331245,JAC,PUNJABI FOOD MART INC,CITGO MART,72,RT 17K,BLOOMINGBURG,NY,12721,1350,-74.427771,41.552874
Kings,745167,JAC,PRINCE DELI 3 CORP,PRINCE DELI 3,1528,NOSTRAND AVE,BROOKLYN,NY,11226,0,-73.949321,40.648688
Schenectady,425181,JAC,STEWARTS SHOPS CORP,STEWARTS SHOP 189,1841,HELDERBERG&CURRY,ROTTERDAM,NY,12303,3500,,
Chautauqua,715004,JABC,DRB FARM TO MARKET FOODS INC,FARM FRESH FOODS,703,WEST THIRD ST,JAMESTOWN,NY,14701,15000,-79.25499,42.094099
Bronx,606527,JAC,RUIZ ANGELO,ANGELOS GROCERY STORE,279,E 173RD ST,BRONX,NY,10457,800,-73.90705,40.84365
Rensselaer,720939,A,DOLLAR TREE STORES INC,DOLLAR TREE #06245,7,NORTHERN DRIVE,TROY,NY,12182,4500,-73.666569,42.786236
Nassau,707491,JAC,BUTCHER PLACE INC THE,BUTCHER SHOP,530,WESTBURY AVE,CARLE PLACE,NY,11514,2500,-73.604347,40.751309
Nassau,282540,JAC,KELJO SALES INC,SWEET SPOT SHOPPE THE,128,MANETTO HILL RD,PLAINVIEW,NY,11803,1000,-73.472857,40.783401
Bronx,605014,JABCK,MR SUPER FOOD CORP,C TOWN,30,E 198TH ST,BRONX,NY,10468,10000,-73.89273,40.871203
Orange,746251,JAC,KINGS DELI NEW HAMOTON INC,KINGS DELI NEW HAMOTON,1326,CTY RT 12,NEW HAMPTON,NY,10958,3000,,
New York,715794,JAC,VAQUERO DELI GROCERY CORP,VAQUERO DELI GROCERY,234,EAST 116TH ST,NEW YORK,NY,10029,600,-73.938604,40.797351
Erie,739316,JAC,SPEEDWAY LLC,SPEEDWAY #9866,4265,MAPLE RD,BUFFALO,NY,14226,2400,-78.804753,42.990721
Suffolk,479143,A,CYCLE BEER&SODA CORP,CYCLE BEER&SODA,15,LAKE AVE,RIVERHEAD,NY,11901,3000,-72.663025,40.913697
Monroe,736227,JAC,DIMARCO THERESA & STEVE,CAROUSEL COOKIES,1163,SPENCERPORT RD,ROCHESTER,NY,14606,1200,-77.720662,43.173776
Kings,610297,JAC,SEM SEM DELI CORP,SEM SEM DELI,75,HUMBOLDT ST,BROOKLYN,NY,11206,1500,-73.940913,40.704121
Nassau,746394,A,DOLLAR TREE STORES INC,DOLLAR TREE #08409,2914,LONG BEACH RD,OCEANSIDE,NY,11572,0,-73.639795,40.640055
Suffolk,741529,JAC,REEL SWEET SUSHI INC,REEL SWEET SUSHI,800,MONTAUK HWY,SHIRLEY,NY,11967,600,-72.870394,40.800785
Queens,639565,JAB,IL FORNAIO CORP,IL FORNAIO BAKERY,29-14,30TH AVE,ASTORIA,NY,11102,1900,-73.923149,40.76772
Orange,330608,JAC,WAL-MART STORES EAST LP,WAL-MART 2104,1201,RT 300,NEWBURGH,NY,12550,200000,-74.072121,41.496977
Suffolk,472342,A,LUCKY STORES 3 INC,RAINBOW 99 CENTS,567,E MAIN ST,BAY SHORE,NY,11706,6000,-73.229486,40.727794
Bronx,724557,JAC,SABOR LATINO DELI SUPERMARKET COR,SABOR LATINO DELI SUPER,1000,LONGWOOD AVENUE,BRONX,NY,10459,2000,-73.897221,40.816881
Kings,749439,JAC,613 FRESH DELI AND GROCERY CORP,613 FRESH DELI AND GROC,613,NOSTRAND AVE,BROOKLYN,NY,11216,0,-73.949887,40.676347
St. Lawrence,400354,A,PECORE LINDA K,NORTH RACQUETTE GRENERY,50,TRIPPANY RD,MASSENA,NY,13662,9500,-74.829041,44.952831
Westchester,552774,JAC,8 NORTH MEAT INC,8 NORTH MEAT,8,N COLUMBUS AVE,MOUNT VERNON,NY,10553,1800,-73.82309,40.912308
Kings,747390,JAC,US DESTINATIONS INC,US DESTINATIONS,123,BRIGHTON BEACH AVE,BROOKLYN,NY,11235,2000,-73.967336,40.57637
Bronx,716176,JAC,MR GRILL DELI GROCERY CORP,MR GRILL DELI GROCERY,1431,PROSPECT AVE,BRONX,NY,10456,1300,-73.896504,40.833747
Bronx,742787,JAC,HOSTOS DELI & GROCERY CORP,HOSTOS DELI & GROCERY,430,GRAND CONCOURSE,BRONX,NY,10451,0,-73.927925,40.817091
Queens,633356,JAC,WIDE LAKE 4 INC,EXPRESS DELI&GROCERY,33-02,31ST AVE,ASTORIA,NY,11106,1200,-73.921747,40.763507
Nassau,286425,JAC,NICOLETTI LOUISE,PICKLES PLUS,3041,HEMPSTEAD TPKE.,LEVITTOWN,NY,11756,100,-73.522932,40.725042
Orange,331141,A,OCCUPATIONS INC,OCCUPATIONS,15,FORTUNE RD WEST,MIDDLETOWN,NY,10941,0,-74.37224,41.474126
Kings,610497,JAC,SHORTY FARM&MEAT CORP,SHORTY FARM&MEAT,2949,FULTON ST,BROOKLYN,NY,11207,2700,-73.885908,40.679541
Broome,731469,A,DOLGEN NEW YORK LLC,DOLLAR GENERAL #18376,1538,CONKLIN RD,CONKLIN,NY,13748,0,-75.797786,42.023022
New York,627823,JAC,NEUHAUS INC,NEUHAUS,569,LEXINGTON @ 51ST ST,NEW YORK,NY,10022,80,-73.972079,40.756872
Bronx,741938,JAC,JESSICAS FLOWER SHOP CORP,JESSICAS FLOWER SHOP,30,A BEDFORD PARK BLVD E,BRONX,NY,10468,400,-73.888763,40.872879
Oswego,750624,JAC,103 ROUTE 49 LLC,103 ROUTE 49 SUNSET DEL,103,ROUTE 49,CLEVELAND,NY,13042,0,-75.884068,43.232552
Westchester,551220,JABC,STOP&SHOP SUPERMARKET CO LLC THE,STOP&SHOP 522,111,VRENDENBURGH AVE,YONKERS,NY,10704,68000,-73.854989,40.923887
Kings,728084,JAC,FREEMAN DELI CORP,FREEMAN DELI,1043,MANHATTAN AVE,BROOKLYN,NY,11222,1500,-73.95498,40.734578
Essex,740212,JAC,RIVERA DANIEL P,TRIPLE GREEN JADE FARM,624,MOUNTAIN VIEW DRIVE,WILLSBORO,NY,12996,900,-73.41559,44.349537
Kings,738103,A,GREEN PRODUCT MARKET INC,GREEN PRODUCT MARKET,5706,8TH AVE,BROOKLYN,NY,11220,1400,-74.007956,40.63702
Kings,619104,JAC,LISBETH GROCERY CORP,LISBETH GROCERY,66,HENDRIX ST,BROOKLYN,NY,11207,1800,-73.891438,40.680764
Bronx,712256,JAC,DYRE FISH MARKET CORP,DYRE FISH MARKET,3901,DYRE AVE,BRONX,NY,10466,2125,-73.831287,40.889345
New York,627344,A,BAN THAI GIFT CENTER INC,BAN THAI GIFT CENTER,10,MOTT ST,NEW YORK,NY,10013,100,-73.998708,40.714074
Suffolk,750656,JAC,JOES KWIK MARTS LLC,JOES KWIK MART #0126,1801,N OCEAN AVE,FARMINGVILLE,NY,11738,0,-73.020376,40.824948
Suffolk,470459,JABC,SAMS EAST INC,SAMS CLUB 6428,2950,HORSE BLOCK RD,MEDFORD,NY,11763,135000,-72.991006,40.826903
Broome,746893,JAC,THE ORIGINAL FIT KITCHEN LLC,FIT KITCHEN,20,HAWLEY STREET***,BINGHAMTON,NY,13901,800,-75.913116,42.097167
Kings,709028,JAC,LUCKY LOTTO 1 DELI INC,LUCKY LOTTO 1 DELI,1450,NOSTRAND AVE,BROOKLYN,NY,11226,500,-73.949593,40.651007
Suffolk,732942,JAC,NOA MAR MARKETS,NOA MARKETS,238,DEER PARK AVE,BABYLON,NY,11702,1300,-73.322467,40.700017
Monroe,260995,A,DOLLAR TREE STORES INC,DOLLAR TREE 604,3333,W HENRIETTA RD #B2,ROCHESTER,NY,14623,12000,-77.636821,43.087113
Nassau,713956,A,BPRF LLC,BPRF,236-01,LINDEN BLVD,ELMONT,NY,11003,800,-73.725575,40.690503
Suffolk,474856,JAC,FISHERS ISLAND CLUB INC,FISHERS ISLAND CLUB,20449,E MAIN RD,FISHERS ISLAND,NY,6390,100,,
Suffolk,471535,JABC,SCHIAVONIS MARKET INC,IGA SCHIAVONIS,48,MAIN ST,SAG HARBOR,NY,11963,4500,-72.29539,41.001198
Kings,731588,JAC,PRIME DELI AND GROCERY INC,PRIME DELI AND GROCERY,504,CLASSON AVE,BROOKLYN,NY,11238,1800,-73.958861,40.683155
Monroe,749769,JAC,CANTON MARKET INC,CANTON SUPERMARKET,85,COMMERCE DR,ROCHESTER,NY,14623,0,-77.644734,43.080799
Suffolk,728062,A,ABOUT FOOD LLC,ABOUT FOOD,53975,MAIN ROAD,SOUTHOLD,NY,11971,0,-72.427964,41.064314
Bronx,747105,JAC,SHIESTYAVEDELI LLC,SHIESTYAVE DELI,1083,SHERIDAN AVE.,BRONX,NY,10456,1000,-73.918367,40.831312
New York,625014,JAC,WALGREEN EASTERN CO INC,WALGREENS #06159,145,FOURTH AVE,NEW YORK,NY,10003,1200,-73.989829,40.733728
Queens,748585,A,TARGET CORP,TARGET STORE T-3372,160-08,JAMAICA AVE,JAMAICA,NY,11432,21000,-73.79879,40.703891
Niagara,736745,JAC,REID STORES INC,CROSBYS #40096,7084,CHESTNUT RIDGE RD,LOCKPORT,NY,14094,2000,-78.645614,43.18115
Kings,737158,JAC,M & S SUPERMARKET CORP,MET FOODS,3404,QUENTIN RD,BROOKLYN,NY,11234,5000,-73.938034,40.61383
Kings,611586,JAC,FELMINGO CORP,FELMINGO MARKET,189,SMITH ST,BROOKLYN,NY,11201,1600,-73.991387,40.685329
Oneida,300451,JABC,PRICE CHOPPER OPERATING CO INC,PRICE CHOPPER 206,1790,BLACK RIVER BLVD,ROME,NY,13440,78000,,
Broome,35684,JAC,YOO JOON SAM,KIMS ORIENTAL GRCY&GFT,3740,VESTAL PKWY E,VESTAL,NY,13850,2000,-75.980741,42.096065
Monroe,268264,A,KEENAN SUSAN,KEENAN SUSAN,,PUBLIC MKT,ROCHESTER,NY,14609,0,-77.559147,43.175867
Wyoming,705537,JAC,STOLZFUS DATHAN & WILMA,STOLTZFUS FAMILY MARKET,2462,SIMMONS RD,PERRY,NY,14530,600,-77.986823,42.762342
Queens,746106,JAC,HALAL DELI & GRILL CORP,HALAL DELI & GRILL,10401,150TH ST,JAMAICA,NY,11435,0,-73.802144,40.69737
Orange,717547,JAC,SANTA BARBARAS SUPERMARKET CORP,SANTA BARBARAS SUPERMAR,94,WILLIAM ST,NEWBURGH,NY,12550,1000,-74.016264,41.496346
Delaware,120121,JAC,VERONA OIL CO INC,COUNTRY STORE,,RT 30 & 206,DOWNSVILLE,NY,13755,1500,-75.026891,42.073306
Otsego,365260,JAC,UNITED REFINING CO OF PA INC,RED APPLE FD MRT M0348,65,CHESTNUT ST,ONEONTA,NY,13820,1500,-75.064625,42.453802
New York,732119,JAC,522 9TH AVENUE FOOD CORP,LINCOLN GOURMET DELI,522,9TH AVENUE,NEW YORK,NY,10018,2400,-73.994088,40.756411
Kings,616244,JAC,BOGOPA ST JOHNS INC,FOOD BAZAAR,1682,ST JOHNS PL,BROOKLYN,NY,11233,18000,-73.921555,40.670075
Orleans,741953,JAC,VANS PIT STOP LLC,VANS PIT STOP,4530,A HOLLY-BYRON RD,HOLLEY,NY,14470,1600,-78.063753,43.194058
Kings,725588,A,AKA CONVENIENCE STORE INC,AKA CONVENIENCE STORE,9811,4TH AVENUE,BROOKLYN,NY,11209,1000,-74.032887,40.613719
Oneida,300380,A,ALDI INC,ALDI 36,315,ORISKANY BLVD,YORKVILLE,NY,13495,4000,-75.27714,43.114046
Nassau,281165,JABC,NEW FOOD CORP,FOOD TOWN,3367,HILLSIDE AVE,NEW HYDE PARK,NY,11040,15000,-73.658699,40.753177
Rensselaer,750155,JAC,ATTIYA PETROLEUM INC,ATTIYA PETROLEUM,558,HOOSICK STREET,TROY,NY,12180,2000,-73.657726,42.739843
Suffolk,733042,JAC,HR C STORE INC,HR C STORE,178,SOUND BEACH BLVD,SOUND BEACH,NY,11789,1000,-72.967264,40.956927
Chemung,726217,JAC,AL-MALIK INC,EASTSIDE QUICK STOP,951,LAKE STREET,ELMIRA,NY,14901,2500,-76.804756,42.103425
Kings,619154,A,86TH STREET OPTIMO CENTER INC,86 OPTIMO CENTER,1516,86TH ST,BROOKLYN,NY,11228,900,-74.009044,40.611125
Suffolk,472572,A,CVS ALBANY LLC,CVS PHAMRACY 01222,1944,DEER PARK AVE DEER PARK S/C#,DEER PARK,NY,11729,13000,,
Kings,709596,JAC,F & B ORGANIC DELI GROCERY INC,F & B ORGANIC DELI AND,728,DRIGGS AVE,BROOKLYN,NY,11211,0,-73.960439,40.712925
Sullivan,734718,JAC,HEIMISHE GOURMET FOOD INC,LEVY'S DELICIOUS FOOD,2,STANTON CORNER RD,SWAN LAKE,NY,12783,1500,-74.781642,41.750744
Nassau,283800,JACD,BARRIER BREWING COMPANY LLC,BARRIER BREWING,3001,NEW ST  UNIT A2,OCEANSIDE,NY,11572,4600,-73.656186,40.639371
Putnam,723792,JAC,TOPS MARKETS LLC,TOPS MARKETS #535,1936,US RTE 6,CARMEL,NY,10512,4700,-73.668434,41.413397
Dutchess,737059,JAC,FB&Q TRADING CORP,FB&Q TRADING,1499,ROUTE 9,WAPPINGERS FALLS,NY,12590,1200,-73.908411,41.590934
Kings,732067,JAC,STAR M MINI MARKET CORP,STAR M MINI MARKET,5002,AVENUE M,BROOKLYN,NY,11234,2000,-73.926921,40.621371
Suffolk,703368,JAC,RAINBOW MULTI-SERVICE INC,RAINBOW MULTI-SERVICE,16,W MAIN ST,SOUTHAMPTON,NY,11968,1280,-72.390868,40.885842
Kings,743601,A,PITKIN DELI CORP,PITKIN DELI,2227,PITKIN AVE,BROOKLYN,NY,11207,0,-73.890082,40.672812
Nassau,747122,JAC,KSK AUTO GROUP INC,KSK AUTO GROUP,601,PORT WASHINGTON BLVD,PORT WASHINGTON,NY,11050,1000,-73.682582,40.824782
Suffolk,745049,JAC,LUS LICENSING LLC,LIDL - 8019,2500,MIDDLE COUNTRY RD,LAKE GROVE,NY,11755,15000,,
Kings,745719,JAC,GAJAE SUSHI INC,GAJAE SUSHI,11,BROADWAY,BROOKLYN,NY,11249,0,-73.967981,40.710758
Dutchess,738372,JAC,KAVAMAT NOOR INC,FISHKILL MOBIL MART,823,ROUTE 52,FISHKILL,NY,12524,1500,-73.920663,41.526012
Sullivan,481980,JABC,PECKS MARKET INC,PECKS MARKET,9,LOWER MAIN ST CR133,CALLICOON,NY,12723,16000,-75.056614,41.765559
Monroe,266418,A,ECKERD CORP,RITE AID 10868,1567,PENFIELD RD,ROCHESTER,NY,14625,300,-77.493014,43.133562
Yates,735222,JAC,HAPPY HEARTS WORKSHOP LTD,HAPPY HEARTS WORKSHOP,2751,ROUTE 364,PENN YAN,NY,14527,1800,-77.090597,42.676744
Monroe,730180,JAC,KRAPF CHRISTIAN AND KRAPF CHRISTI,OAK AND APPLE CIDERY,1600,DUBLIN RD,PENFIELD,NY,14526,0,-77.425952,43.151061
Kings,616678,JAC,W&S DAIRY GROCERY INC,W&S DAIRY GROCERY,281,AVENUE O,BROOKLYN,NY,11230,1000,-73.973755,40.611337
Westchester,733269,JAC,YALE AVE DELI GROCERY INC,YALE AVE DELI GROCERY,26,YALE AVE,OSSINING,NY,10562,0,-73.860538,41.165689
Nassau,282684,A,PUFF N STUFF HICKSVILLE INC,PUFF N STUFF,64,JERUSALEM AVE,HICKSVILLE,NY,11801,1000,-73.524738,40.765453
Albany,734352,JAC,N & M MART CORP,N & M MART,1348,CENTRAL AVENUE,ALBANY,NY,12205,1500,-73.816231,42.70305
Bronx,711733,JAC,BRONX MEAT & DELI CORP,BRONX MEAT & DELI,100,E 183RD ST,BRONX,NY,10453,1800,-73.901656,40.85801
Onondaga,716744,JAC,CST NEW YORK LLC,CIRCLE K 4707623,5565,BARTELL RD,BREWERTON,NY,13029,7000,-76.131294,43.232461
Bronx,603267,JABC,JVD FOOD CORP,PRICE CHOICE,820,E 180TH ST,BRONX,NY,10460,9000,-73.884786,40.84615
Bronx,736860,A,WALGREEN EASTERN CO INC,WALGREENS #18198,1710,CROSBY AVE,BRONX,NY,10461,6000,-73.831348,40.845646
Onondaga,316207,A,UNITED REFINING CO OF PA INC,KWIK FILL A0064,7167,STATE FAIR BLVD,SYRACUSE,NY,13209,1000,-76.277585,43.117098
Westchester,723477,JAC,LA GUADALUPANA GROCERY & DELI INC,LA GUADALUPANA GROCERY,498,SOUTH BROADWAY,YONKERS,NY,10705,0,-73.896879,40.916057
Kings,614072,A,RITE AID OF NEW YORK INC,RITE AID PHARMACY 03869,1791,UITCA AVE,BROOKLYN,NY,11234,8000,-73.927937,40.628847
Queens,748885,JAC,SNACK PARADISE I INC,SNACK PARADISE,224,BEACH 98TH STREET,ROCKAWAY PARK,NY,11694,1000,-73.820006,40.585241
Suffolk,474874,JABC,PATCHOGUE SUPERMARKETS LLC,SHOPRITE #811,95,SUNRISE HWY,PATCHOGUE,NY,11772,72000,-73.005492,40.780239
New York,725812,JAC,JG SALES CORP,SUSHI BY PESCATORE,327,GRAND CENTRAL TERMINAL,NEW YORK,NY,10017,300,-73.970967,40.749301
Columbia,742417,JAC,FARMHOUSE KITCHEN LLC,FARMHOUSE KITCHEN,104,WALKERS MILLS RD,GERMANTOWN,NY,12526,0,-73.825094,42.144213
Suffolk,477462,JAC,KINGS PARK MEAT MARKET INC,KINGS PARK MEAT MARKET,76,MAIN ST,KINGS PARK,NY,11754,3600,-73.256545,40.885471
Suffolk,709383,JAC,ONE STOP DELI INC,ONE STOP DELI,2520,MIDDLE COUNTRY RD,CENTEREACH,NY,11720,1100,-73.100595,40.858324
New York,727710,JAC,FRESH KIM LLC,FRESH KIM,2116,3RD AVE,NEW YORK,NY,10029,0,-73.940199,40.797713
Kings,739765,JAC,KISNA ENTERPRISES INC,BABAS DELI,599,5TH AVENUE,BROOKLYN,NY,11215,1800,-73.990319,40.664355
New York,628507,A,DUANE READE ET AL PTRS,DUANE READE 14436,200,WATER ST,NEW YORK,NY,10038,14000,-74.004204,40.707355
Dutchess,720751,JAC,SPEEDWAY LLC,SPEEDWAY #07880,480,RT 9,FISHKILL,NY,12524,2500,-73.889294,41.521553
Kings,748260,JAC,ONE STOP DELI MART INC,ONE STOP DELI MART,3056,AVENUE X,BROOKLYN,NY,11235,1500,-73.935464,40.594382
Bronx,748839,A,GB LICENSE LLC,GOPUFF 637,1872,E TREMONT AVE,BRONX,NY,10460,0,-73.864749,40.840991
Schenectady,740323,JAC,MUNCHIES DELI GROCERY OF SCHENECT,MUNCHIES DELI GROCERY O,814,EASTERN AVENUE,SCHENECTADY,NY,12308,1500,-73.928084,42.8119
Bronx,734340,JAC,ACERO PRODUCE INC,ACERO PRODUCE,1171,STRATFORD AVENUE,BRONX,NY,10472,700,-73.875425,40.828838
Queens,632716,JAC,BAJWA FOOD MARKET LLC,BAJWA FOOD MARKET,104-03,47TH AVE,CORONA,NY,11368,2000,-73.859293,40.745803
Onondaga,747389,JAC,A PLUS CONVENIENCE STORES INC,7 ELEVEN #40184,200,N STATE ST,SYRACUSE,NY,13203,0,-76.148619,43.052755
Kings,751031,JAC,612 SUPERMARKET CORP,612 SUPERMARKET,612,NOSTRAND AVE,BROOKLYN,NY,11216,0,-73.949775,40.67754
New York,746864,JAC,CAMILO ROSADO DELI GROCERY CORP,CAMILO ROSADO DELI GROC,2003,AMSTERDAM AVE,NEW YORK,NY,10032,2600,-73.941028,40.834248
Kings,724550,A,V PHARMACY LLC,V PHARMACY,2124,GRAVESEND NECK RD,BROOKLYN,NY,11229,1400,-73.949234,40.597264
Suffolk,471883,JAC,COMPARE FISH MARKET INC,COMPARE FISH MARKET,725,COMMACK RD,BRENTWOOD,NY,11717,0,-73.23245,40.758565
Kings,750414,JAC,ALSAIDI FOOD SALAD JUICE CORP,ALSAIDI FOOD SALAD JUIC,767,4TH AVE,BROOKLYN,NY,11232,0,-73.998631,40.65978
Columbia,744481,A,BARN AT MILLERS CROSSING LLC THE,THE BARN AT MILLERS CRO,170,RT 217,HUDSON,NY,12534,0,-73.707291,42.227378
Kings,740126,JAC,SUPER FOOD INC,SUPER FOOD,1314,KINGS HIGHWAY,BROOKLYN,NY,11229,2500,-73.9596,40.608202
Kings,618313,JAC,YELLOW MARKET CORP,YELLOW MARKET,5812,GLENWOOD RD,BROOKLYN,NY,11234,3500,-73.920154,40.633614
Bronx,720408,JAC,MAVELYN DELI GROCERY CORP,MAVELYN DELI GROCERY,1034,AVENUE ST JOHN,BRONX,NY,10455,1200,-73.901311,40.812615
Monroe,267835,JACK,NIBLACK DOUGLAS H,NIBLACK FOODS,900,JEFFERSON RD BLDG 6,ROCHESTER,NY,14623,5000,-77.613253,43.087235
Ontario,743612,JAC,KOMOREBI SHOPPE LLC,KOMOREBI SHOPPE,19,MILL ST,NAPLES,NY,14512,600,-77.403048,42.615356
Kings,730633,A,DOLGEN NEW YORK LLC,DOLLAR GENERAL #19215,2027,UTICA AVE,BROOKLYN,NY,11234,8000,-73.927201,40.621928
Westchester,552423,JAC,MAMSCC LLC,EDIBLE ARRANGEMENTS,217,E MAIN ST,MOUNT KISCO,NY,10549,1600,-73.726428,41.202788
Sullivan,745945,JAC,FRESH CATSKILLS LLC,FRESH CATSKILLS,82,COLD SPRING RD.,MONTICELLO,NY,12701,27000,-74.684803,41.64303
Chautauqua,60297,A,FACULTY STUDENT ASSOCIATION,UNIVERSITY CONVENIENCE,280,CENTRAL AVE SUNY FRED,FREDONIA,NY,14063,1200,-79.334044,42.453718
Erie,142568,JAC,PRRC INC,PRICE RITE,250,ELMWOOD AVE,BUFFALO,NY,14222,44000,-78.877134,42.903782
Kings,732944,JAC,76 CUCCIS DELI INC,76 CUCCIS DELI,7602,18TH AVENUE,BROOKLYN,NY,11214,1000,-73.996707,40.612677
Bronx,749781,JAC,WESTCHESTER GROCERY CORP,WESTCHESTER GROCERY,987,WESTCHESTER AVE,BRONX,NY,10459,1300,-73.894259,40.823458
Rensselaer,724939,JAC,ENGELKE PAUL,ENGELKE FARM & GARDEN,463,GARFIELD RD,TROY,NY,12180,120,-73.598272,42.722339
Kings,735200,JAC,LA TORRE BROTHERS INC,LA TORRE BROTHERS,4518,AVENUE N,BROOKLYN,NY,11234,3500,-73.931063,40.618693
Otsego,745192,A,DOLGEN NEW YORK LLC,DOLLAR GENERAL #21671,1735,ST HWY 205,LAURENS,NY,13796,0,,
Bronx,609788,JAC,KO FRUITS AND VEGETABLE INC,K&C FRUIT&VEGETABLES,4026,WHITE PLAINS RD,BRONX,NY,10466,2000,-73.859681,40.889241
Kings,742253,JAC,YOUR DELI & GROCERY CORP,YOUR DELI & GROCERY,4718,4TH AVE,BROOKLYN,NY,11220,800,-74.011292,40.647807
Kings,749985,JAC,CECI DELI GROCERY CORP,CECI DELI GROCERY,1789,LINDEN BLVD,BROOKLYN,NY,11207,0,-73.896317,40.657948
Westchester,551323,JABC,SHOP-RITE SUPERMARKETS INC,SHOPRITE #220 BEDFORD H,747,BEDFORD RD,BEDFORD HILLS,NY,10507,30000,-73.714362,41.224223
Suffolk,474732,A,295 LDB CORP,THE BARN,295,LAKE AVE,ST JAMES,NY,11780,1000,-73.156641,40.877844
Cortland,744489,JAC,SONBYRNE SALES INC,BYRNE DAIRY #134 HOMER,36,SOUTHWEST ST,HOMER,NY,13077,3000,-76.191206,42.63335
Allegany,25123,JAC,SKINNER GLORIA J,COUNTRY STORE THE,8730,RT 243,RUSHFORD,NY,14777,2640,-78.234731,42.386453
New York,747020,A,SULLIVAN COUNTRY CORP,SULLIVAN COUNTRY,437,EAST 9TH STREET,NEW YORK,NY,10009,0,-73.983265,40.727522
Jefferson,220183,JAC,SONBYRNE SALES INC,BYRNE DAIRY 60,1003,COFFEEN ST,WATERTOWN,NY,13601,4000,-75.932459,43.984869
New York,722877,JAC,FRESH DIRECT LLC,FOOD KICK,630,WEST 52ND STREET,NEW YORK,NY,10019,0,-73.99546,40.767866
Albany,721225,A,FAMILY DOLLAR STORES OF NY INC,FAMILY DOLLAR #31571,418,SOUTH PEARL STREET,ALBANY,NY,12202,4800,-73.759808,42.637266
New York,725306,A,97 TOBACCO SHOP INC,97TOBACCO SHOP,2578,BROADWAY,NEW YORK,NY,10025,300,-73.971056,40.795477
Oneida,732625,JAC,NASSER ABDO,ABDO SALEH NASSER,1317,NOYES ST,UTICA,NY,13502,0,-75.257139,43.100672
Kings,610419,JABH,TASTEE PATTEE LTD,TASTEE PATEE,3122,CHURCH AVE,BROOKLYN,NY,11226,4000,-73.947875,40.650889
Nassau,717116,JAC,SHREE 1000 CORP,STOP & SHOP CONVENIENCE,1000,JERUSALEM AVE,MERRICK,NY,11566,2000,-73.549908,40.69053
Schoharie,720542,JAC,SPEEDWAY LLC,SPEEDWAY #07699,2423,ST RT 7,COBLESKILL,NY,12043,2500,-74.441778,42.680887
Dutchess,721414,JAC,R & K POUGHKEEPSIE GROCERY II INC,R & K POUGHKEEPSIE GROC,144,MILL ST,POUGHKEEPSIE,NY,12601,1200,-73.934425,41.707686
Kings,670987,JAC,TWO DELI CORP,TWO DELI,140,PENNSYLVANIA AVE,BROOKLYN,NY,11207,1500,-73.896483,40.674248
Erie,751182,JAC,EASTERN PETROLEUM CORP,EASTERN PETROLEUM,4535,BROADWAY,DEPEW,NY,14043,2000,-78.707013,42.90156
New York,628495,A,99 CENT WORLD & VARIETY CORP,99 CENT WORLD & VARIETY,4242,BROADWAY,NEW YORK,NY,10033,2500,-73.936195,40.849706
Suffolk,748983,JAC,LUS LICENSING LLC,LIDL #8008,531,MONTAUK HWY,WEST BABYLON,NY,11704,0,-73.340801,40.687888
Kings,735520,JAC,LUNA MARKET INC,LUNA MARKET,4010,5TH AVENUE,BROOKLYN,NY,11232,1700,-74.004788,40.650435
Delaware,708968,JAC,STAMFORD SMOKEHOUSE LLC,SOLINSKYS,103,MAIN ST,STAMFORD,NY,12167,2000,-74.617133,42.408341
Bronx,746094,JAC,SOUNDVIEW DELI & MARKET LLC,SOUNDVIEW DELI & MARKET,1980,GILDERSLEEVE AVE,BRONX,NY,10473,1100,-73.851923,40.809802
Kings,731762,A,1064 FUEL CORP,1064 FUEL,1064,ATLANTIC AVE,BROOKLYN,NY,11238,0,-73.958062,40.679724
Kings,704700,A,255 E 95 ST FOOD CORP,255 E 95 ST FOOD,1099,CLARKSON AVE,BROOKLYN,NY,11212,1000,-73.921683,40.660095
Franklin,160153,JAC,DEGON JANE,FARM TO MARKET CNTRY ST,1060,COUNTY RT 8,NORTH BANGOR,NY,12966,0,-74.45557,44.87042
Kings,747960,JAC,ASIAN SUPERMARKET NYC INC,ASIAN SUPERMARKET NYC,1322,NEWKIRK AVE,BROOKLYN,NY,11230,1000,-73.964505,40.634959
Queens,736503,JAC,LOS 2 AMIGOS DELI INC,LOS 2 AMIGOS DELI,90-01,77TH STREET,WOODHAVEN,NY,11421,1000,-73.863793,40.687589
Suffolk,728416,JAC,MALIK AHSAN T,7 ELEVEN STORE #11212C,81,SHEPPARD LANE,SMITHTOWN,NY,11787,1200,-73.166131,40.840256
Chemung,739544,JAC,BEER WORLD 11 CORP,BEER WORLD,3165,LAKE RD,HORSEHEADS,NY,14845,5000,-76.814841,42.144384
Suffolk,748685,JAC,LUS LICENSING LLC,LIDL,155,ISLIP AVE,ISLIP,NY,11751,30000,-73.207855,40.735816
Queens,632960,JAC,37TH AVE MARKET INC,FOOD BAZAAR,35-60,JUNCTION BLVD,CORONA,NY,11368,20000,-73.871364,40.752538
Suffolk,751205,JAC,S&S FUEL INC,S&S FUEL,519,MIDDLE COUNTRY RD,CORAM,NY,11727,0,-73.013031,40.86867
Kings,611673,JAC,GROSS BAKE SHOP INC,GROSS BAKE SHOP,5406,16TH AVE,BROOKLYN,NY,11204,2000,-73.988508,40.628152
Bronx,609621,JAC,1158 GROCERY & DELI INC,1158 GROCERY & DELI,1158,ST LAWRENCE AVE,BRONX,NY,10472,500,-73.866678,40.829105
Nassau,739251,JAC,MAHAKALI DELI INC,MAHAKALI DELI,276,ATLANTIC AVE,EAST ROCKAWAY,NY,11518,1500,-73.666011,40.648991
Dutchess,130720,JAC,ENCORE BEVERAGE CORP,FISHKILL BEER&SODA,985,MAIN ST,FISHKILL,NY,12524,3600,-73.907477,41.531361
Putnam,370180,A,LAKE CARMEL RX INC,LAKE CARMEL PHARMACY,511,RT 52,CARMEL,NY,10512,2500,-73.67071,41.455501
Steuben,465148,JAC,UNITED REFINING CO OF PA INC,RED APPLE FD MRT M0059,6765,RT 415 S,BATH,NY,14810,1500,,
Herkimer,210085,JAC,OUMRAM CORP,COUNTRY FARMS,133,W MAIN ST,FRANKFORT,NY,13340,1500,-75.076063,43.043738
Westchester,737069,JACDK,ACE NATURAL INC,ACE NATURAL,249-257,E SANFORD BLVD,MOUNT VERNON,NY,10550,12000,,
Erie,713153,JAC,SUNRISE MINI MART 2 INC,SUNRISE MINI MART II,375,MICHIGAN AVE,BUFFALO,NY,14204,2100,-78.868759,42.882626
Bronx,609116,JAC,LUPITAS MEXICAN GROCERY INC,LUPITAS MEXICAN GROCERY,9,E GUN HILL ROAD,BRONX,NY,10467,1000,-73.880946,40.882532
Nassau,282835,JACDK,BELLMORE DISTRIBUTORS INC,BELLMORE BEVERAGE,1377A,NEWBRIDGE RD,BELLMORE,NY,11710,10000,-73.540894,40.686201
Monroe,261300,A,FAMILY DOLLAR STORES OF NY INC,FAMILY DOLLAR 6115,630,W RIDGE RD,ROCHESTER,NY,14615,6300,-77.64338,43.202233
Kings,611158,A,BROOKLYN BOYS GROCERY INC,MUNDO SUPERMARKET,1815,CHURCH AVE,BROOKLYN,NY,11226,5000,-73.962529,40.649657
Onondaga,748833,A,GB LICENSE LLC,GOPUFF 746,7666,MORGAN RD,LIVERPOOL,NY,13090,4718,-76.206708,43.140684
Rensselaer,385022,JAC,CUMBERLAND FARMS INC,CUMBERLAND FARMS 1534,625,PAWLING AVE,TROY,NY,12180,1800,-73.658818,42.704052
Queens,636596,A,RITE AID OF NEW YORK INC,RITE AID PHARMACY 04868,71-18,KISSENA BLVD,FLUSHING,NY,11367,10000,-73.815209,40.729124
New York,728953,JAC,LOS VECINOS MINI MARKET INC,LOS VECINOS MINI MARKET,3518,BROADWAY,NEW YORK,NY,10031,0,-73.950916,40.825601
Westchester,551124,JAC,CROSS RIVER DEMON SHELL SRVCE INC,SHELL CROSS RIVER,870,RT 35,CROSS RIVER,NY,10518,500,-73.606251,41.268674
Suffolk,709494,JABC,P&P FOODS INC,GIUNTAS MEAT FARMS,4585,SUNRISE HWY,BOHEMIA,NY,11716,10000,-73.114427,40.755154
Bronx,749399,JAC,1679 MONROE DELI GROCERY INC,1679 MONROE DELI GROCER,1679,MONNROE AVENUE,BRONX,NY,10457,800,-73.906781,40.843673
New York,745591,JAC,ECO FARMERS MARKET INC,ECO FARMERS MARKET,1330,LEXINGTON AVE,NEW YORK,NY,10128,2000,-73.95431,40.781209
Kings,713056,JAC,GOOD MORNING DELI & GROCERY CORP,GOOD MORNING DELI & GRO,303,DEAN ST,BROOKLYN,NY,11217,2500,-73.981699,40.684099
Schenectady,420338,A,CVS ALBANY LLC,CVS PHARMACY #0441,259,SARATOGA RD,GLENVILLE,NY,12302,13000,-73.932035,42.870221
Westchester,556526,JAC,DUNWOODIE DAIRY&DELI INC,DUNWOODIE DAIRY,325,YONKERS AVE,YONKERS,NY,10701,3500,-73.872558,40.933259
New York,738688,JAC,3872 ENG DELI GROCERY LLC,3872 ENG DELI,3872,BROADWAY,NEW YORK,NY,10032,2000,-73.942652,40.836938
Nassau,744898,A,INDEPENDENT BEVERAGE CO INC,MASSAPEQUA BEVERAGE,8,HARBOR LANE,MASSAPEQUA PARK,NY,11762,4000,-73.456335,40.666022
Nassau,282610,JAC,SATSANG INC,7 ELEVEN STORE 11150G,635,POWELLS LN,WESTBURY,NY,11590,2000,-73.576717,40.77087
Kings,713807,A,NEW PARK SLOPE GROC & CONV ST INC,NEW PARK SLOPE GRO & CO,597,4TH AVE,BROOKLYN,NY,11215,800,-73.993191,40.665002
Queens,734427,JAC,12 ST GOURMET DELI INC,12 ST GOURMET DELI,1203,40TH AVE,LONG ISLAND CITY,NY,11101,0,-73.942627,40.755953
Delaware,738789,JAC,AMERICAN GINSENG PHARM REGIONAL C,GINSENG & BEYOND,138,CHURCH STREET,TREADWELL,NY,13846,8488,-75.054417,42.343087
Erie,149613,JAC,SPOTH EDWARD M&KEVIN R,SPOTHS FARM MARKET,5757,TRANSIT RD,EAST AMHERST,NY,14051,1200,-78.696933,43.005378
Kings,746573,JAC,24 SEVEN SERVICES LLC,24 SEVEN SERVICES,2206A,FLATBUSH AVE,BROOKLYN,NY,11234,1200,-73.92978,40.616189
New York,728202,JAC,345 PARK NEWS INC,345 PARK NEWS,345,PARK AVENUE,NEW YORK,NY,10154,1000,-73.973178,40.758071
Bronx,734811,JAC,SARAH GOURMET DELI CORP,SARAH GOURMET DELI,711A,183RD ST,BRONX,NY,10458,0,-73.884976,40.851836
Bronx,739872,JAC,TULCINGO DINER LLC,TULCINGO DINER,4168,WHITE PLAINS RD,BRONX,NY,10466,1000,-73.857685,40.892865
Suffolk,739863,JAC,STONY BROOK  CHOCOLATE  LLC,CHOCOLATE WORKS,143,MAIN STREET,STONY BROOK,NY,11790,1200,-73.14742,40.918782
Queens,743084,A,WHOLE GREEN MARKET INC,WHOLE GREEN MARKET,92-01,63RD DR,REGO PARK,NY,11374,1000,-73.863973,40.72757
Kings,750890,A,BUYK CORP,BUYK,6002,FT HAMILTON PKWY,BROOKLYN,NY,11219,0,-74.00595,40.632832
Suffolk,475754,JAC,LITTLE WESCOTT GROCERIES INC,SEAVIEW MARKET,,CORNER OF DUNWAY & CENTRAL,SEAVIEW,NY,11770,3600,-73.156602,40.645867
New York,741606,JAC,NUR GROCERY TWO INC,NUR GROCERY TWO,301,E 4TH ST.,NEW YORK,NY,10009,0,-73.979968,40.722204
New York,738195,JAC,MOMMA ZEES FOOD TO PLEZ CORP,MOMMA ZEES FOOD TO PLEZ,157,WEST 123RD STREET,NEW YORK,NY,10027,1000,-73.948924,40.807511
Orleans,340012,JABC,TOPS MARKETS LLC,TOPS 248,11200,MAPLE RIDGE RD,MEDINA,NY,14103,44000,-78.399558,43.206856
Albany,704271,JAC,HONEYBAKED HAM CO LLC THE,HONEYBAKED HAM CO,69,WOLF RD,ALBANY,NY,12205,3000,-73.813566,42.714185
Cayuga,726836,JAC,HORNING KRISTINE & ALVIN,MEADOW VIEW MARKET,13001,STATE ROUTE 34,MARTVILLE,NY,13111,1600,-76.580983,43.245455
Onondaga,720507,JAC,SPEEDWAY LLC,SPEEDWAY #07662,685,HIAWATHA BLVD W,SYRACUSE,NY,13204,1800,-76.176223,43.062456
Kings,723490,JAC,13 STAR DELI AND GROCERY CORP,13 STAR DELI AND GROCER,536,RALPH AVE,BROOKLYN,NY,11233,0,-73.922375,40.67107
Albany,420256,A,CVS ALBANY LLC,CVS PHARMACY 05358,3916,CARMAN RD,SCHENECTADY,NY,12303,2000,-73.932177,42.715374
Nassau,281328,JAC,AA MEDITERRANEAN MINIMKT&PIZ CORP,A&A MEDTRN MINIMKT&DELI,42-40,HICKSVILLE RD,BETHPAGE,NY,11714,3000,-73.483538,40.716831
New York,716624,JAC,BURGANDY & WHITE MKTS INC,MORTON WILLIAMS,1211,MADISON AVE,NEW YORK,NY,10128,6000,-73.95821,40.781681
Kings,671432,JAC,4 STAR CANDY DELI INC,4 STAR CANDY DELI,327,MYRTLE AVE,BROOKLYN,NY,11205,1200,-73.973848,40.693291
Nassau,281669,A,CVS ALBANY LLC,CVS PHARMACY 02780,814,HEMPSTEAD AVE,WEST HEMPSTEAD,NY,11552,10000,-73.659366,40.688171
Franklin,160166,JAC,HAZEN BRETT&JOANNE,BMJ MIDWAY MARKET&DELI,3923,ST RTE 11,MALONE,NY,12953,0,-74.263753,44.855907
Queens,742970,JAC,134 FRESH MARKET INC,134 FRESH MARKET,134-16,LIBERTY AVE,SOUTH RICHMOND HIL,NY,11419,0,-73.812205,40.691546
Kings,728076,JAC,EDEN DELI AND GROCERY LLC,EDEN DELI AND GROCERY 0,408,47TH ST,BROOKLYN,NY,11220,1000,-74.010371,40.647879
Nassau,725774,A,KRISH ENTERPRISES ONE INC,KRISH ENTERPRISES ONE,3015,LONG BEACH ROAD,OCEANSIDE,NY,11572,2350,-73.640112,40.637567
Queens,639172,JAC,LITTLE GUYANA BAKE SHOP INC,LITTLE GUYANA BAKE SHOP,124-11/13,LIBERTY AVE,RICHMOND HILL,NY,11419,0,,
Bronx,741448,JAC,2185 ANTILLANA MEAT & FOOD CORP,ANTILLANA SUPERFOOD MAR,2185,WHITE PLAINS RD,BRONX,NY,10462,6000,-73.867667,40.85625
Suffolk,739312,A,TEN19 INC,TOTAL NUTRITION,187,SUNRISE HWY SUITE G,WEST ISLIP,NY,11795,1500,-73.305999,40.719639
Niagara,290514,JABC,WAL-MART STORES EAST LP,WAL-MART SUPER CTR 1909,1540,MILITARY RD,NIAGARA FALLS,NY,14304,216000,-78.974273,43.09653
Nassau,283763,JAC,LV CHEESE INC,CURDS & WHEY,20,BIRCH HILL RD,LOCUST VALLEY,NY,11560,0,-73.597071,40.875609
Suffolk,705354,JAC,EIFFEL REDDINGS LLC,REDDINGS,184,N FERRY RD,SHELTER ISLAND HEI,NY,11965,2200,-72.351754,41.083851
Orange,744268,JAC,FARMHOUSE MARKET INC THE,THE FARMHOUSE MARKET,227,MAIN ST.,CORNWALL,NY,12518,1700,-74.031161,41.436813
Suffolk,748203,JAC,SAN AURA FOODS INC,BEST FARMS,9,UDALL RD,WEST ISLIP,NY,11795,0,-73.306587,40.710537
Chemung,735132,A,COLDIRON FUEL INC,COLDIRON FUEL,2000,COLLEGE AVE,ELMIRA,NY,14901,500,-76.822728,42.118078
Suffolk,722322,A,MRK PETROLEUM INC,MRK PETROLUEM,255,MONTAUK HWY,WEST SAYVILLE,NY,11796,0,-73.101755,40.728416
Bronx,600580,JAC,GOMEZ EDWARD,MATA E CANA DELI & GRCY,911,E 156TH ST,BRONX,NY,10455,1500,-73.901083,40.816966
Hamilton,200028,JAC,WS SANDIFORD ENTERPRISES LLC,ADK TRADING POST,1601,TUPPER RD,LONG LAKE,NY,12847,1200,-74.452937,43.983085
Oswego,708998,A,DOLGEN NEW YORK LLC,DOLLAR GENERAL #14586,3091,COUNTY ROUTE 26,PARISH,NY,13131,8500,-76.114934,43.404425
Onondaga,310938,JAC,AL ZOKARI MOUSA,BURNET DELI,832,BURNET AVE,SYRACUSE,NY,13203,1000,-76.127763,43.052665
Queens,750980,JAC,SPRINGFIELD PARKWAY INC,SHELL FOOD MART,185-25,N CONDUIT AVE,SPRINGFIELD GARDEN,NY,11413,0,-73.758149,40.666482
New York,624198,A,VILLANI ALEX,SALT WATER ENTERPRISE,,GREEN MARKET UNION SQ,NEW YORK,NY,10003,0,-73.988987,40.731969
New York,739949,JAC,JC LEX INC,JC LEX,971,LEXINGTON AVE,NEW YORK,NY,10021,1800,-73.962935,40.769402
Suffolk,723639,A,SMITHTOWN FOOD MARKET INC,SMITHTOWN FOOD MARKET,260-09,SMITHTOWN BLVD,NESCONSET,NY,11767,1200,-73.144493,40.832704
Kings,724982,JAC,BEDFORD GOURMET DELI 16 INC,GOURMET AND GRILL,183,BEDFORD AVE,BROOKLYN,NY,11211,1200,-73.957631,40.717907
Nassau,281429,A,WAL-MART STORES EAST LP,WAL-MART 2583,1123,JERUSALEM AVE,UNIONDALE,NY,11553,8000,-73.577789,40.694185
Bronx,736117,A,WALGREENS EASTERN CO INC,WALGREENS #17828,3901,WHITE PLAINS RD,BRONX,NY,10466,0,-73.861533,40.885942
Queens,743670,JAC,20/21 DELI & GROCERY INC,20/21 DELI & GROCERY,90-38,84TH ST,WOODHAVEN,NY,11421,0,-73.858349,40.687338
Bronx,742444,JAC,KEILLY DELI GROCERY CORP,KEILLY DELI GROCERY,3118,BAILEY AVENUE,BRONX,NY,10463,0,-73.90206,40.878448
Monroe,734665,JAC,UPTOWN MINI MART LLC,UPTOWN MINI MART,87,N CLINTON AVE,ROCHESTER,NY,14604,2500,-77.607176,43.159017
Broome,742466,A,WILLIAMS JUANITA,MIRACLES,81,CHENANGO ST.,BINGHAMTON,NY,13901,200,-75.909889,42.101182
Suffolk,736961,JAC,7-ELEVEN INC,7 ELEVEN STORE #37631H,2475,MONTAUK HWY,BROOKHAVEN,NY,11719,2200,-72.916934,40.785554
Rockland,390486,A,CVS ALBANY LLC,CVS PHARMACY 02312,12,W RAMAPO RD,GARNERVILLE,NY,10923,10000,-74.00598,41.200102
Herkimer,210124,A,KPH HEALTHCARE SERVICES INC,KINNEY DRUGS #27,40,1ST ST,ILION,NY,13357,3000,-75.036964,43.01432
Bronx,714507,JABC,MAMDOU BAH & ABDOULAYE BARRIE,BARAKA AFRICAN MKT STOR,1345,WEBSTER AVE,BRONX,NY,10456,1800,-73.908133,40.835102
New York,624597,A,MID ATLANTIC CONVIENCE INC,MID ATLANTIC CONV,40,W 39TH ST,NEW YORK,NY,10018,1800,-73.984115,40.75236
New York,724869,JAC,CLINTON FRUIT MARKET INC,CLINTON FRUIT MARKET,681,NINTH AVENUE,NEW YORK,NY,10036,2000,-73.990391,40.761519
Tioga,727583,A,TOMS HARDWARE & FEED INC,TOMS HARDWARE & FEED,615,CAYUTA AVE,WAVERLY,NY,14892,2500,-76.527285,42.009549
Onondaga,310858,JAC,WAL-MART STORES EAST LP,WAL-MART SPRCNTR #2581,5399,W GENESEE ST,CAMILLUS,NY,13031,205018,-76.272676,43.041127
Chautauqua,703074,JAC,575 CONVENIENCE STORE INC,575 CONVENIENCE STORE,575,FAIRMOUNT AVE,JAMESTOWN,NY,14701,2516,-79.273205,42.097108
New York,724849,JAC,KEVIN GROCERY STORE INC,KEVINS GROCERY STORE,339,E 108TH ST,NEW YORK,NY,10029,2000,-73.939473,40.791067
Queens,739939,A,AMIGO 99 CENTS ROOSEVELT INC,AMIGO99 CENTS ROOSEVELT,78-14,ROOSEVELT AVE,JACKSON HEIGHTS,NY,11372,6000,,
Erie,743265,JAC,DEBERG ENTERPRISES LLC,AURA SALT CAVE AND WELL,6429,TRANSIT RD STE 1,EAST AMHERST,NY,14051,4000,-78.696932,43.023124
Erie,750277,JAC,AJ GAS MART INC,AJ GAS MART,1981,FILLMORE AVE,BUFFALO,NY,14214,2200,-78.839299,42.927987
Broome,749792,A,DOLGEN NEW YORK LLC,DOLLAR GENERAL #22475,2301,VESTAL PKWY,VESTAL,NY,13850,0,-76.100416,42.068979
Erie,148585,A,ECKERD CORP,RITE AID 10832,480,EVANS RD,WILLIAMSVILLE,NY,14221,10000,-78.739513,42.977226
Kings,613734,JAC,DOUBLE S PRODUCE CORP,MR GREENS,330,ALBANY AVE,BROOKLYN,NY,11213,1500,-73.939492,40.668583
Suffolk,750818,JAC,ALBERTO ORTEGA,PAN PAN BAKERY CORP,145,MIDDLE COUNTRY RD,RIDGE,NY,11961,0,-72.845237,40.909373
Broome,30487,JAC,DATLA INC,EZ FOOD MART,2000,E MAIN ST,ENDICOTT,NY,13760,1550,-76.039579,42.1024
Madison,747582,JAC,GILLETTE GUY,GILLETTES MAPLE PRODUCT,3261,US 20,CAZENOVIA,NY,13035,1800,-75.777104,42.917215
Suffolk,472649,A,CVS ALBANY LLC,CVS PHARMACY 05061,341,COMMACK RD,COMMACK,NY,11725,18000,-73.29435,40.834528
Kings,728200,JAC,TROY DELI INC,TROY DELI,73,TROY AVE,BROOKLYN,NY,11213,2200,-73.935918,40.677023
Nassau,714685,JAB,FISH NET OF FARMINGDALE CORP,FISH NET OF FARMINGDALE,918,S MAIN ST,FARMINGDALE,NY,11735,500,-73.432138,40.713401
New York,623684,JAC,CHELSEA MARKET BASKETS LTD,CHELSEA MARKET BASKETS,75,9TH AVE,NEW YORK,NY,10011,5000,-74.004466,40.742227
Oneida,711991,A,BIG LOTS STORES INC,BIG POTS #1246,1146,ERIE BLVD W,ROME,NY,13440,0,-75.48533,43.224353
Schenectady,420427,JAC,NISHA-9 INC,RUNWAY EXPRESS,1309,ALTAMONT AVE,SCHENECTADY,NY,12303,1200,-73.943243,42.786004
Erie,140396,A,RITE AID DRUG PALACE INC,RITE AID PHARMACY 00763,4220,DELAWARE AVE DEL-TON PLAZA,TONAWANDA,NY,14150,25000,,
Onondaga,310492,JAC,YOGITA CORP,ON THE WAY MARKET,7802,MAPLE RD,BALDWINSVILLE,NY,13027,2000,-76.327082,43.148022
Kings,733949,A,YAYA TOBACCO SHOP CORP,YAYA TOBACCO SHOP,554,86TH STREET,BROOKLYN,NY,11209,800,-74.024733,40.620597
Bronx,745003,JAC,WESTERN BEEF RETAIL INC,WESTERN BEEF,3629,WHITE PLAINS ROAD,BRONX,NY,10467,20000,-73.865153,40.880183
Queens,738882,JAC,APNA FOOD & OIL CORP,BP SHOP,65-10,QUEENS BLVD,WOODSIDE,NY,11377,800,-73.900021,40.740778
New York,725883,A,EVERYDAY CONVENIENT STORE INC,EVERYDAY CONVENIENT STO,663,10TH AVENUE STORE B,NEW YORK,NY,10036,1400,,
Orleans,730396,JAC,SOURCED MARKET & EATERY LLC,SOURCED MARKET & EATERY,12195,MAPLE RIDGE RD,MEDINA,NY,14103,1500,-78.334523,43.207739
Bronx,737088,JAC,DIALA GOURMET CORP,DIALA GOURMET,3214,3RD AVE,BRONX,NY,10451,0,-73.909207,40.823227
Wyoming,742276,JAC,A PLUS CONVENIENCE STORES INC,7 ELEVEN STORE #35098B,64,S MAIN ST,WARSAW,NY,14569,1200,-78.132605,42.738967
Orange,331114,JAC,QUICK CHEK CORP,QUICK CHEK #126,751-761,RT 211,MIDDLETOWN,NY,10941,0,-74.354672,41.466483
Suffolk,706476,JAC,BELLO LIVESTOCK CORP,BELLO MARKET,411,UNION AVE,HOLBROOK,NY,11741,300,-73.076317,40.812483
Bronx,743163,A,CB GAS CORP,GULF,1805,WEBSTER AVE,BRONX,NY,10457,400,-73.90206,40.845845
Rockland,749866,JAC,JOTA MINI MART CORP,JOTA MINI MART,50,BROADWAY,HAVERSTRAW,NY,10927,0,-73.96478,41.198234
New York,704936,JAC,ALL FRESH GROCERY & DELI CORP,ALL FRESH GROCERY & DEL,334,E 106TH ST,NEW YORK,NY,10029,1800,-73.941059,40.790043
Bronx,748045,JAC,BRONX FISH MARKET INC,KIMS FISH MARKET,555,MORRIS AVE,BRONX,NY,10451,0,-73.922622,40.817703
Dutchess,740033,A,BACKWOODS TRADING COMPANY LLC,BACKWOODS TRADING COMPA,7,E MARKET STREET,RED HOOK,NY,12571,800,-73.875154,41.994971
Kings,712410,JAC,204 UNION FOOD CORP,BROOKLYN HARVEST MARKET,204,UNION AVE,BROOKLYN,NY,11211,4800,-73.950428,40.706792
Chautauqua,736916,A,PETERSON PEYTON TRISCARI,BIODOME PROJECT,207,PINE ST,JAMESTOWN,NY,14701,800,-79.239971,42.096054
Dutchess,702897,JAC,CHESTNUT MART INC,CHESTNUT MART INC-2063,2063,NEW HACKENSACK RD,POUGHKEEPSIE,NY,12603,1600,-73.874638,41.655886
Saratoga,410133,A,CLASSIC INITIATIVE INC,AND ROSES,1536,CRESCENT RD,CLIFTON PARK,NY,12065,2500,-73.774139,42.819027
Kings,733560,JAC,SONGS UTICA MARKET CORP,UTICA FOOD MARKET,848,UTICA MARKET,BROOKLYN,NY,11203,2300,,
Westchester,737095,JAC,93 VILLAGE FARM CORP,93 VILLAGE FARM,93,KATONAH AVENUE,KATONAH,NY,10536,2500,-73.684148,41.258473
Onondaga,737824,JAC,BIG MIKES MARKET LLC,BIG MIKES MARKET,3000,JAMES STREET,SYRACUSE,NY,13206,0,-76.104966,43.068909
Kings,729642,JAC,JOON KYUK KO,ROHS FISH MARKET,776,FLATBUSH AVE,BROOKLYN,NY,11226,0,-73.959517,40.653904
Rockland,705769,JAC,M&S KOLEL CANDY INC,M&S KOLEL CANDY,37,TRUMAN AVE,SPRING VALLEY,NY,10977,300,-74.026002,41.138094
Kings,746988,JAC,HAPPY LAND DELI CORP,HAPPY LAND DELI,189,UTICA AVE,BROOKLYN,NY,11213,0,-73.930799,40.672244
Kings,671321,JAC,E&F DELI GROCERY CORP,E&F DELI GROCERY,570,ALBANY AVE,BROOKLYN,NY,11203,3000,-73.939801,40.66067
Ulster,510603,A,ELLENVILLE BEER & SODA INC,ELLENVILLE DISCOUNT BEV,41,N MAIN ST,ELLENVILLE,NY,12428,4500,-74.392196,41.721219
Onondaga,311248,JAC,MURSAL AHMED,MURSALS MARKET,622,N SALINA ST,SYRACUSE,NY,13208,800,-76.152547,43.059796
Queens,743799,JAC,R & B SEAFOOD SUPERMARKET INC,R & B SEAFOOD,93-17,63RD DR,REGO PARK,NY,11374,1500,-73.863414,40.728411
Bronx,735798,A,DOLLAR TREE STORES INC,DOLLAR TREE #06183 10/4,259,E 138TH ST,BRONX,NY,10451,0,-73.928131,40.81173
Dutchess,130579,A,ECKERD CORP,RITE AID 10713,709,MAIN ST,POUGHKEEPSIE,NY,12601,10000,-73.907852,41.697327
New York,713621,A,CVS ALBANY LLC,CVS PHARMACY #10583,636,6TH AVE,NEW YORK,NY,10011,0,-73.994495,40.740581
Onondaga,310819,A,DOLGEN NEW YORK LLC,DOLLAR GENERAL #10325,602,OLD LIVERPOOL RD,LIVERPOOL,NY,13088,6400,-76.190362,43.089976
Nassau,280370,JAC,MADERA JOSE R&JOSE M,JM SUPERETTE,254,LAWRENCE AVENUE,LAWRENCE,NY,11559,1750,-73.737421,40.617886
Suffolk,712595,JAC,HARICRUPA SMOKE & CONVENIENCE INC,HARICRUPA SMOKE & CONVE,122,MASTIC RD,MASTIC BEACH,NY,11951,0,-72.851741,40.768949
Erie,146211,JAC,KELLYS COUNTRY STORE INC,KELLYS COUNTRY STORE,3121,GRAND ISLAND BLVD,GRAND ISLAND,NY,14072,15000,-78.986336,43.046543
Kings,733670,JAC,EAST NEW YORK FRUIT&VEG111 INC,EAST NEW YORK FRUIT&VEG,330,NEW LOTS AVE,BROOKLYN,NY,11207,1000,-73.894486,40.661219
New York,735866,JAC,TRIADA MINIMARKET CORP,TRIADA MINIMARKET,157,BROOME STREET,NEW YORK,NY,10002,2200,-73.985236,40.716604
Onondaga,316245,JAC,A&N FOODS INC,MIDDLE EAST SUPERMARKET,1919,S STATE ST,SYRACUSE,NY,13205,3000,-76.143375,43.025978
Columbia,105119,JABC,HAWTHORNE VALLEY ASSOCIATION INC,HAWTHORNE VLLY FRM STRE,327,RT 21C HARLEMVILLE,GHENT,NY,12075,8500,-73.594253,42.270332
Monroe,709471,JAC,ALMAR MEAT MARKETS LLC,EMPIRE MEATS 2,626,WEST MAIN ST.,ROCHESTER,NY,14611,0,-77.62939,43.151834
Bronx,749190,A,BEYOND SNACKS INC,BEYOND SNACKS,575,E 161ST STREET,BRONX,NY,10456,0,-73.909527,40.822437
Clinton,741705,A,PARKER FAMILY MAPLE FARM LLC,PARKER FAMILY MAPLE FAR,1043,SLOSSON RD,WEST CHAZY,NY,12992,7000,-73.54413,44.833379
Bronx,709830,JACH,KANESHIE KENKEY HUT INC,KENKEY HUT,2427-11,WEBSTER AVE,BRONX,NY,10458,500,-73.8936,40.859347
Albany,10773,JAC,CUMBERLAND FARMS INC,CUMBERLAND FARMS #1662,68,RT 9W,GLENMONT,NY,12077,0,-73.777744,42.62144
Dutchess,130027,JAC,STEWARTS SHOPS CORP,STEWARTS SHOP 325,2048,RT 9D,WAPPINGERS FALLS,NY,12590,2400,-73.940443,41.561739
Suffolk,471600,A,TOYS R US INC,BABIES R US,5181,SUNRISE HWY,BOHEMIA,NY,11716,0,-73.091356,40.763476
Queens,743070,JAC,LEES FAMILY FARM CORP,LEES FAMILY FARM,2901,BROADWAY,ASTORIA,NY,11106,0,-73.926868,40.762669
Monroe,706463,JAC,NELSON NICOLE,LAKESIDE DELI & MORE,4888,ST PAUL BLVD,ROCHESTER,NY,14617,1600,-77.597696,43.24653
Queens,749413,JAC,HORTONS MARKET LLC,HORTON'S MARKET,14-53,31ST AVENUE #C1,ASTORIA,NY,11106,0,-73.93019,40.767471
Bronx,732337,JAC,M-D 183 DELI CORP,MD 183 DELI,765,E 183RD STREET,BRONX,NY,10460,1100,-73.88353,40.851417
Saratoga,410487,A,GURU NDH INC,ANCHOR BEVERAGE CTR 1,73,SARATOGA AVE,SOUTH GLENS FALLS,NY,12803,7000,-73.636519,43.293708
Kings,744692,JAC,JUS BAR LLC,JUS BY JULIE,502,AVENUE U,BROOKLYN,NY,11223,1500,-73.966709,40.5977
Niagara,728477,JAC,SCALISES DELI LLC,SCALISES DELI,158,SCHENCK STREET,NORTH TONAWANDA,NY,14120,0,-78.874511,43.030946
New York,725920,JAC,H & S MINI DELI CORP,H & S MINI DELI,2320,AMSTERDAM AVE,NEW YORK,NY,10033,0,-73.933533,40.84451
Niagara,739095,JAC,C & C BROTHERS INC,C & C BROTHERS,2065,RIVER ROAD,NIAGARA FALLS,NY,14304,2500,-78.940076,43.071089
New York,749393,JAC,SANTO ENTIERRO DE XALPATLAHUAC LL,SANTO ENTIERRO DE XALPA,2106,AMSTERDAM AVE,NEW YORK,NY,10032,0,-73.938609,40.837567
Suffolk,738602,A,SHIL INC,JERICHO GROCERY CONVENI,1058,E JERICHO TPKE,HUNTINGTON,NY,11743,1000,-73.369822,40.835226
Bronx,748446,A,FORDHAM CONVEN & GRO MART INC,FORDHAM CONVENIENCE,38,W FORDHAM RD,BRONX,NY,10468,850,-73.902912,40.862712
Yates,570118,A,SOKOLOWSKI KEITH,BEVERAGE BARON THE,136,LAKE ST,PENN YAN,NY,14527,2000,-77.054839,42.657136
Kings,612413,JAC,GLATT MART INC,GLATT MART,1205,AVENUE M,BROOKLYN,NY,11230,3500,-73.962622,40.6177
New York,626499,JAC,CREATIVE HEALTH FOOD STORE INC,CREATIVE HEALTH,2801,BROADWAY,NEW YORK,NY,10025,500,-73.967687,40.802976
New York,727236,JAC,SEAFOOD KING FISH MARKET INC,SEAFOOD KING FISH MARKE,3903-3905,BROADWAY,NEW YORK,NY,10032,0,-73.942198,40.837921
Suffolk,711520,JAC,SANT BABA KARMJOT CORP,112 BP MINI MART,3417,RT 112,MEDFORD,NY,11763,500,-72.997181,40.846747
Queens,742630,JAC,HANS KF CORP,KEY FOOD,148-35,JAMAICA AVENUE,JAMAICA,NY,11435,0,-73.805854,40.701832
Suffolk,472971,A,GENOVESE DRUG STORES INC,RITE AID 10671,864,MIDDLE COUNTRY ROAD,MIDDLE ISLAND,NY,11953,5000,-72.940214,40.883561
Erie,142827,A,DOLGEN NEW YORK LLC,DOLLAR GENERAL #12803,3079,BAILEY AVE,BUFFALO,NY,14215,9000,-78.813645,42.938754
Tompkins,702951,A,BROWNIES PRODUCE MARKET LLC,BROWNIES PRODUCE MARKET,1901,TRUMANSBURG RD,TRUMANSBURG,NY,14886,1000,-76.620459,42.51316
Westchester,551315,JAC,CRR ENTERPRISES LTD,FOOD SHOP,155,S HIGHLAND AVE,OSSINING,NY,10562,1000,-73.860433,41.148885
Kings,741593,A,MNS 99 CENTS & UP INC,MNS 99 CENTS & UP,1445,FULTON ST,BROOKLYN,NY,11216,2000,-73.943492,40.680061
Schenectady,721825,A,FAMILY DOLLAR STORES OF NY INC,FAMILY DOLLAR #11668,948,STATE ST,SCHENECTADY,NY,12307,3000,-73.930813,42.804096
Onondaga,720493,JAC,SPEEDWAY LLC,SPEEDWAY #07646,5323,W GENESEE ST,CAMILLUS,NY,13031,1645,-76.272551,43.041134
Monroe,705431,A,MAXIM MINI MART LLC,MAXIM MINI MART,264,CLIFFORD AVE,ROCHESTER,NY,14621,0,-77.616747,43.174799
Kings,749463,JAC,BEST FOOD MINI MARKET 2 CORP,BEST FOOD MINI MARKET,640,BLAKE AVE,BROOKLYN,NY,11207,0,-73.895252,40.667765
Suffolk,731883,JAC,SECOND NATURE EAST INC,SECOND NATURE MARKET,78B,PARK PLACE,EAST HAMPTON,NY,11937,550,-72.187031,40.963414
Queens,639186,JAC,VBA ENTERPRISES INC,VBA ENTERPRISES,16-04,MOTT AVE,FAR ROCKAWAY,NY,11691,1100,-73.749888,40.602645
Jefferson,732030,JAC,RIVER RETAIL INC,1000 ISLANDS OILS & VIN,229,JOHN STREET,CLAYTON,NY,13624,0,-76.087606,44.241841
Oneida,300242,JABC,ROMA SAUSAGE INC,ROMA SAUSAGE,2029,BLEECKER ST,UTICA,NY,13501,2000,-75.194079,43.090741
Bronx,603841,JAC,BRONX 656 FOOD CORP,KEY FOOD SUPERMARKET,656,CASTLE HILL AVE,BRONX,NY,10473,35000,-73.848209,40.820109
Suffolk,473491,JAC,KRASZEWSKI HENRY,HANKS PUMPKINTOWN,240,MONTAUK HWY,WATER MILL,NY,11976,1500,-72.365801,40.902594
Queens,741435,JAC,NUT ORCHARD INC,NUT ORCHARD,41-39,KISSENA BLVD,FLUSHING,NY,11355,100,-73.828359,40.757828
Niagara,740374,JAC,A PLUS CONVENIENCE STORES INC,7 ELEVEN #35144A,433,DIVISION ST,NORTH TONAWANDA,NY,14120,2000,-78.861889,43.035062
Oneida,703143,JAC,PATLA ENTERPRISES INC,JOE'S JERKY,190,E STATE ST,SHERRILL,NY,13461,1800,-75.59057,43.075157
Monroe,742791,JAC,ZIPS FOOD AND BEVERAGE STORE INC,ZIPS FOOD AND BEVERAGE,216-218,EAST MAIN ST,ROCHESTER,NY,14604,0,-77.606708,43.157085
Kings,619330,A,PROGOTI GROCERY STORES INC,PROGOTI GROCERY STORE,477,MCDONALD AVE,BROOKLYN,NY,11218,900,-73.979377,40.642478
Orange,706290,JAC,STAUBER PERFORMANCE INGREDIENTS I,STAUBER PERFORMANCE ING,41,BRIDGE ST,FLORIDA,NY,10921,100000,-74.363483,41.331143
Kings,727660,JAC,87TH STREET ORGANIC INC.,87TH STREET ORGANIC,8623,3RD AVENUE,BROOKLYN,NY,11209,1500,-74.031318,40.62285
Orange,750564,JAC,SIMPLE BUT HONEST LLC,TALTY BAR,14,FIELDS LANE STE LL2,MONROE,NY,10950,0,-74.264113,41.295326
Oneida,738129,JAC,UT ONE CORPORATION,A & R MINI MART,627,WILLIAMS STREET,UTICA,NY,13502,0,-75.243966,43.099232
Saratoga,410459,A,WALGREEN EASTERN CO INC,WALGREENS #12690,121,OLD ROUTE 146,CLIFTON PARK,NY,12065,10000,-73.77663,42.86416
Warren,720702,JAC,SPEEDWAY LLC,SPEEDWAY #07789,527,AVIATION RD,QUEENSBURY,NY,12804,0,-73.68129,43.32997
Oneida,722297,JAC,STEWARTS SHOPS CORP,STEWARTS SHOP #455,5319,STATE RT 233,WESTMORELAND,NY,13490,0,-75.405205,43.120071
Kings,612267,A,VISHAL REALTY INC,CANDY VIDEO&NEWSTAND,416,86TH ST,BROOKLYN,NY,11209,0,-74.027905,40.622516
New York,738716,JAC,2029 STOP 1 DELI & GROCERY INC,2029 STOP 1 DELI & GROC,2029,1ST AVENUE,NEW YORK,NY,10029,1900,-73.940716,40.788732
Schenectady,730781,JAC,"D MART ENTERPRISES, INC",D MART,445,STATE STREET,SCHENECTADY,NY,12305,1000,-73.941157,42.812372
Nassau,746917,JAC,LUS LICENSING LLC,LIDL,271,JERICHO TURNPIKE,SYOSSET,NY,11791,50000,-73.505208,40.810291
Kings,721478,JAC,G & L ORGANIC DELI INC,G & L ORGANIC DELI,685,METROPOLITAN AVE,BROOKLYN,NY,11211,0,-73.946269,40.714353
Livingston,240140,A,DOLGEN NEW YORK LLC,DOLLAR GENERAL #6318,3337,CALEDONIA-AVON RD,CALEDONIA,NY,14423,8300,-77.842884,42.964296
New York,738792,JAC,50 WEST ENTERPRISE INC,HUDSON CAFE & GROCERY,50,WEST STREET,NEW YORK,NY,10006,1000,-74.015441,40.707857
Nassau,746097,A,TURNPIKE EXPRESS INC,TURNPIKE EXPRESS,202,ROCKAWAY TPKE,CEDARHURST,NY,11516,500,-73.731709,40.618613
Kings,719944,A,17TH MINI MART INC,17TH MINI MART,8306,17TH AVENUE,BROOKLYN,NY,11214,1500,-74.003246,40.610143
Tompkins,500064,A,ALDI INC,ALDI 11,505,3RD ST,ITHACA,NY,14850,15000,-76.507226,42.449027
New York,751071,JAC,SOLAR MERIDIAN CORP,WESTSIDE MARKET PLACE,790,11TH AVENUE STORE #4,NEW YORK,NY,10019,0,-73.992487,40.768848
Broome,30424,JAC,WEIS MARKETS INC,WEIS MARKETS #215,412,DAY HOLLOW RD,ENDICOTT,NY,13760,78000,-76.07218,42.110952
Wayne,540135,A,DOLGEN NEW YORK LLC,DOLLAR GENERAL 8643,204,W MILLER ST,NEWARK,NY,14513,10000,-77.097737,43.04566
Kings,731301,A,AL-MEDINA PHARMACY INC,AL-MEDINA PHARMACY,1242,FLATBUSH AVE,BROOKLYN,NY,11226,0,-73.955142,40.640006
Ulster,738172,JAC,SCARBOROUGH FARE LLC,SCARBOROUGH FARE OLIVE,15,N FRONT STREET,NEW PALTZ,NY,12561,0,-74.085896,41.749377
Kings,741821,JAC,SAM DETOX DELI & GRILL INC,SAM DETOX DELI & GRILL,1144,HALSEY STREET,BROOKLYN,NY,11207,0,-73.910828,40.690194
Yates,704344,JACDK,DUDLEY POULTRY INC,DUDLEY POULTRY,910,RT 245,MIDDLESEX,NY,14507,0,-77.264381,42.717523
Warren,520221,JAC,HAPPY JACK SHOPS INC,MRS WHIZZY-FIZZ-POPP'S,4938,LAKE SHORE DR,BOLTON LANDING,NY,12814,900,-73.655401,43.556087
Westchester,551812,A,BUY BUY BABY INC,BUY BUY BABY,1019,CENTRAL PARK AVE,SCARSDALE,NY,10583,35000,-73.823779,40.988427
Broome,724367,A,CHETAN V PATEL,QUALITY MARKET,1206,VESTAL AVENUE,BINGHAMTON,NY,13903,1200,-75.913039,42.089494
Jefferson,735157,JAC,7-ELEVEN INC,A PLUS #40503H,19221,US RT 11 S,WATERTOWN,NY,13601,2400,-75.915871,43.944895
Chemung,714746,JAC,JAMQSB INC,QUICK STOP BEVERAGE AND,900,BROADWAY,ELMIRA,NY,14904,0,-76.816847,42.063127
Dutchess,734410,JAC,MAYA SNACKS & DELI LLC,MAYA SNACKS & DELI,469,MAIN STREET,POUGHKEEPSIE,NY,12601,600,-73.920676,41.701637
Queens,740210,A,ROCKAWAY BEACH MART INC,ROCKAWAY BEACH MART,115-20,BEACH CHANNEL,ROCKAWAY PARK,NY,11694,850,-73.837994,40.581886
Albany,15180,JAC,CUMBERLAND FARMS INC,CUMBERLAND FARMS 1520,1093,RT 9,COHOES,NY,12047,1800,-73.672575,42.502549
Suffolk,738112,JAC,SOLNTSE HOT YOGA LLC,SOLNTSE HOT YOGA,5768,ROUTE 25A UNIT U,WADING RIVER,NY,11792,0,-72.82031,40.944678
Kings,741343,JAC,BATH FRESH DELI AND GROCERY CORP,BATH FRESH DELI & GROCE,2272,BATH AVE,BROOKLYN,NY,11214,0,-73.995435,40.597229
Westchester,551532,A,BELL RICHARD,PELHAM PRODUCE,109,5TH AVE,PELHAM,NY,10803,800,-73.809065,40.912513
New York,628067,A,DUANE READE ET AL PRTS,DUANE READE 14417,568-574,W 125TH ST,NEW YORK,NY,10027,9000,-73.957741,40.815008
Kings,615876,A,RITE AID OF NEW YORK INC,RITE AID 4712,9302,3RD AVE,BROOKLYN,NY,11209,3000,-74.033116,40.618429
Kings,672218,JAC,293 BROADWAY DELI&GROCERY CORP,293 BROADWAY DELI&GRCRY,293,BROADWAY,BROOKLYN,NY,11211,1000,-73.958198,40.708511
Queens,733950,A,RACHEL GROCERY STORE INC,RACHEL GROCERY STORE,86-22,WHITNEY AVE,ELMHURST,NY,11373,1800,-73.878551,40.742065
Albany,15683,JAC,STEWARTS SHOPS CORP,STEWARTS SHOP 267,204,HENRY JOHNSON BLVD,ALBANY,NY,12210,2000,-73.75889,42.663388
Bronx,607557,JAC,PLAZA BANI FOOD CORP,LA PLACITA BENILEJA,3001,KINGSBRIDGE TERR,BRONX,NY,10463,1702,-73.901964,40.875907
Nassau,703708,A,TUTAL CONVENIENCE INC,TUTAL CONVENIENCE,567A,BROADWAY,MASSAPEQUA,NY,11758,600,-73.468881,40.681896
Putnam,743384,A,FASTIGGI LINDSAY,SPICE REVOLUTION,161,MAIN ST,COLD SPRING,NY,10516,1000,-73.956005,41.419263
Westchester,552688,A,WALGREEN EASTERN CO INC,WALGREENS #11509,6,MCLEAN AVE,YONKERS,NY,10705,25000,-73.895926,40.92066
Queens,634454,JAC,COUNTRY BOY 1 CORP,COUNTRY BOY DELI&GROCER,97-10,32ND AVE,EAST ELMHURST,NY,11369,2000,-73.871223,40.758927
Dutchess,720206,JAC,HUDSON VALLEY FARMERS MKT LLC,HUDSON VALLEY FRMS MKT,227,PITCHER LANE,RED HOOK,NY,12571,3400,-73.854702,42.027761
Kings,715310,A,FAMILY DOLLAR STORES,FAMILY DOLLAR STORE #31,294-304,MACDOUGAL ST,BROOKLYN,NY,11233,0,-73.908724,40.68055
Erie,745697,A,SIRI ASIAN MARKET LLC,SIRI ASIAN MARKET,357,ONTARIO ST,BUFFALO,NY,14207,1270,-78.899875,42.953895
Rensselaer,380402,A,WALGREEN EASTERN CO INC,WALGREENS #10548,549,HOOSICK ST,TROY,NY,12180,14000,-73.657976,42.739729
Nassau,283132,JAC,A&F BUTCHER INC,A&F MARKET,393,PLANDOME RD,MANHASSET,NY,11030,2500,-73.699848,40.797996
Rensselaer,385542,JAC,STEWARTS SHOPS CORP,STEWARTS SHOP 352,95,TROY RD,EAST GREENBUSH,NY,12061,2000,-73.701881,42.620196
Kings,702086,JAC,COLLADO DELI GROCERY CORP,COLLADO DELI GROCERY,221,CENTRAL AVE,BROOKLYN,NY,11221,800,-73.923654,40.697204
Suffolk,742095,JAC,J&G MARKET CORPORATION,WEIR'S COMMUNITY MARKET,495,GRANNY ROAD,MEDFORD,NY,11763,3000,-72.974593,40.850438
New York,625797,A,HEALTHSOURCE PHARMACY II INC,HEALTHSOURCE PHARMACY,120,E 34TH ST,NEW YORK,NY,10016,1200,-73.98014,40.746586
Suffolk,472874,A,JOVAD INC,JOVAD DISCOUNT 99 CENT,10A,E SUFFOLK AVE,CENTRAL ISLIP,NY,11722,1000,-73.200906,40.790916
Westchester,713911,JAC,PACE UNIVERSITY,PACE MART@MORTOLA LIBRY,861,BEDFORD RD,PLEASANTVILLE,NY,10570,300,-73.805183,41.125591
Kings,711270,JAC,ANGEL DELI FOOD CORP,ANGEL DELI FOOD,713,DECATUR ST,BROOKLYN,NY,11233,800,-73.914774,40.683593
Nassau,725345,JAC,BENTO NOUVEAU INC,BENTO SUSHI,5508,SUNRISE HWY,MASSAPEQUA,NY,11758,100,-73.436341,40.678556
Kings,611397,JAC,DANISH CONVENIENCE 6 INC,DANISH CONVENIENCE  STO,7826,3RD AVE,BROOKLYN,NY,11209,1500,-74.028939,40.628653
Kings,742244,JAC,GALLON DELI GROCERY II CORP,GALLON DELI GROCERY II,553,HINSDALE STREET,BROOKLYN,NY,11207,0,-73.897956,40.661241
Suffolk,736291,JAC,RGK MINI MART INC,RGK MINI MART,1427,MAIN ROAD,JAMESPORT,NY,11947,1000,-72.587621,40.947626
New York,626558,A,DUANE READE ETAL PTRS,DUANE READE 14225,2864,BROADWAY,NEW YORK,NY,10025,6760,-73.966046,40.804903
Chautauqua,60001,JAC,BORDEN AUTO WASH ENTERPRISES INC,LAKEWOOD CONVENIENCE ST,184,E FAIRMOUNT AVE,LAKEWOOD,NY,14750,1500,-79.313743,42.09768
Genesee,180150,JAC,ATTICA CITGO LLC,ATTICA CITGO,151,PROSPECT ST,ATTICA,NY,14011,3000,-78.276656,42.871466
Westchester,725180,JAC,6 TITOS DELI & GROCERY CORP,TITOS DELI GROCERY,6,POST ST,YONKERS,NY,10705,1200,-73.896482,40.919998
Oneida,300522,JAC,B&S VILLAGE GROCERY LLC,FALLS VILLAGE MARKET,187,N MAIN ST,ORISKANY FALLS,NY,13425,1500,-75.460787,42.939833
Ulster,740089,JAC,186 MAIN LLC,DELI/CONVENIENCE STORE,186,MAIN STREET,NEW PALTZ,NY,12561,4200,-74.078344,41.746053
Queens,636882,A,FRESH POND NUTRITION CORP,GNCK #8058,66-69,FRESH POND RD,RIDGEWOOD,NY,11385,1000,-73.897079,40.706783
Bronx,606151,JAC,CACHET DELI FOOD CORP,CACHET DELI FOOD,1425,MACOMBS RD,BRONX,NY,10452,800,-73.917638,40.84133
Niagara,295595,JABCD,CRAFTS&CREATIONS INC,KENYONS VARIETY,6550,ROBINSON RD,LOCKPORT,NY,14094,7000,-78.678844,43.131826
Kings,709771,JAC,EXCLUSIVE DECORATORS INC,EXCLUSIVE DECORATORS,162,WILLIAMSBURG ST EAST,BROOKLYN,NY,11211,800,-73.95908,40.704483
Kings,614965,A,UTICA AVE NEWSTAND & GROCERY INC,UTICA AVE NEWSTAND&GRCY,1251,UTICA AVE,BROOKLYN,NY,11203,1000,-73.929337,40.641905
New York,626615,A,DUANE READE ETAL PRTS,DUANE READE 14155,2,PENN PLZ,NEW YORK,NY,10119,7650,,
Rensselaer,743998,JAC,STEWARTS SHOPS CORP,STEWARTS SHOP #354,1540,COLUMBIA TPKE,CASTLETON ON HUDSO,NY,12033,2000,-73.690382,42.577752
Livingston,732533,A,WALGREEN EASTERN CO INC,WALGREENS #18168,40,EAST STATE STREET,MOUNT MORRIS,NY,14510,10864,-77.867908,42.727885
Erie,142464,JAC,ROC CITY MARKET INC,CITYWIDE FOOD MARKET,137,MAPLE ST,BUFFALO,NY,14204,4500,-78.863215,42.896599
Greene,190141,A,FAMILY DOLLAR STORES OF NY INC,FAMILY DOLLAR #5499,388,MAIN ST,CAIRO,NY,12413,7637,-73.995861,42.297238
Clinton,721660,JAC,MATT JABAUT HOLDINGS INC,JABAUTS DELI,120,CORNELIA ST,PLATTSBURGH,NY,12901,1500,-73.459596,44.69898
Westchester,710870,JAC,M & G FUEL SOLUTIONS LLC,M & G FUEL SOLUTIONS,457,MAMARONECK AVE,WHITE PLAINS,NY,10605,0,-73.760634,41.023043
New York,744851,JAC,CANTIFLAS MEXICAN DELI CORP,CANTIFLAS MEXICAN DELI,1916,3RD AVENUE,NEW YORK,NY,10029,0,-73.944837,40.791356
Nassau,280587,A,TUZZOLO THOMAS,HORN OF PLENTY,1630,HILLSIDE AVE,NEW HYDE PARK,NY,11040,720,-73.68319,40.749144
Kings,750390,A,BUYK CORP,BUYK,8904,5TH AVE,BROOKLYN,NY,11209,0,-74.027821,40.619631
Queens,734048,JAC,3 IN 1 DELI GROCERY INC,3 IN 1 DELI GROCERY,131-11,JAMAICA AVENUE,RICHMOND HILL,NY,11418,1200,-73.820728,40.70209
Kings,740827,JAC,BUY BETTER FOODS INC,BUY BETTER FOODS,372,KOSCIUSZKO ST,BROOKLYN,NY,11221,900,-73.939832,40.691951
Nassau,735997,JAC,COCO CONFECTIONS AND COFFEE LLC,COCO COFFEE CONFECTIONS,365,GLEN COVE AVE,SEA CLIFF,NY,11579,0,-73.634383,40.84075
Bronx,749109,JAC,LOS 4 CHAROS DELI GROCERY CORP,LOS 4 CHAROS DELI GROCE,1437,BEACH AVE,BRONX,NY,10460,1600,-73.867038,40.836293
New York,621661,A,LIN SISTER HERB SHOP INC,L S,4,BOWERY ST,NEW YORK,NY,10013,1800,-73.997482,40.714205
St. Lawrence,704486,JAC,KENT DANIEL & LANE MEGAN,KENT FAMILY GROWERS,1301,COUNTY RTE 31,LISBON,NY,13658,0,-75.239837,44.783877
Orange,729954,JACD,FINDING HOME FARMS LLC,FINDING HOME FARMS,140,EATONTOWN RD,MIDDLETOWN,NY,10940,6000,-74.548586,41.386538
New York,745578,JAC,140 CENTRE FINEST DELI CORP,140 CENTRE FINEST DELI,140,CENTRE ST,NEW YORK,NY,10013,500,-74.000534,40.717256
Fulton,170123,A,DOLGEN NEW YORK LLC,DOLLAR GENERAL #10752,37,ARTERIAL PLAZA,GLOVERSVILLE,NY,12078,6000,-74.324853,43.057495
Suffolk,737598,JAC,BOLLA OPERATING LI CORP,KINGS MEDFORD&OAK C-STO,113-07,MEDFORD AVENUE,PATCHOGUE,NY,11772,900,-73.007288,40.769851
Ulster,510679,JAC,CUB MARKET INC,CUB MARKET,3203,RT 212,BEARSVILLE,NY,12409,1100,-74.15541,42.041218
Erie,745666,JAC,1066 SHERIDAN RIVE LLC,DBL EXPRESS,1066,SHERIDAN DR,TONAWANDA,NY,14150,1500,-78.895067,42.98072
Westchester,551412,JAC,VAL BEN CORP,HERITAGE MEAT MARKET,8,HERITAGE CENTER RT 202,SOMERS,NY,10589,1000,,
Nassau,718106,JAC,KUNI INC,7 ELEVEN STORE #37058A,150,MERRICK RD,MERRICK,NY,11566,1500,-73.554037,40.654034
Kings,610637,JAC,BROTHERS INTL FOOD INC,GOURMET PLAZA,1663-1669,E 13TH ST,BROOKLYN,NY,11229,7500,-73.960125,40.608568
Monroe,735875,JAC,ELLIS SHAMIEKA,TOO PRETTY TO EAT,560,W RIDGE RD,ROCHESTER,NY,14615,1100,-77.641865,43.201731
Queens,742342,JAC,ELMHURST SUPERMARKET INC,SF SUPERMARKET,45-16,83RD ST.,ELMHURST,NY,11373,13030,-73.881645,40.741285
Kings,610824,JAC,CANGEMI CORP,RUSSOS MOZZARELLA&PASTA,363,7TH AVE,BROOKLYN,NY,11215,2000,-73.982411,40.665881
Kings,611691,JAC,GREAT GREEN SUPERMARKET INC,GREAT GREEN SUPERMARKET,6614,BAY PKWY,BROOKLYN,NY,11204,4200,-73.982362,40.612941
Rockland,390611,A,FAMILY DOLLAR STORES OF NY INC,FAMILY DOLLAR #2246,238-B,N MAIN ST,SPRING VALLEY,NY,10977,0,-74.04151,41.123336
Genesee,749524,JABC,CLEERE MARNY & DAVID,MCPHERSON ORCHARDS,7971,OATKA TRAIL,LE ROY,NY,14482,0,-77.955356,43.015421
Erie,742345,JAC,MORIARTY MEATS LLC,MORIARTY MEATS,1650,ELMWOOD AVE,BUFFALO,NY,14207,1,-78.878553,42.941716
Suffolk,721807,JAC,MIDPOINT MART INC,MOBIL,171,CARLETON AVE,EAST ISLIP,NY,11730,0,-73.192243,40.738885
Erie,149931,JAC,CONSUMERS BEVERAGES INC,CONSUMERS BEVERAGES,444,CAYUGA RD,CHEEKTOWAGA,NY,14225,12000,-78.744402,42.942572
Kings,710718,A,CARE FAST PHARMACY INC,CARE FAST PHARMACY,3771,NOSTRAND AVE,BROOKLYN,NY,11235,2000,-73.940195,40.591932
Erie,736910,JAC,J & J SUNRISE CORPORATION,SUGANDHA GROCERY & HALA,1105,BROADWAY ST #1,BUFFALO,NY,14212,1500,-78.833963,42.894117
Ulster,723300,A,A & J MART INC,MOBIL MART,1146,ROUTE 32,ROSENDALE,NY,12472,1800,-74.075172,41.847957
Ulster,510600,A,FAMILY DOLLAR STORES OF NY INC,FAMILY DOLLAR #4003,781,E CHESTER ST,KINGSTON,NY,12401,9000,-73.99061,41.958784
Bronx,607508,JAC,FIFTH TOWER GROCERY CORP,COMPARE SUPERMARKET,1091,BOSTON RD,BRONX,NY,10456,2000,-73.905132,40.827088
Kings,615181,A,CVS ALBANY LLC,CVS PHARMACY 02700,1402,SHEEPSHEAD BAY RD,BROOKLYN,NY,11235,13000,-73.954652,40.587512
Onondaga,722561,JAC,SONBYRNE SALES INC,BYRNE DAIRY #119 S BAY,5723,SOUTH BAY RD,CICERO,NY,13039,4400,-76.113948,43.146276
Bronx,743460,JAC,MERAN DELI GROCERY CORP,MERAN DELI GROCERY,1082,OLMSTEAD AVENUE,BRONX,NY,10472,0,-73.853539,40.829064
Bronx,717587,JAC,J A M W DELI & GROCERY CORP,HILL TOP DELI,1253,CASTLE HILL AVE,BRONX,NY,10462,0,-73.851332,40.833147
Kings,724378,JAC,DEVPOOJA DELI GROCERY INC,SANDWICH FACTORY,336,BUTLER STREET,BROOKLYN,NY,11217,0,-73.981642,40.680074
Kings,710170,JAC,EL ZAHRA HALAL MEAT CORP,EL ZAHRA HALAL MEAT,6926,5TH AVE,BROOKLYN,NY,11209,1500,-74.021251,40.632887
New York,720963,JAC,MILK AND HOPS 2 LLC,MILK AND HOPS,166,9TH AVE.,NEW YORK,NY,10011,1500,-74.002548,40.7448
Bronx,729215,JAC,AC MEAT MARKET & PRODUCE CORP,AC MEAT MARKET & PRODUC,1812,ARCHER STREET,BRONX,NY,10460,1000,-73.866717,40.837549
Monroe,707722,JAC,MALCHO'S 480 PLANK ROAD LLC,MALCHO'S 480 PLANK RD,480,PLANK RD,WEBSTER,NY,14580,1500,-77.507317,43.1824
Schuyler,440061,A,DOLGEN NEW YORK LLC,DOLLAR GENERAL 6915,142,N CATHERINE ST,MONTOUR FALLS,NY,14865,0,-76.845823,42.349576
Bronx,750342,JAC,263 GOURMET INC,263 GOURMET DELI,263,WEST KINGSBRIDGE ROAD,BRONX,NY,10463,0,-73.905332,40.873008
Nassau,719359,JAC,STOP & SHOP SUPERMARKET CO LLC TH,STOP & SHOP #2582,85,E PARK AVE,LONG BEACH,NY,11561,55000,-73.661918,40.588673
Onondaga,735244,JAC,7-ELEVEN INC,A PLUS #40425H,419,E TAFT RD.,SYRACUSE,NY,13212,3000,-76.128574,43.123293
Bronx,721516,JAC,SOTO GROCERY & DELI #2 INC,SOTO GROCERY & DELI #2,3308,BAILEY AVE,BRONX,NY,10463,0,-73.901046,40.879802
Nassau,729421,JAC,TASTE OF NEW YORK BEER AND GROCER,NEW YORK MARKETPLACE &,1230,OLD COUNTRY ROAD STE B,WESTBURY,NY,11590,14000,-73.554469,40.755701
Ulster,719710,JAC,CARAWAY TEA CO LLC,CARAWAY TEA CO,271,UPPER NORTH RD,HIGHLAND,NY,12528,13000,-73.964473,41.755148
Queens,734519,A,UNION CONVENIENCE STORE INCE,UNION CONVENIENCE STORE,162-16,UNION TURNPIKE,FRESH MEADOWS,NY,11366,990,-73.805097,40.721208
Kings,722703,JAC,STOP 1-45 FOOD MART CORP,STOP 1-45 FOOD MART,1975,UNION STREET,BROOKLYN,NY,11233,1000,-73.922943,40.667384
Suffolk,473462,JAC,LAIBA INC,PJ VILLAGE GROCERY,328,MAIN ST,PORT JEFFERSON,NY,11777,1500,-73.067525,40.944242
Suffolk,472638,A,CVS ALBANY LLC,CVS PHARMACY 02059,1012,LITTLE EAST NECK RD N,WEST BABYLON,NY,11704,8250,-73.358644,40.723685
Monroe,260971,A,TJX COMPANIES INC,TJ MA,3349,MONROE AVE,ROCHESTER,NY,14618,10000,-77.538251,43.102752
Kings,614035,JAC,J&J HOOPER FOOD CORP,J&J HOOPER FOODS,396-398,HOOPER ST,BROOKLYN,NY,11211,1250,-73.952125,40.710074
Nassau,737208,JAC,PINO REAL GROCERY CORP,PINO REAL GROCERY,118,N FRANKLIN STREET,HEMPSTEAD,NY,11550,3000,-73.627929,40.709979
Suffolk,471885,A,EMEK CORP,CITGO FOOD MART,236,LARKFIELD RD,EAST NORTHPORT,NY,11731,500,-73.324798,40.877214
Kings,736584,A,AMP USA INC,DUAL EAST WEST MARKET,321,BROADWAY,BROOKLYN,NY,11211,1600,-73.956881,40.708052
Bronx,721121,A,FAMILY DOLLAR STORE OF NY INC,FAMILY DOLLAR STORE #31,939,E TREMONT AVE,BRONX,NY,10460,0,-73.883183,40.841492
Onondaga,702485,JAC,MIAMI DELI OF SYRACUSE INC,MIAMI DELI OF SYRACUSE,700,MIDLAND AVENUE,SYRACUSE,NY,13205,1000,-76.153905,43.031577
Bronx,708878,JAC,ALEX MINI MARKET CORP,ALEX MINI MARKET,2865,WHITE PLAINS RD,BRONX,NY,10467,1100,-73.867342,40.867512
Kings,715494,JAC,M PERRICONE LLC,ANTHONYS BUTCHER & DELI,7324,THIRD AVE,BROOKLYN,NY,11209,1200,-74.027473,40.632251
New York,745910,JAC,JUICE PRESS LLC THE,JUICE PRESS,817,LEXINGTON AVE,NEW YORK,NY,10065,0,-73.966507,40.764509
New York,626220,JAC,GOLDEN PINEAPPLE AVE D CORP,COMPARE STR #687,71-75,AVENUE D,NEW YORK,NY,10009,6000,-73.976962,40.722405
Kings,745132,JAC,PEP BAKE HOUSE & COFFEE SHOP LLC,PEP BAKE HOUSE & COFFEE,532,NEPTUNE AVE.,BROOKLYN,NY,11224,0,-73.974081,40.579885
Erie,746177,A,BUFFALO HALAL FOOD & GROCERY INC,BUFFALO HALAL FOOD&GROC,2577,BAILEY AVE.C,BUFFALO,NY,14215,1100,-78.813677,42.924926
Suffolk,474453,JAW,JASON'S VINEYARDS INC,JASON'S VINEYARD,1785,MAIN RD,JAMESPORT,NY,11947,6000,-72.576076,40.953327
Rockland,390341,A,NISSAR AHMED,DEPOT DELI,6,SO MAIN ST,PEARL RIVER,NY,10965,1000,-74.021669,41.058784
Erie,147507,JABC,PRIN SEN INC,BUZ N BEE FOOD SHOPPE,2097,SENECA ST,BUFFALO,NY,14210,7200,-78.809268,42.854949
New York,629206,A,O&CO COLUMBUS CIRCLE INC,O&CO,10,COLUMBUS CIRCLE STE 111,NEW YORK,NY,10019,130,-73.982344,40.768189
Nassau,750006,JACH,BLUEBIRD CHOCOLATES INC,BLUEBIRD CHOCOLATES,8,AUDREY AVE,OYSTER BAY,NY,11771,0,-73.530876,40.872739
Bronx,705742,JAC,744 EAST TREMONT CORP,MI ANTILLANA FRUIT AND,744,E TREMONT AVE,BRONX,NY,10457,1400,-73.889522,40.844622
Steuben,460152,JAC,FUSCO DAVID M&AUDRA R,HATFIELDS CASH&CARRY,113,GANSEVOORT ST,BATH,NY,14810,2400,-77.315577,42.33641
Bronx,711869,JAC,239 INTERNATIONAL DELI DISCOUNT C,239 INTERNATIONAL DELI,239,E 181 ST,BRONX,NY,10457,0,-73.900416,40.854334
Dutchess,136200,JAC,STEWARTS SHOPS CORP,STEWARTS SHOP 302,1200,DUTCHESS TNPK,POUGHKEEPSIE,NY,12603,2400,-73.84696,41.721746
Erie,142891,JAC,I&A FOOD MARKET LLC,I&A FOOD MARKET,1445,E DELAVAN AVE,BUFFALO,NY,14215,1500,-78.803197,42.922756
Kings,671762,JAC,2673 PITKIN DELI INC,2673 PITKIN DELI,2673,PITKIN AVE,BROOKLYN,NY,11208,800,-73.873308,40.675199
Nassau,283526,JAC,PIGATT ANDRE,SUNDIAL HRBS&HBT FDS,538,JERUSALEM AVE,UNIONDALE,NY,11553,1000,-73.596918,40.701166
Suffolk,720518,JAC,SPEEDWAY LLC,SPEEDWAY #07673,870,OLD COUNTRY RD,RIVERHEAD,NY,11901,0,-72.67018,40.934301
Kings,719289,A,HUA XING GROCERY INC,HUA XING GROCERY,5701,FORT HAMILTON PKWY,BROOKLYN,NY,11219,0,-74.003478,40.634485
Bronx,751083,JAC,784 DELI GROCERY INC,784 DELI GROCERY,784,E 163RD STREET,BRONX,NY,10456,0,-73.902838,40.822645
Kings,737211,JAC,BOLLA OPERATING CORP,KINGS FLATBUSH EXT C-ST,185,FLATBUSH AVE EXT,BROOKLYN,NY,11201,0,-73.98363,40.694453
Queens,732580,A,MEI KANG INC,MEI KANG,45-74B,KISSENA BLVD,FLUSHING,NY,11355,1000,,
Clinton,95177,JAC,MALCOLM II&CO INC,EXPRESS LANE GROCERY &,20,BROAD ST,PLATTSBURGH,NY,12901,1000,-73.455411,44.69513
Monroe,260044,JAC,OZNOR CORP,CLAWSONS DELI & GROCERY,1231,AYRAULT RD,FAIRPORT,NY,14450,1800,-77.421485,43.079178
Orange,712220,JAC,RED BERRY FARM INC,RED BERRY FARM,357,RT 211 EAST,MIDDLETOWN,NY,10940,4000,-74.39632,41.4553
Suffolk,706203,A,AMAZING 99 CENT DISCOUNT INC,AMAZING 99 CENT DISCOUN,733,OLD COUNTRY RD,RIVERHEAD,NY,11901,2000,-72.666863,40.9347
Steuben,460068,JABC,PRATTSBURGH MARKET PLACE LLC,PRATTSBURG MARKET PLACE,1,MAIN ST,PRATTSBURG,NY,14873,9000,-77.289081,42.523597
Ulster,510500,A,DOLGEN NEW YORK LLC,DOLLAR GENERAL #6514,3139,RT 9W,SAUGERTIES,NY,12477,7500,-73.954787,42.057142
Suffolk,474983,A,DOLLAR TREE STORES INC,DOLLAR TREE #4856,2044,STATE ROUTE 112,MEDFORD,NY,11763,10000,-73.002315,40.809242
New York,730231,A,ALGANAD INC,ALGANAD GROCERY STORE,160,ORCHARD STREET,NEW YORK,NY,10002,1800,-73.988735,40.721049
Erie,141470,A,FAMILY DOLLAR STORES OF NY INC,FAMILY DOLLAR 5132,438,SOUTH PARK AVE,BUFFALO,NY,14204,6000,-78.863514,42.871557
Delaware,120101,JAC,MIRABITO HOLDINGS INC,QUICKWAY FOOD 59,1,W MAIN ST,SIDNEY,NY,13838,1920,-75.38991,42.313021
Westchester,739630,JAC,REYES DELLI LLC,REYES DELLI,274,RIVERDALE AVE.,YONKERS,NY,10705,1500,-73.900817,40.923396
Erie,748386,JAC,ALANWAR MARKET INC,ALANWAR MARKET,1902,NIAGARA ST,BUFFALO,NY,14207,1500,-78.902881,42.935759
Erie,732208,JAC,7-ELEVEN INC,A PLUS #40185H,1311,SHERIDAN DR,BUFFALO,NY,14217,2400,-78.88602,42.980798
Kings,610670,JAC,FM&A FOOD MARKET LLC,BRAVO SUPERMARKET,5818,4TH AVE,BROOKLYN,NY,11220,4000,-74.017798,40.641616
Rensselaer,380093,JAC,DEFAZIO ROCCO,DEFAZIO IMPORTS,264,4TH STREET,TROY,NY,12180,2000,-73.69076,42.723322
Nassau,287840,JAC,KOSHER CABANA INC,NASSAU KOSHER MEATS,495-497,BELLMORE AVE,EAST MEADOW,NY,11554,2500,-73.568811,40.705504
Schoharie,430094,JAC,PERRONES FARM INC,PERRONES FARM,2447,RT 7,COBLESKILL,NY,12043,1100,-74.440364,42.680911
Kings,718725,JAC,AUTUMN DELI GROCERY CORP,AUTUMN DELI GROCERY,120,AUTUMN AVENUE,BROOKLYN,NY,11208,2000,-73.871034,40.687304
Queens,740368,JAC,GAZALI EXPRESS GRILL & DELI CORP,GAZALI EXPRESS GRILL &,19-09,MOTT AVENUE,FAR ROCKAWAY,NY,11691,2500,-73.752103,40.603804
Erie,142749,JAC,XPRESS LANE 1 INC,XPRESS LANE 1,749,JEFFERSON AVE,BUFFALO,NY,14204,1628,-78.853965,42.895515
Bronx,745556,JAC,BRONX DELI GROCERY CORP,BRONX DELI GROCERY,285,E 165TH ST,BRONX,NY,10456,1200,-73.915796,40.829083
New York,735881,JAC,1933 DELI GROCERY CORP,1933 DELI GROCERY,1933,MADISON AVE,NEW YORK,NY,10035,600,-73.941069,40.805196
Monroe,729332,JAC,QUINTANA ENTERPRISE INC,QUINTANA MINI MART,1688,CLIFFORD AVE,ROCHESTER,NY,14609,0,-77.576575,43.175802
Rensselaer,719680,JAC,STEWARTS SHOPS CORP,STEWARTS SHOPS #158,3516,US 20,NASSAU,NY,12123,0,-73.618509,42.517689
Kings,750184,JAC,QAMAR FOOD CORP,QAMAR FOOD,1505,SAINT JOHNS PL,BROOKLYN,NY,11213,0,-73.927899,40.670413
Bronx,724178,JAC,LOLAS DELI & GROCERY CORP,LOLAS DELI & GROCERY,4008,BRONXWOOD AVE,BRONX,NY,10466,0,-73.854197,40.886924
Suffolk,747941,JAC,EL  CAMPO DELI GROCERY INC,EL CAMPO DELI GROCERY,1133,MONTAUK HWY,MASTIC,NY,11950,0,-72.857274,40.802968
Queens,750833,JAC,KAZI DELI 1 CORP,KAZI DELI 1,114-64,B MERRICK BLVD,JAMAICA,NY,11434,800,-73.778059,40.690026
Schenectady,735218,A,ALDI INC,ALDI #83,303,SARATOGA ROAD,SCHENECTADY,NY,12302,15000,-73.930364,42.873243
New York,623073,A,ALI MURAD&MIAH SYED K,M ALI GROCERY,127,LUDLOW ST,NEW YORK,NY,10002,200,-73.988445,40.719916
Kings,711312,A,NOSTRAND DISCOUNT INC,NOSTRAND DISCOUNT,566,NOSTRAND AVE,BROOKLYN,NY,11216,5000,-73.949625,40.679194
Bronx,744027,JAC,CARDAMON MAN LLC THE,THE CARDAMOM MAN,50,EAST 168TH ST,BRONX,NY,10452,0,-73.918965,40.836632
Orange,747587,JAC,REB FISHEL INC,REB FISHEL,30,VALLEY AVE,CENTRAL VALLEY,NY,10917,0,-74.118462,41.332683
Kings,743729,JAC,CHURCH DELI CORP,CHURCH DELI,4823,CHURCH AVE,BROOKLYN,NY,11203,1500,-73.931558,40.651681
Kings,721336,A,KHALID MOATH,FAMILY DELI & GROCERY I,1485,FLATBUSH AVENUE,BROOKLYN,NY,11210,0,-73.949063,40.634146
Bronx,748726,JAC,6 STARS COURMET DELI CORP,6 STARS GOURMET DELI,2291,CROTONA AVE,BRONX,NY,10458,0,-73.884667,40.851862
Columbia,100186,JAC,CHATHAM BERRY FARM LLC THE,BERRY FARM THE,2309,RT 203,CHATHAM,NY,12037,3000,-73.633109,42.376181
Suffolk,470524,JAC,N&F SICILIAN DELI INC,J&G DELI,900,GREAT NECK RD,COPIAGUE,NY,11726,3200,-73.396891,40.674671
Niagara,716572,A,DOUBLE D QUICK STOP LLC,DOUBLE D QUICK STOP,419,24TH ST,NIAGARA FALLS,NY,14303,1400,-79.0331,43.089103
Kings,617670,A,FAMILY DOLLAR STORES OF NY INC,FAMILY DOLLAR STR #6208,1090,FULTON ST,BROOKLYN,NY,11238,5000,-73.957261,40.681468
Nassau,722930,A,WALGREEN EASTERN CO INC,WALGREENS #13961,12,E JERICHO TPKE,MINEOLA,NY,11501,13000,-73.633792,40.751654
Suffolk,750946,JAC,BOLLA OPERATING LI CORP,BOLLA 539 RT25 C-STORE,539,RT 25A,NORTHPORT,NY,11768,0,-73.337135,40.893216
Seneca,739337,JAC,SENECA COFFEE HOUSE INC,SENECA COFFEE HOUSE,7180,MAIN STREET UNIT 4B,OVID,NY,14521,0,-76.822808,42.676588
New York,740282,JAC,292 AMERICAN DELI INC,292 AMERICAN DELI,52,WEST 125TH STREET,NEW YORK,NY,10027,800,-73.944102,40.807192
St. Lawrence,400212,A,DOLGEN NEW YORK LLC,DOLLAR GENERAL 9558,7669,STATE HWY 68,OGDENSBURG,NY,13669,6161,-75.474556,44.689745
Bronx,713714,JAC,R&M 1 DELI GROCERY CORP,R&M 1 DELI GROCERY,2425,GRAND AVE,BRONX,NY,10468,1000,-73.903559,40.86238
Kings,617731,JAC,LA CANA FOOD CORP,C TOWN,346,CENTRAL AVE,BROOKLYN,NY,11221,6500,-73.919704,40.69498
Erie,142961,JAC,PRIYA AND MOHIT ENTERPRISES INC,MOBIL EXPRESS,1837,LOVE RD,GRAND ISLAND,NY,14072,1800,-78.959079,42.996096
Nassau,282871,A,CVS ALBANY LLC,CVS PHARMACY #745,594,ATLANTIC AVE EXT,EAST ROCKAWAY,NY,11518,3000,,
Nassau,732032,JAC,COVERT CONVENIENCE CORP,7 ELEVEN STORE 39854A,156,COVERT AVE,GARDEN CITY,NY,11530,2000,-73.68911,40.718393
Erie,703192,A,ALDI INC,ALDI STORE #84,998,BROADWAY ST,BUFFALO,NY,14212,3000,-78.836893,42.893504
Queens,746324,JAC,COATZINGO GROCERY CORP,COATZINGO GROCERY,7611,ROOSEVELT AVE,JACKSON HEIGHTS,NY,11372,0,-73.888935,40.74711
Suffolk,746483,JAC,COW HARBOR BEER COMPANY LLC,SAND CITY BREWING CO,150,S WELLWOOD AVE,LINDENHURST,NY,11757,10000,-73.372772,40.686165
Kings,716805,JAC,WINDSOR TERRACE FOOD COOPERATIVE,WINDSOR TERRACE FOOD CO,825,CATON AVE,BROOKLYN,NY,11218,1200,-73.972238,40.648026
Kings,745453,JAC,DSH FOOD INC,DSH FOOD,85,GRATTAN ST #87,BROOKLYN,NY,11237,0,-73.929619,40.705989
Cayuga,724087,JAC,KING FERRY CORNER STORE LLC,KING FERRY CORNER STORE,960,RT 34B,KING FERRY,NY,13081,5000,-76.616665,42.664957
Kings,737388,JAC,REEMA DELI & GROCERY INC,REEMA DELI & GROCERY,2022,NOSTRAND AVE,BROOKLYN,NY,11210,2000,-73.948007,40.636141
Tompkins,723939,JAC,MIRABITO HOLDINGS INC,MIRABITO STORE # 113,30-34,W MAIN ST,DRYDEN,NY,13053,0,-76.299712,42.490501
Erie,737862,JAC,ANGOLA LAKESIDE MARKET & BUTCHER,LAKESIDE MARKET,9155,LAKE SHORE RD,ANGOLA,NY,14006,6000,-79.072824,42.638326
Kings,618268,JAC,ALMONTE MILL FOOD CORP,KEY FOOD,6620,AVENUE U,BROOKLYN,NY,11234,10000,-73.910273,40.61778
Erie,141154,A,DOLLAR TREE STORES INC,DOLLAR TREE 1791,6363,TRANSIT RD,DEPEW,NY,14043,10500,-78.696924,42.930963
Suffolk,750465,JAC,LADERACH SMITH HAVEN NY LLC,LADERACH,313,SMITH HAVEN MALL UNIT L16A,LAKE GROVE,NY,11755,800,-73.132333,40.865827
Rensselaer,380274,A,CVS ALBANY LLC,CVS PHARMACY 00906,461,2ND AVE,TROY,NY,12182,9000,-73.679185,42.770401
Queens,744526,JAC,TWO BROTHERS DELI & GRILL CORP,TWO BROTHERS DELI,107-20,LIBERTY AVE,OZONE PARK,NY,11417,1000,-73.833965,40.683601
Kings,613903,A,MOHAMMAD KHALID&MOHAMMAD,CLINTON NEWS,200,CLINTON ST,BROOKLYN,NY,11201,500,-73.994205,40.69057
Bronx,708028,JAC,PARADISE MEAT CORP,PARADISE MEAT,2476,WILLIAMS BRIDGE RD,BRONX,NY,10469,6500,-73.857756,40.862468
Kings,750285,JAC,THE MILEU MARKET INC,THE MILEU MARKET,501,BUSHWICK AVENUE,BROOKLYN,NY,11206,0,-73.936489,40.700726
Kings,748587,JAC,TARGET CORP,TARGET STORE T-3356,8973-95,BAY PKWY,BROOKLYN,NY,11214,20000,-74.001722,40.594251
Kings,747580,JAC,PROSPECT BUTCHER VENTURES LLC,PROSPECT BUTCHER CO,665,VANDERBILT AVE,BROOKLYN,NY,11238,900,-73.969079,40.677082
Madison,739383,JAC,ALAMBRIA SPRINGS FARM LLC,HEARTSTONE ARTISAN BAKE,11,LINKLAEN ROAD,CAZENOVIA,NY,13035,0,,
Rockland,724420,JAC,HILLCREST MART INC,HILL CREST MART,267,N MAIN ST,SPRING VALLEY,NY,10977,0,-74.041201,41.127527
Erie,142559,JAC,ABUHAMRA AHMED M,WNY PETRO,155,JEFFERSON AVE,BUFFALO,NY,14210,3000,-78.854263,42.87926
Oneida,305335,JABC,STEWARTS SHOPS CORP,STEWARTS SHOP 434,,RT 365 MAIN ST,HOLLAND PATENT,NY,13354,2500,-75.263445,43.258381
Orange,715306,JAC,WARWICK VALLEY OLIVE OIL CO LLC,WARWICK VALLEY OLIVE OI,20,RAILROAD AVE,WARWICK,NY,10990,1000,-74.359849,41.25597
Suffolk,474591,JAC,RIVERHEAD FOOD INC,POLISH TOWN CORNER GRCY,432,PULASKI ST,RIVERHEAD,NY,11901,2200,-72.671578,40.921048
Rockland,706028,JAC,WB FOOD SERVICE LLC,SAKANAYA SUSHI BAR & GO,26,N. MIDDLETOWN RD,PEARL RIVER,NY,10965,700,-74.012855,41.060592
Albany,735759,JAC,SANDERI INC,NUTTINGS,1359,5TH AVE,WATERVLIET,NY,12189,1400,-73.706302,42.725324
Kings,616213,JAC,SALEH ALI A,A&S SUPERETTE,9423,FOSTER AVE,BROOKLYN,NY,11236,1200,-73.907579,40.647115
New York,710159,JAC,WEST VILLAGE DELI INC,WEST VILLAGE DELI,690,WASHINGTON ST,NEW YORK,NY,10014,1800,-74.008849,40.731509
Otsego,726900,JAC,DATLA II INC,EZ FOOD MART,387,MAIN STREET,ONEONTA,NY,13820,2000,-75.053897,42.458121
Kings,671284,JAC,T-L FOOD MARKET INC,T-L FOOD MARKET,119,AVENUE U,BROOKLYN,NY,11223,4000,-73.979928,40.596244
Kings,709818,A,KANG MEI QIN INC,KANG MEI QIN GROCERY,5101,6TH AVE,BROOKLYN,NY,11220,1600,-74.00878,40.643137
Kings,614312,JAC,NEPTUNE FOOD CORP,KEY FOOD 1280,505,NEPTUNE AVE,BROOKLYN,NY,11224,10700,-73.97245,40.579885
Bronx,725880,A,AMEER CONVENIENCE CORP,AMEER CONVENIENCE,730,LYDIG AVENUE,BRONX,NY,10462,1000,-73.866481,40.854474
Schenectady,420153,JAC,MAHABEER BHARRAT & KOWSILLA,MAHABEERS CONV STORE,82,MCCLELLAN ST,SCHENECTADY,NY,12304,1700,-73.924004,42.801214
Erie,149046,JACH,CHOCOLATE SHOP AND MORE INC THE,CHOCOLATE SHOP THE,871,NIAGARA ST,BUFFALO,NY,14213,2100,-78.897476,42.906919
New York,623913,JAC,BROS FOOD SUPERMARKET CORP,C-TOWN,188,AVENUE C,NEW YORK,NY,10009,16000,-73.976423,40.727406
Erie,739346,JAC,SPEEDWAY LLC,SPEEDWAY #9876,2150,GEORGE URBAN BLVD,DEPEW,NY,14043,1500,-78.732162,42.918735
Nassau,283692,A,DOLLAR TREE STORES INC,DOLLAR TREE STORE #3660,491B,BELLMORE AVE,E MEADOW,NY,11554,9000,-73.568807,40.7055
Otsego,742977,JAC,SINGH FUELS INC,APPLE EXPRESS,472,MAIN STREET,ONEONTA,NY,13820,2000,-75.04675,42.457137
New York,627059,JAC,LEX34 FRUIT&VEGETABLE CORP,LEX34 FRUIT&VEGETABLE,136,E 34TH ST,NEW YORK,NY,10016,5000,-73.979498,40.746321
Westchester,730829,JAC,355 HALSTEAD FOOD CORP,THE HARRISON MARKET,355,HALSTEAD AVE,HARRISON,NY,10528,9800,-73.709342,40.969552
Monroe,724903,JAC,PROJECT LEAN NATION INC,PROJECT LEAN NATION,1900,S CLINTON AVE,ROCHESTER,NY,14618,1675,-77.594889,43.121047
Bronx,745186,A,EMPIRE DRUGSTORE INC,EMPIRE PHARMACY,401,E 147TH STREET,BRONX,NY,10455,1500,-73.918254,40.814556
Clinton,751006,JAC,GRAND UNION OF PERU LLC,GRAND UNION OF PERU,50,S MAIN ST (2 GORMAN WAY),PERU,NY,12972,12000,,
Suffolk,702568,JAC,PANTRY AT WHITNEY MARKET INC THE,PANTRY AT WHITNEY MARKE,1,BAY WALK,OCEAN BEACH,NY,11770,1200,-73.158529,40.648706
Queens,737148,JAC,LIC BAGEL & DELI CORP,LIC BAGEL & DELI,41-04,27TH STREET,LONG ISLAND CITY,NY,11101,2500,-73.938565,40.751544
Bronx,609360,JAC,GOOD GUY MEAT MARKET CORP THE,GOOD GUY MEAT MARKET,187,E 167TH ST,BRONX,NY,10456,1000,-73.91712,40.834411
Kings,710752,JAC,PALAX DELI & GROCERY CORP,PALAX DELI & GROCERY,5222,4TH AVE,BROOKLYN,NY,11220,2000,-74.014259,40.644962
Kings,730365,JAC,FLAT GAS & MART INC,FLATLAND GAS MART,7702,FLATLANDS AVE,BROOKLYN,NY,11236,1000,-73.915201,40.63421
Orange,730579,A,DOLGEN NEW YORK LLC,DOLLAR GENERAL # 17793,1035,ROUTE 209,CUDDEBACKVILLE,NY,12729,8000,-74.59348,41.463564
Erie,722965,JAC,BIKRAM INC,HARRYS EXPRESS II,265,DELAWARE STREET,TONAWANDA,NY,14150,2500,-78.872274,43.011952
Queens,639342,JAC,KISSENA GLATT FARMS INC,ARONS KISSENA FARMS,72-15,KISSENA BLVD,FLUSHING,NY,11367,25000,-73.814781,40.728253
St. Lawrence,400150,JABC,KUNO OIL COMPANY INC,KUNOCO FOOD MART 4,1721,STATE HWY 72,PARISHVILLE,NY,13672,2000,-74.817917,44.626171
Ulster,744359,JAC,BEER WORLD 10 CORP,BEER WORLD,11,BONIFACE DR,PINE BUSH,NY,12566,10000,-74.294582,41.604309
New York,724913,JAC,JUICE PRESS LLC THE,JUICE PRESS 31,625,MADISON AVE,NEW YORK,NY,10022,800,-73.971492,40.763489
Clinton,90307,JAC,SONIS MART INC,SUNOCO APLUS,325,MARGARET ST,PLATTSBURGH,NY,12901,1500,-73.451915,44.708749
Suffolk,734404,JACH,ALI KATZ KITCHEN LLC,ALI KATZ KITCHEN,55,ROUTE 48/MIDDLE RD #4,MATTITUCK,NY,11952,950,,
New York,739601,A,AMSTERDAM 99C PLUS INC,AMSTERDAM 99C PLUS,912,AMSTERDAM AVE,NEW YORK,NY,10025,3000,-73.966326,40.799608
Westchester,720061,JAC,SOENGSUN CORP,SOENGSUN FISH @ FOODTOW,2005,ALBANY POST RD,CROTON ON HUDSON,NY,10520,100,-73.908951,41.228314
Albany,704426,JAC,LATHAM CIRCLE GAS INC,LATHAM CIRCLE MOBIL,477,TROY SCHENECTADY RD,LATHAM,NY,12110,750,-73.759559,42.7472
Niagara,738113,A,DOLLAR TREE STORES INC,DOLLAR TREE #07728,89,RIVER RD,NORTH TONAWANDA,NY,14120,5000,-78.8795,43.024361
Orange,336311,JAC,CHILANA&BHINDER INC,APLUS MINIMARKET,68,BROOKSIDE AVE,CHESTER,NY,10918,1800,-74.281254,41.355168
Erie,148969,JABC,MCDUFFIES OF SCOTLAND INC,MCDUFFIES BAKERY,9920,MAIN ST,CLARENCE,NY,14031,8100,-78.619903,42.975635
Kings,613079,JAC,CROWN HEIGHTS PHARMACY INC,APPLE DRUGS,376,KINGSTON AVE,BROOKLYN,NY,11213,1600,-73.942522,40.665975
Kings,718181,A,BROTHERS GROCERY STORE INC,BROTHERS GROCERY STORE,1631,EASTERN PKWY,BROOKLYN,NY,11233,800,-73.914204,40.671927
Columbia,100212,JAC,ANCRAM AMERISTORE INC,CITGO - AMERISTORE,7373,ST RT 22,COPAKE,NY,12516,1500,,
Dutchess,737751,JAC,A&S 1118 AGAM INC,A&S 1118 AGAM,1118,DUTCHESS TPKE,POUGHKEEPSIE,NY,12603,1200,-73.853292,41.718105
Monroe,737073,JAC,SAGER BEER WORKS LLC,SAGER BEER WORKS,46,SAGER DRIVE SUITE E,ROCHESTER,NY,14607,0,-77.569962,43.150254
Greene,727177,JAC,ATHENS ONE STOP INC,ATHENS ONE STOP,9763,ROUTE 9W,ATHENS,NY,12015,1000,-73.85303,42.291172
Nassau,732300,JAC,SHRI GURUGOBIND SINGH LLC,7 ELEVEN STORE #32716C,384,W JOHN ST,HICKSVILLE,NY,11801,1800,-73.540482,40.766539
Dutchess,708584,JAC,HAHN FARM LLC,HAHN FARM,1697,SALT POINT TPKE,SALT POINT,NY,12578,1200,-73.808285,41.796859
Suffolk,474694,A,DOLLAR TREE STORES INC,DOLLAR TREE #4513,4830,NESCONSET HWY,PORT JEFFERSON STA,NY,11776,0,-73.053301,40.918459
Wyoming,712215,JAC,MAIN STREET WINERY LLC,MAIN STREET WINERY,249,MAIN ST STE 2,ARCADE,NY,14009,1000,-78.422608,42.534293
Bronx,601477,JABC,STOP&SHOP SUPERMARKET CO LLC THE,STOP&SHOP 503,5716,BROADWAY,BRONX,NY,10463,27000,-73.902353,40.882156
Onondaga,722296,JAC,STEWARTS SHOPS CORP,STEWARTS SHOP #452,120,OSWEGO ST,BALDWINSVILLE,NY,13027,3672,-76.337127,43.164953
Kings,742653,JAC,AMMAR DELI AND GROCERY INC,AMMAR DELI AND GROCERY,2972,AVE X,BROOKLYN,NY,11235,1500,-73.938705,40.594027
Monroe,260575,JAC,GARDEN FACTORY THE INC,GARDEN FACTORY THE,2126,BUFFALO RD,ROCHESTER,NY,14624,15000,-77.708132,43.147915
Steuben,460120,A,DOLGEN NEW YORK LLC,DOLLAR GENERAL 8149,7451,SENECA RD N,HORNELL,NY,14843,8900,-77.665412,42.361836
Warren,520244,A,CSM TICONDEROGA LLC,DOCKSIDE LANDING MARINA,9130,LAKESHORE DR,HAGUE,NY,12836,0,-73.493863,43.74771
Bronx,745191,JAC,3960 GRAB & GO CORP,3960 GRAB & GO,3960,WHITE PLAINS RD,BRONX,NY,10466,1000,-73.860681,40.887455
Warren,704414,JABC,TOPS MARKETS LLC,TOPS MARKETS #702,6,SAGAMORE RD,BOLTON LANDING,NY,12814,12000,-73.647227,43.558842
Tompkins,500120,JAC,TARGET CORPORATION,TARGET 1508,40,CATHERWOOD RD,ITHACA,NY,14850,125000,-76.487765,42.483784
Nassau,743253,JAC,BOLLA OPERATING LI CORP,KINGS WEST GATE C-STORE,4000,HEMPSTEAD TPKE,FARMINGDALE,NY,11735,0,-73.463325,40.7294
Nassau,716980,JACD,BLISSFUL BUCH LLC,COASTAL CRAFT,3567,LAWSON BLVD,OCEANSIDE,NY,11572,2400,-73.650663,40.622461
New York,731549,A,JACKS 40 WEST NYC CORP,JACKS 99,223,WEST 40TH STREET,NEW YORK,NY,10018,6000,-73.988539,40.755014
Greene,195232,JAC,STEWARTS SHOPS CORP,STEWARTS SHOP 120,11849,US 9W,WEST COXSACKIE,NY,12192,5000,-73.831497,42.363476
New York,621526,JAC,3484 BROADWAY MINI MARKET INC,3484 BROADWAY MINI MKT,3484,BROADWAY,NEW YORK,NY,10031,1800,-73.951606,40.824674
Wayne,732501,A,WALGREEN EASTERN CO INC,WALGREENS # 18076,4061,ROUTE 104,WILLIAMSON,NY,14589,0,-77.187875,43.232824
Kings,731340,A,NAMO SNACK SHOP INC,NAMO SNACK SHOP,3,METRO TECH CENTER,BROOKLYN,NY,11201,100,-73.985917,40.694371
Kings,743992,JAC,CROPSEY DELI & GROCERY INC,CROPSEY DELI & GROCERY,1919,CROPSEY AVE,BROOKLYN,NY,11214,1000,-74.00448,40.601089
Erie,148865,JAC,CONSUMERS BEVERAGES INC,CONSUMERS BEVERAGES,1244,FRENCH RD,DEPEW,NY,14043,5000,-78.706866,42.867847
Westchester,722828,JACD,CENTRAL INT MARKET INC,CENTRAL INT MARKET,8-Jun,WARBURTON AVE,YONKERS,NY,10701,5000,-73.899472,40.934734
Saratoga,410141,JABC,PUTNAM MARKET INC,PUTNAM MARKET,431,BROADWAY,SARATOGA SPRINGS,NY,12866,5200,-73.785237,43.082117
Bronx,605932,JAC,BIG G DELI INC,BIG G DELI,3386,JEROME AVE,BRONX,NY,10467,1900,-73.883667,40.880562
Steuben,460015,JAC,UNITED REFINING CO OF PA INC,KWIK FILL M0379,149,SENECA ST,HORNELL,NY,14843,2500,-77.660988,42.334385
Bronx,715683,JAC,YOUR CHOICE DELI GROCERY CORP,YOUR CHOICE DELI GROCER,2363,VALENTINE AVE,BRONX,NY,10458,800,-73.897439,40.85861
Ulster,738190,JAC,KINGSTON STANDARD LLC,KINGSTON STANDARD BREWI,22,JANSEN AVE,KINGSTON,NY,12401,2000,-73.992935,41.926484
St. Lawrence,400340,JAC,PRICE CHOPPER OPERATING CO INC,PRICE CHOPPER #032,152,HARTE HAVEN PLAZA,MASSENA,NY,13662,64000,-74.881116,44.920225
Bronx,732659,JAC,AMMAN GOURMET DELI CORP,AMMAN GOURMET DELI,3949,WHITE PLAINS RD,BRONX,NY,10466,0,-73.860687,40.887446
Schenectady,747383,JAC,1159 DAILY EXPRESS INC,1159 DAILY EXPRESS,1159,CRANE ST,SCHENECTADY,NY,12303,0,-73.9459,42.795608
Bronx,748242,A,KINGS DRUGS INC,KINGS DRUGS,306,E 149TH ST,BRONX,NY,10451,0,-73.92129,40.816953
Kings,614096,JAC,LAGUERRE JOSEPH & MARIE,WINDSOR'S GROCERY STORE,1816,CHURCH AVE,BROOKLYN,NY,11226,800,-73.962627,40.649618
Broome,717392,A,MAIN STREET MARKET OF ENDWELL INC,MAIN STREET MARKET,2906,EAST MAIN STREET,ENDWELL,NY,13760,0,-76.028284,42.106175
New York,711889,JADHK,CITIWAVE TRADING INC,CITIWAVE TRADING,17,LUDLOW ST,NEW YORK,NY,10002,2000,-73.990847,40.71524
Suffolk,724952,JAC,234 REINA GAS CORP,EXXON MART,234,MEDFORD AVENUE,PATCHOGUE,NY,11772,800,-73.007837,40.775451
Kings,739458,JAC,CHECO GROCERY & GRILL CORP,CHECO GROCERY & GRILL,620,HOWARD AVENUE,BROOKLYN,NY,11212,700,-73.919796,40.666917
Warren,520213,JACD,ADIRONDACK WINERY LLC,ADIRONDACK WINERY,285,CANADA ST,LAKE GEORGE,NY,12845,2500,-73.712525,43.425948
Queens,639510,JAC,GALAXY STATION & MINIMART INC,GALAXY STATION&MINIMART,85-05,ASTORIA BLVD,JACKSON HEIGHTS,NY,11369,1400,,
Saratoga,747634,JAC,SHAHARIN INC,AL-AMIN ASIAN SUPERMARK,217,GUIDEBOARD RD,CLIFTON PARK,NY,12065,0,-73.739856,42.837855
Bronx,608224,JAC,GRAND CONCOURSE PETROLEUM LLC,GRAND CONCOURSE PETROLE,350,GRAND CONCOURSE,BRONX,NY,10451,3000,-73.928481,40.81571
Orange,724370,JABC,GRANDPA MOUSTACHES CHEESECAKES LL,GRANDPA MOUSTACHES CHEE,32,WEST MAIN STREET,WASHINGTONVILLE,NY,10992,441,-74.168772,41.426838
Chautauqua,60200,A,CVS ALBANY LLC,CVS PHARMACY 05089,10,S WORK ST,FALCONER,NY,14733,5000,-79.197538,42.118617
Nassau,738645,JAC,TRIPLE F DELI CORP,TRIPLE F DELI,227,BABYLON TPKE,ROOSEVELT,NY,11575,1000,-73.583012,40.674701
Bronx,737508,JAC,NEW TASTE DELI CORP,NEW TASTE DELI,1888,JEROME AVENUE,BRONX,NY,10453,1000,-73.910714,40.85001
Onondaga,310060,JABC,SONBYRNE SALES INC,BYRNE DAIRY STORE #61,5798,RT 31,CICERO,NY,13039,3600,,
New York,623062,JAC,DOWNTOWN FOOD CORP,C TOWN,5,ST JAMES PL,NEW YORK,NY,10038,5000,-74.000498,40.71101
New York,627512,A,MARQUEE MERCHANDISE LLC,LOBBY SNACK,240,W 44TH ST,NEW YORK,NY,10036,60,-73.987709,40.758051
Erie,740358,JAC,A PLUS CONVENIENCE STORES INC,7 ELEVEN #35136A,1055,WALDEN AVE,BUFFALO,NY,14211,2500,-78.796759,42.906975
Queens,636599,A,RITE AID OF NEW YORK INC,RITE AID PHARMACY 03984,82-13,37TH AVE,JACKSON HEIGHTS,NY,11372,6000,-73.884201,40.749757
Nassau,726846,A,CVS ALBANY LLC,CVS/PHARMACY #1073,450,MAIN STREET,FARMINGDALE,NY,11735,30000,-73.444975,40.729329
Columbia,749329,A,NEW LEBANON FARMERS MARKET LLC,NEW LEBANON FARMERS MAR,528,US RT 20,NEW LEBANON,NY,12125,0,-73.392561,42.466509
New York,724374,JAC,OLIVE OASIS DELI CAFE CORP,OLIVE OASIS DELI CAFE,1869,2ND AVENUE,NEW YORK,NY,10029,0,-73.946888,40.78452
Erie,740383,JAC,FILLMORE ONE STOP MARKET LLC,FILLMORE ONE STOP MARKE,1411,FILLMORE AVENUE,BUFFALO,NY,14211,1800,-78.839076,42.912011
Bronx,729825,JAC,857 COMMUNITY DELI & GRILL CORP,857 COMMUNITY DELI & GR,857,E 241ST ST,BRONX,NY,10470,1200,-73.847124,40.901842
Queens,750682,A,4306 HAPPY GROCERY INC,4306 HAPPY GROCERY,43-06,NATIONAL STREET,CORONA,NY,11368,0,-73.863908,40.746441
Kings,610694,A,LAPRETE KIM&GERRY,BAKERS BOUNTY,,COURT ST BKLYN BOROUGH HALL,BROOKLYN,NY,11201,200,-73.989513,40.695512
Dutchess,130952,JAC,NEW YORK BEEF CO LLC,NEW YORK BEEF CO,41,STRINGHAM RD,POUGHKEEPSIE,NY,12603,1200,-73.801929,41.652601
Seneca,744234,A,DOLGEN NEW YORK LLC,DOLLAR GENERAL #20950,8453,MAIN ST,INTERLAKEN,NY,14847,0,-76.724666,42.614745
Warren,737038,JAC,HUDSON RIVER TRDING CO OF N CRK,THE HUNGRY CROW AT HRTC,290,& 292 MAIN ST,NORTH CREEK,NY,12853,1500,-73.987639,43.701337
Queens,734622,JAC,Y&M GLATT MINIMART INC,Y&M GLATT MINIMART,116-33,METROPOLITAN AVE,RICHMOND HILL,NY,11418,1200,-73.835289,40.707218
Greene,190167,JAC,PRIYA TWO PETROLEUM INC,LUCKY MART,4625,RT 23 VERNAL BUTLER RD #,CAIRO,NY,12413,1200,,
Kings,746931,JAC,ALOE FRUITS LLC,ALOE FRUITS,120,UNION AVE,BROOKLYN,NY,11206,5000,-73.950211,40.704181
Nassau,737316,A,BREAD OUTLET STORE CORP THE,BREAD OUTLET STORE THE,759,FOXHURST ROAD,BALDWIN,NY,11510,1000,-73.613456,40.649279
Rockland,732191,JAC,SAIKRUPA ENTERPRISES INC,MOBIL MART,109,W RAMAPO RD,GARNERVILLE,NY,10923,1000,-74.013878,41.193719
New York,745352,JAC,1331 MEAT & PRODUCE CORP,SHOP FAIR,1331,ST NICHOLAS AVE,NEW YORK,NY,10033,10000,,
Westchester,552792,JAC,MANA FOOD CENTER CORP,MANA FOOD CENTER,120,SPRING ST,OSSINING,NY,10562,3000,-73.863956,41.157705
Kings,615055,JAC,YOM TOV INC,SCHWARTZ APPETIZERS,4824,16TH AVE,BROOKLYN,NY,11204,2000,-73.985414,40.631115
Monroe,262318,JAC,MICHAEL BLOCH ASSOCIATES INC,POPCORN CHARLIES,3800,"MONROE AVE, DOOR 19",PITTSFORD,NY,14534,900,-77.524349,43.094417
Kings,707205,A,ASM PHARMACY CORP,GOOD NEIGHBOUR PHARMACY,1604,AVENUE M,BROOKLYN,NY,11230,1400,-73.958816,40.618139
Kings,670814,JAC,RED BARN FRMS FRT&VEGETABLES CORP,RED BARN FRMS FRT&VGTBL,306,86TH ST,BROOKLYN,NY,11209,1000,-74.030727,40.623386
Kings,743043,JAC,NEVINS FOOD MART INC,NEVINS FOOD MART,26,NEVINS ST,BROOKLYN,NY,11217,1000,-73.981287,40.688094
Orange,750128,A,DOLGEN NEW YORK LLC,DOLLAR GENERAL #19908,748,ROUTE 284,WESTTOWN,NY,10998,0,-74.542143,41.335121
Queens,751177,JAC,MARGARITA MEXICAN DELI  CORP,MARGARITA MEXICAN DELI,87-17,ROOSEVELT AVE,JACKSON HEIGHTS,NY,11372,900,-73.879118,40.74814
Monroe,261288,A,SALEH YASSER M,EZ IN GROCERY,886,N CLINTON AVE,ROCHESTER,NY,14605,1000,-77.613133,43.174506
Nassau,280792,JAC,KIM HAE S,7-ELEVEN FD STR 32124A,1271,GRAND AVE,BALDWIN,NY,11510,2000,-73.614723,40.679272
New York,745362,A,HEIGHTS GROCERY INC,HEIGHTS GROCERY,3801,BROADWAY,NEW YORK,NY,10032,1800,-73.944398,40.834934
Kings,718078,JAC,APPLETREE  INC,APPLETREE NATURAL MKT,7613,3RD AVE,BROOKLYN,NY,11209,1000,-74.028232,40.630361
Ulster,515480,JAC,WEICK WILLIAM,COUNTRY STORE THE,1063,RT 9W PO BOX 233,ESOPUS,NY,12429,1600,,
Westchester,741720,JAC,NYCE GOURMET DELI CORP,NYCE GOURMET DELI,196,ASHBURTON AVENUE,YONKERS,NY,10701,1500,-73.888485,40.939374
Sullivan,480184,JAC,UTTER ROBERT,TURNWOOD GENERAL STORE,2018,BEAVERKILL RD,LIVINGSTON MANOR,NY,12758,600,-74.725592,42.029901
Oneida,300560,A,"KPH HEALTHCARE SERVICES, INC.",KINNEY DRUGS #92,261,UTICA BLVD,BOONVILLE,NY,13309,0,,
Bronx,725381,JAC,167 PARKS FISH MARKET INC,GRAND FISH MARKET,214,E 167TH STREET,BRONX,NY,10456,1500,-73.916253,40.833866
Kings,726709,JAC,STOP ONE DELI & GROCERY INC II,STOP ONE DELI & GROCERY,1222,BUSHWICK AVE,BROOKLYN,NY,11221,1000,-73.915287,40.687876
Nassau,717167,JAC,FAMILY GOURMET DELI CORP,FAMILY GOURMET DELI,292,NORTH MAIN ST,FREEPORT,NY,11520,1200,-73.587053,40.666606
Wayne,540598,JABCG,MAPLE RIDGE FRUIT FARM LLC,APPLE SHED THE,3391,FAIRVILLE MAPLE RIDGE RD,NEWARK,NY,14513,3000,-77.090913,43.121104
Suffolk,748688,JAC,SAIB ENTERPRISES LLC,EDIBLE ARRANGEMENTS,82,OLD RIVERHEAD RD,WESTHAMPTON BEACH,NY,11978,2500,-72.646946,40.827258
Albany,738097,JAC,COLLAR CITY SWEET SHOPPE LLC,THE CANDY COTTAGE & GIF,1082,NEW LOUDON ROAD,COHOES,NY,12047,1600,-73.745911,42.781401
Queens,737369,JAC,NY GIANT FARM INC,NEW GIANT FARM,211-14,HILLSIDE AVE,QUEENS VILLAGE,NY,11427,4000,-73.755257,40.723972
Cortland,708104,JAC,HAMLIN BARBARA J,PIED PIPER PRODUCTS,1335,W VALLEY RD,PREBLE,NY,13141,800,-76.253933,42.836676
Rensselaer,380613,JAC,STEWARTS SHOPS CORP,STEWARTS SHOP 212,764,5TH AVE,TROY,NY,12182,1500,-73.670199,42.781468
Queens,750382,JAC,ELMHURST DELI & JUICE BAR CORP,ELMHURST DELI & JUICE B,80-03,BROADWAY,ELMHURST,NY,11373,0,-73.884908,40.743892
New York,745017,JAC,BLUEFIN FISH MARKET INC,BLUEFIN FISH,29,LENOX AVE.,NEW YORK,NY,10026,1000,-73.951792,40.799262
Oneida,736384,A,BIG LOTS STORES INC,BIG LOTS 5365,4645,COMMERCIAL DRIVE,NEW HARTFORD,NY,13413,50000,-75.312364,43.088475
Suffolk,733789,A,FAMILY DOLLAR STORES OF NY INC,FAMILY DOLLAR #31717,1735,MONTAUK HWY,BELLPORT,NY,11713,4000,-72.943408,40.774145
Kings,612307,JACK,BOGOPA INC,FOOD BAZAAR,17-59,RIDGEWOOD PL,BROOKLYN,NY,11237,35000,-73.910373,40.697986
Bronx,724339,JAC,R&M TEJADA CORP,R&M TEJADA,526,MORRIS PARK AVE,BRONX,NY,10460,1200,-73.871718,40.84229
Saratoga,719075,A,DOLGEN NEW YORK LLC,DOLLAR GENERAL #15734,162,W MILTON RD,BALLSTON SPA,NY,12020,0,-73.928721,43.036889
Warren,734559,A,ADIRONDACK COTTON CO INC,ADIRONDACK COTTON CO,1,MAIN ST UNIT 1,BOLTON LANDING,NY,12814,1400,-73.401238,43.561266
Orange,331150,JAC,DEEP QUEST ENTERPRISES LLC,SUNOCO MART,154,DOLSON AVE,MIDDLETOWN,NY,10940,1200,-74.425857,41.428575
Kings,716937,JAC,ANAH MINIMARKET CORP,ANAH MINIMARKET,382,RALPH AVE,BROOKLYN,NY,11233,1500,-73.921938,40.675784
Erie,140190,A,GHORAB MOHSSEN E,WILLIAM MINI MART,654-658,WILLIAM ST,BUFFALO,NY,14206,1000,-78.847138,42.885103
Kings,617495,A,JAMES C DELI CORP,JAMES C DELI GROCERY,334,LEWIS AVE,BROOKLYN,NY,11221,1100,-73.935417,40.684821
Nassau,280829,A,S&S AUTOMOTIVE CENTER INC,MOBIL MART,325,S OYSTER BAY RD,PLAINVIEW,NY,11803,100,-73.503489,40.787039
Schenectady,425460,JAC,STEWARTS SHOPS CORP,STEWARTS SHOP 116,4032,STATE HWY 30,ESPERANCE,NY,12066,2500,-74.246017,42.760736
Queens,636328,JABC,DYNASTY MEAT CORP,FRESH N SAVE,46-10,QUEENS BLVD,SUNNYSIDE,NY,11104,12000,-73.918457,40.742978
Oneida,749322,A,GOLDEN LOTUS FOOD STORES LLC,GOLDEN LOTUS FOOD STORE,1122,KOSSUTH AVE,UTICA,NY,13501,19000,-75.216674,43.089837
Bronx,721708,JAC,182ND ST DELI GROCERY CORP,182ND ST DELI GROCERY,816,E 182ND STREET,BRONX,NY,10460,800,-73.883632,40.848591
Kings,613429,JABCH,MJP DELI&GROCERY INC,MJP DELI&GROCERY,1010,BEVERLEY RD,BROOKLYN,NY,11218,800,-73.969652,40.643799
Kings,619638,JAC,ORTIZ GUARIONEX,GO DELI GROCERY,268,MARCUS GARVEY BLVD,BROOKLYN,NY,11221,1800,-73.939136,40.688471
Ontario,727927,JAC,REID STORES INC,CROSBYS 40070,3211,COUNTY RD 10,CANANDAIGUA,NY,14424,0,-77.245611,42.875146
Bronx,715873,JAC,VARGAS MEAT MARKET CORP,VARGAS MEAT MARKET,1531,WATSON AVE,BRONX,NY,10472,800,-73.877956,40.826119
Queens,744050,A,FRANCLIN QUEZADA MERCADO,FQ MULTI SERVICE,1702,PALMETTO ST,RIDGEWOOD,NY,11385,700,-73.908747,40.701776
Monroe,747984,JAC,SHAIBI HAMDAN AL,GENESEE GROCERY & DELI,176,GENESEE STREET,ROCHESTER,NY,14611,0,-77.636053,43.146759
Kings,718064,JAC,7TH ST DELI & GROCERY CORP,7TH ST DELI & GROCERY,402,5TH AVE,BROOKLYN,NY,11215,1200,-73.985197,40.67049
Queens,634445,JAC,ESSA NASSR&KAID FAHMI,ROCKAWAY EXPRESS DELI,114-02,ROCKAWAY BLVD,SOUTH OZONE PARK,NY,11420,1600,-73.824535,40.676989
Nassau,704325,JAC,COSMOS CREATIONS INC,EDIBLE ARRANGEMENTS 942,1040A,PARK BLVD,MASSAPEQUA PARK,NY,11762,1500,-73.455425,40.680119
Kings,702353,JAC,GUSHO PIZZA DELI GROCERY INC,OCEAN ON FULTON,1747,FULTON ST,BROOKLYN,NY,11233,1000,-73.929128,40.679282
Rockland,740225,JAC,SHARZZ CORP,7 ELEVEN STORE#11462G,191,N MIDDLETOWN ROAD,PEARL RIVER,NY,10965,2000,-74.012488,41.066276
New York,745071,JAC,NYC ORGANIC DELI CORP,NYC ORGANIC DELI,3340,BROADWAY STORE 1 AKA: 535 W,NEW YORK,NY,10031,1800,,
Monroe,741367,JAC,CUTAIA MARKET INC,CUTAIAS MEAT DELI GRILL,4165,BUFFALO ROAD SUITE E,ROCHESTER,NY,14624,0,-77.787315,43.127318
Nassau,281631,JABC,STOP&SHOP SUPERMARKET CO LLC THE,STOP&SHOP 555,3750,HEMPSTEAD TPKE,LEVITTOWN,NY,11756,50000,-73.496848,40.7255
Cattaraugus,40145,A,DOLGEN NEW YORK LLC,DOLLAR GENERAL 6175,169,S MAIN ST,PORTVILLE,NY,14770,7000,-78.338146,42.028319
Kings,749143,JAC,RED STORE GROCERY AND DELI CORP,RED STORE GROCERY AND D,323,POWELL STREET,BROOKLYN,NY,11212,2000,-73.903129,40.666364
Erie,140878,A,GENERAL NUTRITION CORP,GENERAL NUTRITION 6259,2638,DELAWARE AVE,BUFFALO,NY,14216,1000,-78.869304,42.955501
Chemung,743534,JAC,M P CLEARY INC,ACES & EIGHTS GEN STR N,1156,BROADWAY,ELMIRA,NY,14904,5000,-76.819588,42.055631
Saratoga,741999,JAC,DOUBLECUT LLC,SINGLECUT,6,FAIRCHILD SQUARE,CLIFTON PARK,NY,12065,40000,-73.792022,42.901581
Albany,703650,JAC,SHOP RITE SUPERMARKET INC,SHOPRITE #230 SLINGERLA,41,VISTA BLVD,SLINGERLANDS,NY,12159,65000,-73.863049,42.641191
Otsego,360053,JAC,MILLERS DELI OF EDMESTON INC,MILLERS DELI,1995,RT 80,EDMESTON,NY,13335,1200,-75.219458,42.700692
Bronx,609462,JAC,DIKO MUHAMADOU,MD AFRICAN MKT & DISCOU,2252,WEBSTER AVE,BRONX,NY,10457,2000,-73.895945,40.855696
Albany,10864,A,WALGREEN EASTERN CO INC,WALGREENS #09971,41,HOLLAND AVE,ALBANY,NY,12208,3500,-73.773294,42.648084
Dutchess,130047,JABC,MEADOWBROOK FARM INC,MEADOWBROOK FARM,29,OLD MYERS CORNERS RD,WAPPINGERS FALLS,NY,12590,4000,-73.873848,41.60387
Ontario,735028,JAC,SPEEDWAY LLC,EXPRESS MART #318/SPEED,2498,ROCHESTER RD,CANANDAIGUA,NY,14424,0,-77.299275,42.910492
Bronx,609576,JAC,STAR DELI GROCERY CORP BOSTON RD,STAR DELI GROCERY CORP,2243,WHITE PLAINS RD,BRONX,NY,10467,1000,-73.867606,40.858522
Monroe,262296,JAC,JOSEPH EXPRESS INC,JOSEPH EXPRESS,646,JOSEPH AVE,ROCHESTER,NY,14621,1200,-77.607665,43.176001
New York,737606,JAC,A&J MEAT MARKET INC,SHOP FAIR SUPERMARKET,2108,ADAM CLAYTON POWELL JR BLVD,NEW YORK,NY,10027,8000,-73.948053,40.809498
Dutchess,131135,A,DOLGEN NEW YORK LLC,DOLLAR GENERAL #13402,1475,"ROUTE 9D, STE A1-5",WAPPINGERS FALLS,NY,12590,9090,-73.964813,41.527111
Kings,742771,JAC,BEGUM ARSHE A,TAQWA DELI GROCERY & HA,1263,FULTON ST,BROOKLYN,NY,11216,2000,-73.950808,40.68046
Kings,616495,JAC,BRAUN JACOB,BRAUNS FISH STORE,310,MARCY AVE.,BROOKLYN,NY,11211,1000,,
Albany,10454,JABC,PRICE CHOPPER OPERATING CO INC,PRICE CHOPPER 196,329,TOWN SQUARE PLAZA,GLENMONT,NY,12077,57000,,
Kings,731147,JAC,LUCKY 7 SMOKE SHOP & DELI II INC,LUCKY 7 SMOKE SHOP & DE,2713,AVENUE U,BROOKLYN,NY,11229,2400,-73.944251,40.600171
Columbia,100179,JAC,STEWARTS SHOPS CORP,STEWARTS SHOP 209,13,FAIRVIEW AVE,HUDSON,NY,12534,1800,-73.772831,42.247662
Nassau,749870,A,RAM GREEN FARM INC,RAM GREEN FARM,1285,HEMPSTEAD TPKE,ELMONT,NY,11003,3000,-73.687703,40.708419
Oneida,300500,JAC,MARTINS FOODS OF S BURLINGTON LLC,HANNAFORD 8313,55,MEADOW ST,CLINTON,NY,13323,39000,-75.387736,43.042493
Bronx,746008,JAC,1681 GROCERY INC,1681 GROCERY,4127,LACONIA AVE,BRONX,NY,10466,1000,-73.846931,40.887886
Kings,740326,JAC,EVERGREEN FARMERS MARKET CORP,EVERGREEN FARMERS MARKE,7802,5TH AVENUE,BROOKLYN,NY,11209,21000,-74.02356,40.6272
Queens,746828,JAC,CP MEAT CENTER INC,CP MEAT CENTER,15-25,COLLEGE POINT BLVD,COLLEGE POINT,NY,11356,1000,-73.845851,40.783345
Kings,706380,JAC,GOLDEN OWL BROTHERS INC,GOLDEN SUSHI,25,N 5TH ST,BROOKLYN,NY,11249,100,-73.962493,40.718967
Tioga,744697,JAC,FOREST HILL MERCHANTS LLC,FUDDY DUDDY'S CONFECTIO,27,LAKE ST.,OWEGO,NY,13827,0,-76.261317,42.10324